country,code,name,name_en,type,parent
AD,AD-07,"Andorra la Vella",,parish,
AD,AD-02,Canillo,,parish,
AD,AD-03,Encamp,,parish,
AD,AD-08,Escaldes-Engordany,,parish,
AD,AD-04,"La Massana",,parish,
AD,AD-05,Ordino,,parish,
AD,AD-06,"Sant Julià de Lòria",,parish,
AE,AE-AJ,‘Ajmān,Ajman,emirate,
AE,AE-AZ,"Abū Z̧aby","Abu Dhabi",emirate,
AE,AE-FU,"Al Fujayrah",Fujairah,emirate,
AE,AE-SH,"Ash Shāriqah",Sharjah,emirate,
AE,AE-DU,Dubayy,Dubai,emirate,
AE,AE-RK,"Ra’s al Khaymah","Ras Al Khaimah",emirate,
AE,AE-UQ,"Umm al Qaywayn","Umm Al Quwain",emirate,
AF,AF-BDS,Badakhshān,Badakhshan,province,
AF,AF-BDG,Bādghīs,Badghis,province,
AF,AF-BGL,Baghlān,Baghlan,province,
AF,AF-BAL,Balkh,Balkh,province,
AF,AF-BAM,Bāmyān,Bamyan,province,
AF,AF-DAY,Dāykundī,Daykundi,province,
AF,AF-FRA,Farāh,Farah,province,
AF,AF-FYB,Fāryāb,Faryab,province,
AF,AF-GHA,Ghaznī,Ghazni,province,
AF,AF-GHO,Ghōr,Ghōr,province,
AF,AF-HEL,Helmand,Helmand,province,
AF,AF-HER,Herāt,Herat,province,
AF,AF-JOW,Jowzjān,Jowzjan,province,
AF,AF-KAB,Kābul,Kabul,province,
AF,AF-KAN,Kandahār,Kandahar,province,
AF,AF-KAP,Kāpīsā,Kapisa,province,
AF,AF-KHO,Khōst,Khost,province,
AF,AF-KNR,Kunaṟ,Kunar,province,
AF,AF-KDZ,Kunduz,Kunduz,province,
AF,AF-LAG,Laghmān,Laghman,province,
AF,AF-LOG,Lōgar,Logar,province,
AF,AF-NAN,Nangarhār,Nangarhar,province,
AF,AF-NIM,Nīmrōz,Nimruz,province,
AF,AF-NUR,Nūristān,Nuristan,province,
AF,AF-PKA,Paktīkā,Paktika,province,
AF,AF-PIA,Paktiyā,Paktia,province,
AF,AF-PAN,Panjshayr,Panjshir,province,
AF,AF-PAR,Parwān,Parwan,province,
AF,AF-SAM,Samangān,Samangan,province,
AF,AF-SAR,"Sar-e Pul","Sar-e Pol",province,
AF,AF-TAK,Takhār,Takhar,province,
AF,AF-URU,Uruzgān,Urozgan,province,
AF,AF-WAR,Wardak,"Maidan Wardak",province,
AF,AF-ZAB,Zābul,Zabul,province,
AG,AG-03,"Saint George",,parish,
AG,AG-04,"Saint John",,parish,
AG,AG-05,"Saint Mary",,parish,
AG,AG-06,"Saint Paul",,parish,
AG,AG-07,"Saint Peter",,parish,
AG,AG-08,"Saint Philip",,parish,
AG,AG-10,Barbuda,,dependency,
AG,AG-11,Redonda,,dependency,
AL,AL-01,Berat,,county,
AL,AL-09,Dibër,,county,
AL,AL-02,Durrës,,county,
AL,AL-03,Elbasan,,county,
AL,AL-04,Fier,,county,
AL,AL-05,Gjirokastër,,county,
AL,AL-06,Korçë,,county,
AL,AL-07,Kukës,,county,
AL,AL-08,Lezhë,,county,
AL,AL-10,Shkodër,,county,
AL,AL-11,Tiranë,,county,
AL,AL-12,Vlorë,,county,
AM,AM-AG,Aragac̣otn,Aragatsotn,region,
AM,AM-AR,Ararat,Ararat,region,
AM,AM-AV,Armavir,Armavir,region,
AM,AM-ER,Erevan,Yerevan,city,
AM,AM-GR,Geġark'unik',Gegharkunik,region,
AM,AM-KT,Kotayk',Kotayk,region,
AM,AM-LO,Loṙi,Lori,region,
AM,AM-SH,Širak,Shirak,region,
AM,AM-SU,Syunik',Syunik,region,
AM,AM-TV,Tavuš,Tavush,region,
AM,AM-VD,"Vayoć Jor","Vayots Dzor",region,
AO,AO-BGO,Bengo,Bengo,province,
AO,AO-BGU,Benguela,Benguela,province,
AO,AO-BIE,Bié,Bie,province,
AO,AO-CAB,Cabinda,Cabinda,province,
AO,AO-CCU,"Cuando Cubango","Cuando Cubango",province,
AO,AO-CNO,Cuanza-Norte,"North Cuanza",province,
AO,AO-CUS,Cuanza-Sul,"South Cuanza",province,
AO,AO-CNN,Cunene,Cunene,province,
AO,AO-HUA,Huambo,Huambo,province,
AO,AO-HUI,Huíla,Huila,province,
AO,AO-LUA,Luanda,Luanda,province,
AO,AO-LNO,Lunda-Norte,"North Lunda",province,
AO,AO-LSU,Lunda-Sul,"South Lunda",province,
AO,AO-MAL,Malange,Malanje,province,
AO,AO-MOX,Moxico,Moxico,province,
AO,AO-NAM,Namibe,Namibe,province,
AO,AO-UIG,Uíge,Uige,province,
AO,AO-ZAI,Zaire,Zaire,province,
AR,AR-B,"Buenos Aires",,province,
AR,AR-K,Catamarca,,province,
AR,AR-H,Chaco,,province,
AR,AR-U,Chubut,,province,
AR,AR-C,"Ciudad Autónoma de Buenos Aires",,city,
AR,AR-X,Córdoba,,province,
AR,AR-W,Corrientes,,province,
AR,AR-E,"Entre Ríos",,province,
AR,AR-P,Formosa,,province,
AR,AR-Y,Jujuy,,province,
AR,AR-L,"La Pampa",,province,
AR,AR-F,"La Rioja",,province,
AR,AR-M,Mendoza,,province,
AR,AR-N,Misiones,,province,
AR,AR-Q,Neuquén,,province,
AR,AR-R,"Río Negro",,province,
AR,AR-A,Salta,,province,
AR,AR-J,"San Juan",,province,
AR,AR-D,"San Luis",,province,
AR,AR-Z,"Santa Cruz",,province,
AR,AR-S,"Santa Fe",,province,
AR,AR-G,"Santiago del Estero",,province,
AR,AR-V,"Tierra del Fuego",,province,
AR,AR-T,Tucumán,,province,
AT,AT-1,Burgenland,Burgenland,state,
AT,AT-2,Kärnten,Carinthia,state,
AT,AT-3,Niederösterreich,"Lower Austria",state,
AT,AT-4,Oberösterreich,"Upper Austria",state,
AT,AT-5,Salzburg,Salzburg,state,
AT,AT-6,Steiermark,Styria,state,
AT,AT-7,Tirol,Tyrol,state,
AT,AT-8,Vorarlberg,Vorarlberg,state,
AT,AT-9,Wien,Vienna,state,
AU,AU-NSW,"New South Wales",,state,
AU,AU-QLD,Queensland,,state,
AU,AU-SA,"South Australia",,state,
AU,AU-TAS,Tasmania,,state,
AU,AU-VIC,Victoria,,state,
AU,AU-WA,"Western Australia",,state,
AU,AU-ACT,"Australian Capital Territory",,territory,
AU,AU-NT,"Northern Territory",,territory,
AZ,AZ-NX,Naxçıvan,Nakhchivan,"autonomous republic",
AZ,AZ-ABS,Abşeron,Absheron,rayon,
AZ,AZ-AGC,Ağcabədi,Aghjabadi,rayon,
AZ,AZ-AGM,Ağdam,Aghdam,rayon,
AZ,AZ-AGS,Ağdaş,Agdash,rayon,
AZ,AZ-AGA,Ağstafa,Aghstafa,rayon,
AZ,AZ-AGU,Ağsu,Aghsu,rayon,
AZ,AZ-AST,Astara,Astara,rayon,
AZ,AZ-BAB,Babək,Babek,rayon,AZ-NX
AZ,AZ-BA,Bakı,Baku,municipality,
AZ,AZ-BAL,Balakən,Balakan,rayon,
AZ,AZ-BAR,Bərdə,Barda,rayon,
AZ,AZ-BEY,Beyləqan,Beylagan,rayon,
AZ,AZ-BIL,Biləsuvar,Bilasuvar,rayon,
AZ,AZ-CAB,Cəbrayıl,Jabrayil,rayon,
AZ,AZ-CAL,Cəlilabad,Jalilabad,rayon,
AZ,AZ-CUL,Culfa,Julfa,rayon,AZ-NX
AZ,AZ-DAS,Daşkəsən,Dashkasan,rayon,
AZ,AZ-FUZ,Füzuli,Fuzuli,rayon,
AZ,AZ-GAD,Gədəbəy,Gadabay,rayon,
AZ,AZ-GA,Gəncə,Ganja,municipality,
AZ,AZ-GOR,Goranboy,Goranboy,rayon,
AZ,AZ-GOY,Göyçay,Goychay,rayon,
AZ,AZ-GYG,Göygöl,Goygol,rayon,
AZ,AZ-HAC,Hacıqabul,Hajigabul,rayon,
AZ,AZ-IMI,İmişli,Imishli,rayon,
AZ,AZ-ISM,İsmayıllı,Ismayilli,rayon,
AZ,AZ-KAL,Kəlbəcər,Kalbajar,rayon,
AZ,AZ-KAN,Kǝngǝrli,Kangarli,rayon,AZ-NX
AZ,AZ-KUR,Kürdəmir,Kurdamir,rayon,
AZ,AZ-LAC,Laçın,Lachin,rayon,
AZ,AZ-LA,Lənkəran,"Lankaran City",municipality,
AZ,AZ-LAN,Lənkəran,Lankaran,rayon,
AZ,AZ-LER,Lerik,Lerik,rayon,
AZ,AZ-MAS,Masallı,Masally,rayon,
AZ,AZ-MI,Mingəçevir,Mingachevir,municipality,
AZ,AZ-NA,Naftalan,Naftalan,municipality,
AZ,AZ-NV,Naxçıvan,"Nakhchivan City",municipality,AZ-NX
AZ,AZ-NEF,Neftçala,Neftchala,rayon,
AZ,AZ-OGU,Oğuz,Oghuz,rayon,
AZ,AZ-ORD,Ordubad,Ordubad,rayon,AZ-NX
AZ,AZ-QAX,Qax,Gakh,rayon,
AZ,AZ-QAZ,Qazax,Gazakh,rayon,
AZ,AZ-QAB,Qəbələ,Gabala,rayon,
AZ,AZ-QOB,Qobustan,Gobustan,rayon,
AZ,AZ-QBA,Quba,Guba,rayon,
AZ,AZ-QBI,Qubadlı,Gubadlı,rayon,
AZ,AZ-QUS,Qusar,Gusar,rayon,
AZ,AZ-SAT,Saatlı,Saatly,rayon,
AZ,AZ-SAB,Sabirabad,Sabirabad,rayon,
AZ,AZ-SBN,Şabran,Shabran,rayon,
AZ,AZ-SAH,Şahbuz,Shahbuz,rayon,AZ-NX
AZ,AZ-SAL,Salyan,Salyan,rayon,
AZ,AZ-SMI,Şamaxı,Shamakhi,rayon,
AZ,AZ-SMX,Samux,Samukh,rayon,
AZ,AZ-SAD,Sədərək,Sadarak,rayon,AZ-NX
AZ,AZ-SA,Şəki,"Shaki City",municipality,
AZ,AZ-SAK,Şəki,Shaki,rayon,
AZ,AZ-SKR,Şəmkir,Shamkir,rayon,
AZ,AZ-SAR,Şərur,Sharur,rayon,AZ-NX
AZ,AZ-SR,Şirvan,Shirvan,municipality,
AZ,AZ-SIY,Siyəzən,Siyazan,rayon,
AZ,AZ-SM,Sumqayıt,Sumgayit,municipality,
AZ,AZ-SUS,Şuşa,Shusha,rayon,
AZ,AZ-TAR,Tərtər,Tartar,rayon,
AZ,AZ-TOV,Tovuz,Tovuz,rayon,
AZ,AZ-UCA,Ucar,Ujar,rayon,
AZ,AZ-XAC,Xaçmaz,Khachmaz,rayon,
AZ,AZ-XA,Xankəndi,Khankendi,municipality,
AZ,AZ-XIZ,Xızı,Khizi,rayon,
AZ,AZ-XCI,Xocalı,Khojaly,rayon,
AZ,AZ-XVD,Xocavənd,Khojavend,rayon,
AZ,AZ-YAR,Yardımlı,Yardimli,rayon,
AZ,AZ-YE,Yevlax,"Yevlakh City",municipality,
AZ,AZ-YEV,Yevlax,Yevlakh,rayon,
AZ,AZ-ZAQ,Zaqatala,Zagatala,rayon,
AZ,AZ-ZAN,Zəngilan,Zangilan,rayon,
AZ,AZ-ZAR,Zərdab,Zardab,rayon,
BA,BA-BIH,"Federacija Bosne i Hercegovine","Federation of Bosnia and Herzegovina",entity,
BA,BA-SRP,"Republika Srpska","Republika Srpska",entity,
BA,BA-BRC,"Brčko Distrikt","Brčko District","district with special status",
BB,BB-01,"Christ Church",,parish,
BB,BB-02,"Saint Andrew",,parish,
BB,BB-03,"Saint George",,parish,
BB,BB-04,"Saint James",,parish,
BB,BB-05,"Saint John",,parish,
BB,BB-06,"Saint Joseph",,parish,
BB,BB-07,"Saint Lucy",,parish,
BB,BB-08,"Saint Michael",,parish,
BB,BB-09,"Saint Peter",,parish,
BB,BB-10,"Saint Philip",,parish,
BB,BB-11,"Saint Thomas",,parish,
BD,BD-A,Barishal,,division,
BD,BD-B,Chattogram,,division,
BD,BD-C,Dhaka,,division,
BD,BD-D,Khulna,,division,
BD,BD-H,Mymensingh,,division,
BD,BD-E,Rajshahi,,division,
BD,BD-F,Rangpur,,division,
BD,BD-G,Sylhet,,division,
BD,BD-05,Bagerhat,,district,BD-D
BD,BD-01,Bandarban,,district,BD-B
BD,BD-02,Barguna,,district,BD-A
BD,BD-06,Barishal,,district,BD-A
BD,BD-07,Bhola,,district,BD-A
BD,BD-03,Bogura,,district,BD-E
BD,BD-04,Brahmanbaria,,district,BD-B
BD,BD-09,Chandpur,,district,BD-B
BD,BD-45,"Chapai Nawabganj",,district,BD-E
BD,BD-10,Chattogram,,district,BD-B
BD,BD-12,Chuadanga,,district,BD-D
BD,BD-11,"Cox's Bazar",,district,BD-B
BD,BD-08,Cumilla,,district,BD-B
BD,BD-13,Dhaka,,district,BD-C
BD,BD-14,Dinajpur,,district,BD-F
BD,BD-15,Faridpur,,district,BD-C
BD,BD-16,Feni,,district,BD-B
BD,BD-19,Gaibandha,,district,BD-F
BD,BD-18,Gazipur,,district,BD-C
BD,BD-17,Gopalganj,,district,BD-C
BD,BD-20,Habiganj,,district,BD-G
BD,BD-21,Jamalpur,,district,BD-H
BD,BD-22,Jashore,,district,BD-D
BD,BD-25,Jhalakathi,,district,BD-A
BD,BD-23,Jhenaidah,,district,BD-D
BD,BD-24,Joypurhat,,district,BD-E
BD,BD-29,Khagrachhari,,district,BD-B
BD,BD-27,Khulna,,district,BD-D
BD,BD-26,Kishoreganj,,district,BD-C
BD,BD-28,Kurigram,,district,BD-F
BD,BD-30,Kushtia,,district,BD-D
BD,BD-31,Lakshmipur,,district,BD-B
BD,BD-32,Lalmonirhat,,district,BD-F
BD,BD-36,Madaripur,,district,BD-C
BD,BD-37,Magura,,district,BD-D
BD,BD-33,Manikganj,,district,BD-C
BD,BD-39,Meherpur,,district,BD-D
BD,BD-38,Moulvibazar,,district,BD-G
BD,BD-35,Munshiganj,,district,BD-C
BD,BD-34,Mymensingh,,district,BD-H
BD,BD-48,Naogaon,,district,BD-E
BD,BD-43,Narail,,district,BD-D
BD,BD-40,Narayanganj,,district,BD-C
BD,BD-42,Narsingdi,,district,BD-C
BD,BD-44,Natore,,district,BD-E
BD,BD-41,Netrakona,,district,BD-H
BD,BD-46,Nilphamari,,district,BD-F
BD,BD-47,Noakhali,,district,BD-B
BD,BD-49,Pabna,,district,BD-E
BD,BD-52,Panchagarh,,district,BD-F
BD,BD-51,Patuakhali,,district,BD-A
BD,BD-50,Pirojpur,,district,BD-A
BD,BD-53,Rajbari,,district,BD-C
BD,BD-54,Rajshahi,,district,BD-E
BD,BD-56,Rangamati,,district,BD-B
BD,BD-55,Rangpur,,district,BD-F
BD,BD-58,Satkhira,,district,BD-D
BD,BD-62,Shariatpur,,district,BD-C
BD,BD-57,Sherpur,,district,BD-H
BD,BD-59,Sirajganj,,district,BD-E
BD,BD-61,Sunamganj,,district,BD-G
BD,BD-60,Sylhet,,district,BD-G
BD,BD-63,Tangail,,district,BD-C
BD,BD-64,Thakurgaon,,district,BD-F
BE,BE-BRU,"Brussels Hoofdstedelijk Gewest",Brussels,region,
BE,BE-VLG,"Vlaams Gewest",Flanders,region,
BE,BE-WAL,"Waals Gewest",Wallonia,region,
BE,BE-VAN,Antwerpen,Antwerp,provice,BE-VLG
BE,BE-WBR,"Brabant wallon","Walloon Brabant",provice,BE-WAL
BE,BE-WHT,Hainaut,Hainaut,provice,BE-WAL
BE,BE-WLG,Liège,Liège,provice,BE-WAL
BE,BE-VLI,Limburg,Limburg,provice,BE-VLG
BE,BE-WLX,Luxembourg,Luxembourg,provice,BE-WAL
BE,BE-WNA,Namur,Namur,provice,BE-WAL
BE,BE-VOV,Oost-Vlaanderen,"East Flanders",provice,BE-VLG
BE,BE-VBR,Vlaams-Brabant,"Flemish Brabant",provice,BE-VLG
BE,BE-VWV,West-Vlaanderen,"West Flanders",provice,BE-VLG
BF,BF-01,"Boucle du Mouhoun",,region,
BF,BF-02,Cascades,,region,
BF,BF-03,Centre,,region,
BF,BF-04,Centre-Est,,region,
BF,BF-05,Centre-Nord,,region,
BF,BF-06,Centre-Ouest,,region,
BF,BF-07,Centre-Sud,,region,
BF,BF-08,Est,,region,
BF,BF-09,Hauts-Bassins,,region,
BF,BF-10,Nord,,region,
BF,BF-11,Plateau-Central,,region,
BF,BF-12,Sahel,,region,
BF,BF-13,Sud-Ouest,,region,
BF,BF-BAL,Balé,,provice,BF-01
BF,BF-BAM,Bam,,provice,BF-05
BF,BF-BAN,Banwa,,provice,BF-01
BF,BF-BAZ,Bazèga,,provice,BF-07
BF,BF-BGR,Bougouriba,,provice,BF-13
BF,BF-BLG,Boulgou,,provice,BF-04
BF,BF-BLK,Boulkiemdé,,provice,BF-06
BF,BF-COM,Comoé,,provice,BF-02
BF,BF-GAN,Ganzourgou,,provice,BF-11
BF,BF-GNA,Gnagna,,provice,BF-08
BF,BF-GOU,Gourma,,provice,BF-08
BF,BF-HOU,Houet,,provice,BF-09
BF,BF-IOB,Ioba,,provice,BF-13
BF,BF-KAD,Kadiogo,,provice,BF-03
BF,BF-KEN,Kénédougou,,provice,BF-09
BF,BF-KMD,Komondjari,,provice,BF-08
BF,BF-KMP,Kompienga,,provice,BF-08
BF,BF-KOS,Kossi,,provice,BF-01
BF,BF-KOP,Koulpélogo,,provice,BF-04
BF,BF-KOT,Kouritenga,,provice,BF-04
BF,BF-KOW,Kourwéogo,,provice,BF-11
BF,BF-LER,Léraba,,provice,BF-02
BF,BF-LOR,Loroum,,provice,BF-10
BF,BF-MOU,Mouhoun,,provice,BF-01
BF,BF-NAO,Nahouri,,provice,BF-07
BF,BF-NAM,Namentenga,,provice,BF-05
BF,BF-NAY,Nayala,,provice,BF-01
BF,BF-NOU,Noumbiel,,provice,BF-13
BF,BF-OUB,Oubritenga,,provice,BF-11
BF,BF-OUD,Oudalan,,provice,BF-12
BF,BF-PAS,Passoré,,provice,BF-10
BF,BF-PON,Poni,,provice,BF-13
BF,BF-SNG,Sanguié,,provice,BF-06
BF,BF-SMT,Sanmatenga,,provice,BF-05
BF,BF-SEN,Séno,,provice,BF-12
BF,BF-SIS,Sissili,,provice,BF-06
BF,BF-SOM,Soum,,provice,BF-12
BF,BF-SOR,Sourou,,provice,BF-01
BF,BF-TAP,Tapoa,,provice,BF-08
BF,BF-TUI,Tuy,,provice,BF-09
BF,BF-YAG,Yagha,,provice,BF-12
BF,BF-YAT,Yatenga,,provice,BF-10
BF,BF-ZIR,Ziro,,provice,BF-06
BF,BF-ZON,Zondoma,,provice,BF-10
BF,BF-ZOU,Zoundwéogo,,provice,BF-07
BG,BG-01,Blagoevgrad,,district,
BG,BG-02,Burgas,,district,
BG,BG-08,Dobrich,,district,
BG,BG-07,Gabrovo,,district,
BG,BG-26,Haskovo,,district,
BG,BG-09,Kardzhali,,district,
BG,BG-10,Kyustendil,,district,
BG,BG-11,Lovech,,district,
BG,BG-12,Montana,,district,
BG,BG-13,Pazardzhik,,district,
BG,BG-14,Pernik,,district,
BG,BG-15,Pleven,,district,
BG,BG-16,Plovdiv,,district,
BG,BG-17,Razgrad,,district,
BG,BG-18,Ruse,,district,
BG,BG-27,Shumen,,district,
BG,BG-19,Silistra,,district,
BG,BG-20,Sliven,,district,
BG,BG-21,Smolyan,,district,
BG,BG-23,Sofia,,district,
BG,BG-22,"Sofia (stolitsa)",,district,
BG,BG-24,"Stara Zagora",,district,
BG,BG-25,Targovishte,,district,
BG,BG-03,Varna,,district,
BG,BG-04,"Veliko Tarnovo",,district,
BG,BG-05,Vidin,,district,
BG,BG-06,Vratsa,,district,
BG,BG-28,Yambol,,district,
BH,BH-13,"Al ‘Āşimah","Capital Governorate",governorate,
BH,BH-14,"Al Janūbīyah","Southern Governorate",governorate,
BH,BH-15,"Al Muḩarraq","Muharraq Governorate",governorate,
BH,BH-17,"Ash Shamālīyah","Northern Governorate",governorate,
BI,BI-BB,Bubanza,,province,
BI,BI-BM,"Bujumbura Mairie",,province,
BI,BI-BL,"Bujumbura Rural",,province,
BI,BI-BR,Bururi,,province,
BI,BI-CA,Cankuzo,,province,
BI,BI-CI,Cibitoke,,province,
BI,BI-GI,Gitega,,province,
BI,BI-KR,Karuzi,,province,
BI,BI-KY,Kayanza,,province,
BI,BI-KI,Kirundo,,province,
BI,BI-MA,Makamba,,province,
BI,BI-MU,Muramvya,,province,
BI,BI-MY,Muyinga,,province,
BI,BI-MW,Mwaro,,province,
BI,BI-NG,Ngozi,,province,
BI,BI-RM,Rumonge,,province,
BI,BI-RT,Rutana,,province,
BI,BI-RY,Ruyigi,,province,
BJ,BJ-AL,Alibori,,department,
BJ,BJ-AK,Atacora,,department,
BJ,BJ-AQ,Atlantique,,department,
BJ,BJ-BO,Borgou,,department,
BJ,BJ-CO,Collines,,department,
BJ,BJ-KO,Couffo,,department,
BJ,BJ-DO,Donga,,department,
BJ,BJ-LI,Littoral,,department,
BJ,BJ-MO,Mono,,department,
BJ,BJ-OU,Ouémé,,department,
BJ,BJ-PL,Plateau,,department,
BJ,BJ-ZO,Zou,,department,
BN,BN-BE,Belait,,district,
BN,BN-BM,Brunei-Muara,,district,
BN,BN-TE,Temburong,,district,
BN,BN-TU,Tutong,,district,
BO,BO-C,Cochabamba,,department,
BO,BO-H,Chuquisaca,,department,
BO,BO-B,"El Beni",,department,
BO,BO-L,"La Paz",,department,
BO,BO-O,Oruro,,department,
BO,BO-N,Pando,,department,
BO,BO-P,Potosí,,department,
BO,BO-S,"Santa Cruz",,department,
BO,BO-T,Tarija,,department,
BQ,BQ-BO,Bonaire,,"special municipality",
BQ,BQ-SA,Saba,,"special municipality",
BQ,BQ-SE,"Sint Eustatius",,"special municipality",
BR,BR-AC,Acre,,state,
BR,BR-AL,Alagoas,,state,
BR,BR-AP,Amapá,,state,
BR,BR-AM,Amazonas,,state,
BR,BR-BA,Bahia,,state,
BR,BR-CE,Ceará,,state,
BR,BR-DF,"Distrito Federal",,"federal district",
BR,BR-ES,"Espírito Santo",,state,
BR,BR-GO,Goiás,,state,
BR,BR-MA,Maranhão,,state,
BR,BR-MT,"Mato Grosso",,state,
BR,BR-MS,"Mato Grosso do Sul",,state,
BR,BR-MG,"Minas Gerais",,state,
BR,BR-PA,Pará,,state,
BR,BR-PB,Paraíba,,state,
BR,BR-PR,Paraná,,state,
BR,BR-PE,Pernambuco,,state,
BR,BR-PI,Piauí,,state,
BR,BR-RJ,"Rio de Janeiro",,state,
BR,BR-RN,"Rio Grande do Norte",,state,
BR,BR-RS,"Rio Grande do Sul",,state,
BR,BR-RO,Rondônia,,state,
BR,BR-RR,Roraima,,state,
BR,BR-SC,"Santa Catarina",,state,
BR,BR-SP,"São Paulo",,state,
BR,BR-SE,Sergipe,,state,
BR,BR-TO,Tocantins,,state,
BS,BS-AK,Acklins,,district,
BS,BS-BY,"Berry Islands",,district,
BS,BS-BI,Bimini,,district,
BS,BS-BP,"Black Point",,district,
BS,BS-CI,"Cat Island",,district,
BS,BS-CO,"Central Abaco",,district,
BS,BS-CS,"Central Andros",,district,
BS,BS-CE,"Central Eleuthera",,district,
BS,BS-FP,"City of Freeport",,district,
BS,BS-CK,"Crooked Island and Long Cay",,district,
BS,BS-EG,"East Grand Bahama",,district,
BS,BS-EX,Exuma,,district,
BS,BS-GC,"Grand Cay",,district,
BS,BS-HI,"Harbour Island",,district,
BS,BS-HT,"Hope Town",,district,
BS,BS-IN,Inagua,,district,
BS,BS-LI,"Long Island",,district,
BS,BS-MC,"Mangrove Cay",,district,
BS,BS-MG,Mayaguana,,district,
BS,BS-MI,"Moore's Island",,district,
BS,BS-NP,"New Providence",,island,
BS,BS-NO,"North Abaco",,district,
BS,BS-NS,"North Andros",,district,
BS,BS-NE,"North Eleuthera",,district,
BS,BS-RI,"Ragged Island",,district,
BS,BS-RC,"Rum Cay",,district,
BS,BS-SS,"San Salvador",,district,
BS,BS-SO,"South Abaco",,district,
BS,BS-SA,"South Andros",,district,
BS,BS-SE,"South Eleuthera",,district,
BS,BS-SW,"Spanish Wells",,district,
BS,BS-WG,"West Grand Bahama",,district,
BT,BT-33,Bumthang,,district,
BT,BT-12,Chhukha,,district,
BT,BT-22,Dagana,,district,
BT,BT-GA,Gasa,,district,
BT,BT-13,Haa,,district,
BT,BT-44,Lhuentse,,district,
BT,BT-42,Monggar,,district,
BT,BT-11,Paro,,district,
BT,BT-43,"Pema Gatshel",,district,
BT,BT-23,Punakha,,district,
BT,BT-45,"Samdrup Jongkhar",,district,
BT,BT-14,Samtse,,district,
BT,BT-31,Sarpang,,district,
BT,BT-15,Thimphu,,district,
BT,BT-41,Trashigang,,district,
BT,BT-TY,"Trashi Yangtse",,district,
BT,BT-32,Trongsa,,district,
BT,BT-21,Tsirang,,district,
BT,BT-24,"Wangdue Phodrang",,district,
BT,BT-34,Zhemgang,,district,
BW,BW-CE,Central,,district,
BW,BW-CH,Chobe,,district,
BW,BW-FR,Francistown,,city,
BW,BW-GA,Gaborone,,city,
BW,BW-GH,Ghanzi,,district,
BW,BW-JW,Jwaneng,,town,
BW,BW-KG,Kgalagadi,,district,
BW,BW-KL,Kgatleng,,district,
BW,BW-KW,Kweneng,,district,
BW,BW-LO,Lobatse,,town,
BW,BW-NE,"North East",,district,
BW,BW-NW,"North West",,district,
BW,BW-SP,"Selibe Phikwe",,town,
BW,BW-SE,"South East",,district,
BW,BW-SO,Southern,,district,
BW,BW-ST,"Sowa Town",,town,
BY,BY-BR,"Brestskaya voblasts'",Brest,oblast,
BY,BY-HO,"Homyel'skaya voblasts'",Gomel,oblast,
BY,BY-HM,"Horad Minsk","Minsk City",city,
BY,BY-HR,"Hrodzyenskaya voblasts'",Grodno,oblast,
BY,BY-MA,"Mahilyowskaya voblasts'",Mogilev,oblast,
BY,BY-MI,"Minskaya voblasts'",Minsk,oblast,
BY,BY-VI,"Vitsyebskaya voblasts'",Vitebsk,oblast,
BZ,BZ-BZ,Belize,,district,
BZ,BZ-CY,Cayo,,district,
BZ,BZ-CZL,Corozal,,district,
BZ,BZ-OW,"Orange Walk",,district,
BZ,BZ-SC,"Stann Creek",,district,
BZ,BZ-TOL,Toledo,,district,
CA,CA-AB,Alberta,,province,
CA,CA-BC,"British Columbia",,province,
CA,CA-MB,Manitoba,,province,
CA,CA-NB,"New Brunswick",,province,
CA,CA-NL,"Newfoundland and Labrador",,province,
CA,CA-NT,"Northwest Territories",,territory,
CA,CA-NS,"Nova Scotia",,province,
CA,CA-NU,Nunavut,,territory,
CA,CA-ON,Ontario,,province,
CA,CA-PE,"Prince Edward Island",,province,
CA,CA-QC,Quebec,,province,
CA,CA-SK,Saskatchewan,,province,
CA,CA-YT,Yukon,,territory,
CD,CD-BU,Bas-Uélé,"Lower Uele",province,
CD,CD-EQ,Équateur,Equator,province,
CD,CD-HK,Haut-Katanga,"Upper Katanga",province,
CD,CD-HL,Haut-Lomami,"Upper Lomami",province,
CD,CD-HU,Haut-Uélé,"Upper Uele",province,
CD,CD-IT,Ituri,Ituri,province,
CD,CD-KS,Kasaï,Kasai,province,
CD,CD-KC,"Kasaï Central","Central Kasai",province,
CD,CD-KE,"Kasaï Oriental","Eastern Kasai",province,
CD,CD-KN,Kinshasa,Kinshasa,city,
CD,CD-BC,"Kongo Central","Central Kongo",province,
CD,CD-KG,Kwango,Kwango,province,
CD,CD-KL,Kwilu,Kwilu,province,
CD,CD-LO,Lomami,Lomami,province,
CD,CD-LU,Lualaba,Lualaba,province,
CD,CD-MN,Mai-Ndombe,Mai-Ndombe,province,
CD,CD-MA,Maniema,Maniema,province,
CD,CD-MO,Mongala,Mongala,province,
CD,CD-NK,Nord-Kivu,"North Kivu",province,
CD,CD-NU,Nord-Ubangi,"North Ubangi",province,
CD,CD-SA,Sankuru,Sankuru,province,
CD,CD-SK,Sud-Kivu,"South Kivu",province,
CD,CD-SU,Sud-Ubangi,"South Ubangi",province,
CD,CD-TA,Tanganyika,Tanganyika,province,
CD,CD-TO,Tshopo,Tshopo,province,
CD,CD-TU,Tshuapa,Tshuapa,province,
CF,CF-BB,Bamingui-Bangoran,,prefecture,
CF,CF-BGF,Bangui,,commune,
CF,CF-BK,Basse-Kotto,,prefecture,
CF,CF-KB,Gribingui,,"economic prefecture",
CF,CF-HM,Haut-Mbomou,,prefecture,
CF,CF-HK,Haute-Kotto,,prefecture,
CF,CF-HS,"Haute-Sangha / Mambéré-Kadéï",,prefecture,
CF,CF-KG,Kémo-Gribingui,,prefecture,
CF,CF-LB,Lobaye,,prefecture,
CF,CF-MB,Mbomou,,prefecture,
CF,CF-NM,Nana-Mambéré,,prefecture,
CF,CF-MP,Ombella-Mpoko,,prefecture,
CF,CF-UK,Ouaka,,prefecture,
CF,CF-AC,Ouham,,prefecture,
CF,CF-OP,Ouham-Pendé,,prefecture,
CF,CF-SE,Sangha,,"economic prefecture",
CF,CF-VK,Vakaga,,prefecture,
CG,CG-11,Bouenza,Bouenza,department,
CG,CG-BZV,Brazzaville,Brazzaville,department,
CG,CG-8,Cuvette,Cuvette,department,
CG,CG-15,Cuvette-Ouest,"West Cuvette",department,
CG,CG-5,Kouilou,Kouilou,department,
CG,CG-2,Lékoumou,Lekoumou,department,
CG,CG-7,Likouala,Likouala,department,
CG,CG-9,Niari,Niari,department,
CG,CG-14,Plateaux,Plateaux,department,
CG,CG-16,Pointe-Noire,"Black Point",department,
CG,CG-12,Pool,Pool,department,
CG,CG-13,Sangha,Sangha,department,
CH,CH-AG,Aargau,,canton,
CH,CH-AR,"Appenzell Ausserrhoden",,canton,
CH,CH-AI,"Appenzell Innerrhoden",,canton,
CH,CH-BL,Basel-Landschaft,,canton,
CH,CH-BS,Basel-Stadt,,canton,
CH,CH-BE,Bern,,canton,
CH,CH-FR,Fribourg,,canton,
CH,CH-GE,Genève,,canton,
CH,CH-GL,Glarus,,canton,
CH,CH-GR,Graubünden,,canton,
CH,CH-JU,Jura,,canton,
CH,CH-LU,Luzern,,canton,
CH,CH-NE,Neuchâtel,,canton,
CH,CH-NW,Nidwalden,,canton,
CH,CH-OW,Obwalden,,canton,
CH,CH-SG,"Sankt Gallen",,canton,
CH,CH-SH,Schaffhausen,,canton,
CH,CH-SZ,Schwyz,,canton,
CH,CH-SO,Solothurn,,canton,
CH,CH-TG,Thurgau,,canton,
CH,CH-TI,Ticino,,canton,
CH,CH-UR,Uri,,canton,
CH,CH-VS,Valais,,canton,
CH,CH-VD,Vaud,,canton,
CH,CH-ZG,Zug,,canton,
CH,CH-ZH,Zürich,,canton,
CI,CI-AB,Abidjan,Abidjan,"autonomous district",
CI,CI-BS,Bas-Sassandra,"Lower Sassandra",district,
CI,CI-CM,Comoé,Comoé,district,
CI,CI-DN,Denguélé,Denguélé,district,
CI,CI-GD,Gôh-Djiboua,Gôh-Djiboua,district,
CI,CI-LC,Lacs,Lakes,district,
CI,CI-LG,Lagunes,Lagoons,district,
CI,CI-MG,Montagnes,Mountains,district,
CI,CI-SM,Sassandra-Marahoué,Sassandra-Marahoué,district,
CI,CI-SV,Savanes,Savannahs,district,
CI,CI-VB,"Vallée du Bandama","Bandama Valley",district,
CI,CI-WR,Woroba,Woroba,district,
CI,CI-YM,Yamoussoukro,Yamoussoukro,"autonomous district",
CI,CI-ZZ,Zanzan,Zanzan,district,
CL,CL-AI,"Aisén del General Carlos Ibañez del Campo",Aisen,region,
CL,CL-AN,Antofagasta,Antofagasta,region,
CL,CL-AP,"Arica y Parinacota","Arica and Parinacota",region,
CL,CL-AT,Atacama,Atacama,region,
CL,CL-BI,Biobío,Biobio,region,
CL,CL-CO,Coquimbo,Coquimbo,region,
CL,CL-AR,"La Araucanía","La Araucania",region,
CL,CL-LI,"Libertador General Bernardo O'Higgins",O'Higgins,region,
CL,CL-LL,"Los Lagos","The Lakes",region,
CL,CL-LR,"Los Ríos","The Rivers",region,
CL,CL-MA,Magallanes,Magellan,region,
CL,CL-ML,Maule,Maule,region,
CL,CL-NB,Ñuble,Nuble,region,
CL,CL-RM,"Región Metropolitana de Santiago","Santiago Metropolitan Region",region,
CL,CL-TA,Tarapacá,Tarapaca,region,
CL,CL-VS,Valparaíso,Valparaiso,region,
CM,CM-AD,Adamaoua,,region,
CM,CM-CE,Centre,,region,
CM,CM-ES,East,,region,
CM,CM-EN,"Far North",,region,
CM,CM-LT,Littoral,,region,
CM,CM-NO,North,,region,
CM,CM-NW,North-West,,region,
CM,CM-SU,South,,region,
CM,CM-SW,South-West,,region,
CM,CM-OU,West,,region,
CN,CN-AH,"Anhui Sheng",Anhui,province,
CN,CN-BJ,"Beijing Shi",Beijing,municipality,
CN,CN-CQ,"Chongqing Shi",Chongqing,municipality,
CN,CN-FJ,"Fujian Sheng",Fujian,province,
CN,CN-GS,"Gansu Sheng",Gansu,province,
CN,CN-GD,"Guangdong Sheng",Guangdong,province,
CN,CN-GX,"Guangxi Zhuangzu Zizhiqu",Guangxi,"autonomous region",
CN,CN-GZ,"Guizhou Sheng",Guizhou,province,
CN,CN-HI,"Hainan Sheng",Hainan,province,
CN,CN-HE,"Hebei Sheng",Hebei,province,
CN,CN-HL,"Heilongjiang Sheng",Heilongjiang,province,
CN,CN-HA,"Henan Sheng",Henan,province,
CN,CN-HK,"Hong Kong SAR","Hong Kong","special administrative region",
CN,CN-HB,"Hubei Sheng",Hubei,province,
CN,CN-HN,"Hunan Sheng",Hunan,province,
CN,CN-JS,"Jiangsu Sheng",Jiangsu,province,
CN,CN-JX,"Jiangxi Sheng",Jiangxi,province,
CN,CN-JL,"Jilin Sheng",Jilin,province,
CN,CN-LN,"Liaoning Sheng",Liaoning,province,
CN,CN-MO,"Macao SAR",Macao,"special administrative region",
CN,CN-NM,"Nei Mongol Zizhiqu","Inner Mongolia","autonomous region",
CN,CN-NX,"Ningxia Huizu Zizhiqu",Ningxia,"autonomous region",
CN,CN-QH,"Qinghai Sheng",Qinghai,province,
CN,CN-SN,"Shaanxi Sheng",Shaanxi,province,
CN,CN-SD,"Shandong Sheng",Shandong,province,
CN,CN-SH,"Shanghai Shi",Shanghai,municipality,
CN,CN-SX,"Shanxi Sheng",Shanxi,province,
CN,CN-SC,"Sichuan Sheng",Sichuan,province,
CN,CN-TW,"Taiwan Sheng",Taiwan,province,
CN,CN-TJ,"Tianjin Shi",Tianjin,municipality,
CN,CN-XJ,"Xinjiang Uygur Zizhiqu",Xinjiang,"autonomous region",
CN,CN-XZ,"Xizang Zizhiqu",Tibet,"autonomous region",
CN,CN-YN,"Yunnan Sheng",Yunnan,province,
CN,CN-ZJ,"Zhejiang Sheng",Zhejiang,province,
CO,CO-AMA,Amazonas,Amazonia,department,
CO,CO-ANT,Antioquia,Antioquia,department,
CO,CO-ARA,Arauca,Arauca,department,
CO,CO-ATL,Atlántico,Atlantico,department,
CO,CO-BOL,Bolívar,Bolivar,department,
CO,CO-BOY,Boyacá,Boyaca,department,
CO,CO-CAL,Caldas,Caldas,department,
CO,CO-CAQ,Caquetá,Caqueta,department,
CO,CO-CAS,Casanare,Casanare,department,
CO,CO-CAU,Cauca,Cauca,department,
CO,CO-CES,Cesar,Cesar,department,
CO,CO-COR,Córdoba,Cordoba,department,
CO,CO-CUN,Cundinamarca,Cundinamarca,department,
CO,CO-CHO,Chocó,Choco,department,
CO,CO-DC,"Distrito Capital de Bogotá",Bogota,"capital district",
CO,CO-GUA,Guainía,Guainia,department,
CO,CO-GUV,Guaviare,Guaviare,department,
CO,CO-HUI,Huila,Huila,department,
CO,CO-LAG,"La Guajira","La Guajira",department,
CO,CO-MAG,Magdalena,Magdalena,department,
CO,CO-MET,Meta,Meta,department,
CO,CO-NAR,Nariño,Narino,department,
CO,CO-NSA,"Norte de Santander","North Santander",department,
CO,CO-PUT,Putumayo,Putumayo,department,
CO,CO-QUI,Quindío,Quindio,department,
CO,CO-RIS,Risaralda,Risaralda,department,
CO,CO-SAP,"San Andrés, Providencia y Santa Catalina","San Andres",department,
CO,CO-SAN,Santander,Santander,department,
CO,CO-SUC,Sucre,Sucre,department,
CO,CO-TOL,Tolima,Tolima,department,
CO,CO-VAC,"Valle del Cauca","Cauca Valley",department,
CO,CO-VAU,Vaupés,Vaupes,department,
CO,CO-VID,Vichada,Vichada,department,
CR,CR-A,Alajuela,,province,
CR,CR-C,Cartago,,province,
CR,CR-G,Guanacaste,,province,
CR,CR-H,Heredia,,province,
CR,CR-L,Limón,,province,
CR,CR-P,Puntarenas,,province,
CR,CR-SJ,"San José",,province,
CU,CU-15,Artemisa,Artemisa,province,
CU,CU-09,Camagüey,Camaguey,province,
CU,CU-08,"Ciego de Ávila","Ciego de Avila",province,
CU,CU-06,Cienfuegos,Cienfuegos,province,
CU,CU-12,Granma,Granma,province,
CU,CU-14,Guantánamo,Guantanamo,province,
CU,CU-11,Holguín,Holguin,province,
CU,CU-03,"La Habana",Havana,province,
CU,CU-10,"Las Tunas","Las Tunas",province,
CU,CU-04,Matanzas,Matanzas,province,
CU,CU-16,Mayabeque,Mayabeque,province,
CU,CU-01,"Pinar del Río","Pinar del Rio",province,
CU,CU-07,"Sancti Spíritus","Holy Spirit",province,
CU,CU-13,"Santiago de Cuba",Santiago,province,
CU,CU-05,"Villa Clara","Clara City",province,
CU,CU-99,"Isla de la Juventud","Isle of Youth","special municipality",
CV,CV-B,"Ilhas de Barlavento",,"geographical region",
CV,CV-S,"Ilhas de Sotavento",,"geographical region",
CV,CV-BV,"Boa Vista",,municipality,CV-B
CV,CV-BR,Brava,,municipality,CV-S
CV,CV-MA,Maio,,municipality,CV-S
CV,CV-MO,Mosteiros,,municipality,CV-S
CV,CV-PA,Paul,,municipality,CV-B
CV,CV-PN,"Porto Novo",,municipality,CV-B
CV,CV-PR,Praia,,municipality,CV-S
CV,CV-RB,"Ribeira Brava",,municipality,CV-B
CV,CV-RG,"Ribeira Grande",,municipality,CV-B
CV,CV-RS,"Ribeira Grande de Santiago",,municipality,CV-S
CV,CV-SL,Sal,,municipality,CV-B
CV,CV-CA,"Santa Catarina",,municipality,CV-S
CV,CV-CF,"Santa Catarina do Fogo",,municipality,CV-S
CV,CV-CR,"Santa Cruz",,municipality,CV-S
CV,CV-SD,"São Domingos",,municipality,CV-S
CV,CV-SF,"São Filipe",,municipality,CV-S
CV,CV-SO,"São Lourenço dos Órgãos",,municipality,CV-S
CV,CV-SM,"São Miguel",,municipality,CV-S
CV,CV-SS,"São Salvador do Mundo",,municipality,CV-S
CV,CV-SV,"São Vicente",,municipality,CV-B
CV,CV-TA,Tarrafal,,municipality,CV-S
CV,CV-TS,"Tarrafal de São Nicolau",,municipality,CV-B
CY,CY-04,Ammochostos,Famagusta,district,
CY,CY-06,Keryneia,Kyrenia,district,
CY,CY-03,Larnaka,Larnaca,district,
CY,CY-01,Lefkosia,Nicosia,district,
CY,CY-02,Lemesos,Limassol,district,
CY,CY-05,Pafos,Paphos,district,
CZ,CZ-31,"Jihočeský kraj","South Bohemia",region,
CZ,CZ-64,"Jihomoravský kraj","South Moravia",region,
CZ,CZ-41,"Karlovarský kraj","Karlovy Vary",region,
CZ,CZ-52,"Královéhradecký kraj","Hradec Králové",region,
CZ,CZ-51,"Liberecký kraj",Liberec,region,
CZ,CZ-80,"Moravskoslezský kraj",Moravia-Silesia,region,
CZ,CZ-71,"Olomoucký kraj",Olomouc,region,
CZ,CZ-53,"Pardubický kraj",Pardubice,region,
CZ,CZ-32,"Plzeňský kraj",Plzeň,region,
CZ,CZ-10,"Praha, Hlavní město",Prague,"capital city",
CZ,CZ-20,"Středočeský kraj","Central Bohemia",region,
CZ,CZ-42,"Ústecký kraj","Ústí nad Labem",region,
CZ,CZ-63,"Kraj Vysočina",Vysočina,region,
CZ,CZ-72,"Zlínský kraj",Zlín,region,
CZ,CZ-201,Benešov,,district,CZ-20
CZ,CZ-202,Beroun,,district,CZ-20
CZ,CZ-641,Blansko,,district,CZ-64
CZ,CZ-642,Brno-město,,district,CZ-64
CZ,CZ-643,Brno-venkov,,district,CZ-64
CZ,CZ-801,Bruntál,,district,CZ-80
CZ,CZ-644,Břeclav,,district,CZ-64
CZ,CZ-511,"Česká Lípa",,district,CZ-51
CZ,CZ-311,"České Budějovice",,district,CZ-31
CZ,CZ-312,"Český Krumlov",,district,CZ-31
CZ,CZ-421,Děčín,,district,CZ-42
CZ,CZ-321,Domažlice,,district,CZ-32
CZ,CZ-802,Frýdek-Místek,,district,CZ-80
CZ,CZ-631,"Havlíčkův Brod",,district,CZ-63
CZ,CZ-645,Hodonín,,district,CZ-64
CZ,CZ-521,"Hradec Králové",,district,CZ-52
CZ,CZ-411,Cheb,,district,CZ-41
CZ,CZ-422,Chomutov,,district,CZ-42
CZ,CZ-531,Chrudim,,district,CZ-53
CZ,CZ-512,"Jablonec nad Nisou",,district,CZ-51
CZ,CZ-711,Jeseník,,district,CZ-71
CZ,CZ-522,Jičín,,district,CZ-52
CZ,CZ-632,Jihlava,,district,CZ-63
CZ,CZ-313,"Jindřichův Hradec",,district,CZ-31
CZ,CZ-412,"Karlovy Vary",,district,CZ-41
CZ,CZ-803,Karviná,,district,CZ-80
CZ,CZ-203,Kladno,,district,CZ-20
CZ,CZ-322,Klatovy,,district,CZ-32
CZ,CZ-204,Kolín,,district,CZ-20
CZ,CZ-721,Kroměříž,,district,CZ-72
CZ,CZ-205,"Kutná Hora",,district,CZ-20
CZ,CZ-513,Liberec,,district,CZ-51
CZ,CZ-423,Litoměřice,,district,CZ-42
CZ,CZ-424,Louny,,district,CZ-42
CZ,CZ-206,Mělník,,district,CZ-20
CZ,CZ-207,"Mladá Boleslav",,district,CZ-20
CZ,CZ-425,Most,,district,CZ-42
CZ,CZ-523,Náchod,,district,CZ-52
CZ,CZ-804,"Nový Jičín",,district,CZ-80
CZ,CZ-208,Nymburk,,district,CZ-20
CZ,CZ-712,Olomouc,,district,CZ-71
CZ,CZ-805,Opava,,district,CZ-80
CZ,CZ-806,Ostrava-město,,district,CZ-80
CZ,CZ-532,Pardubice,,district,CZ-53
CZ,CZ-633,Pelhřimov,,district,CZ-63
CZ,CZ-314,Písek,,district,CZ-31
CZ,CZ-324,Plzeň-jih,,district,CZ-32
CZ,CZ-323,Plzeň-město,,district,CZ-32
CZ,CZ-325,Plzeň-sever,,district,CZ-32
CZ,CZ-209,Praha-východ,,district,CZ-20
CZ,CZ-20A,Praha-západ,,district,CZ-20
CZ,CZ-315,Prachatice,,district,CZ-31
CZ,CZ-713,Prostějov,,district,CZ-71
CZ,CZ-714,Přerov,,district,CZ-71
CZ,CZ-20B,Příbram,,district,CZ-20
CZ,CZ-20C,Rakovník,,district,CZ-20
CZ,CZ-326,Rokycany,,district,CZ-32
CZ,CZ-524,"Rychnov nad Kněžnou",,district,CZ-52
CZ,CZ-514,Semily,,district,CZ-51
CZ,CZ-413,Sokolov,,district,CZ-41
CZ,CZ-316,Strakonice,,district,CZ-31
CZ,CZ-533,Svitavy,,district,CZ-53
CZ,CZ-715,Šumperk,,district,CZ-71
CZ,CZ-317,Tábor,,district,CZ-31
CZ,CZ-327,Tachov,,district,CZ-32
CZ,CZ-426,Teplice,,district,CZ-42
CZ,CZ-525,Trutnov,,district,CZ-52
CZ,CZ-634,Třebíč,,district,CZ-63
CZ,CZ-722,"Uherské Hradiště",,district,CZ-72
CZ,CZ-427,"Ústí nad Labem",,district,CZ-42
CZ,CZ-534,"Ústí nad Orlicí",,district,CZ-53
CZ,CZ-723,Vsetín,,district,CZ-72
CZ,CZ-646,Vyškov,,district,CZ-64
CZ,CZ-724,Zlín,,district,CZ-72
CZ,CZ-647,Znojmo,,district,CZ-64
CZ,CZ-635,"Žďár nad Sázavou",,district,CZ-63
DE,DE-BW,Baden-Württemberg,Baden-Württemberg,state,
DE,DE-BY,Bayern,Bavaria,state,
DE,DE-BE,Berlin,Berlin,state,
DE,DE-BB,Brandenburg,Brandenburg,state,
DE,DE-HB,Bremen,Bremen,state,
DE,DE-HH,Hamburg,Hamburg,state,
DE,DE-HE,Hessen,Hesse,state,
DE,DE-MV,Mecklenburg-Vorpommern,"Mecklenburg-Western Pomerania",state,
DE,DE-NI,Niedersachsen,"Lower Saxony",state,
DE,DE-NW,Nordrhein-Westfalen,"North Rhine-Westphalia",state,
DE,DE-RP,Rheinland-Pfalz,Rhineland-Palatinate,state,
DE,DE-SL,Saarland,Saarland,state,
DE,DE-SN,Sachsen,Saxony,state,
DE,DE-ST,Sachsen-Anhalt,Saxony-Anhalt,state,
DE,DE-SH,Schleswig-Holstein,Schleswig-Holstein,state,
DE,DE-TH,Thüringen,Thuringia,state,
DJ,DJ-AS,"Ali Sabieh",,region,
DJ,DJ-AR,Arta,,region,
DJ,DJ-DI,Dikhil,,region,
DJ,DJ-DJ,Djibouti,,city,
DJ,DJ-OB,Obock,,region,
DJ,DJ-TA,Tadjourah,,region,
DK,DK-84,Hovedstaden,"Capital Region",region,
DK,DK-82,Midtjylland,"Central Denmark",region,
DK,DK-81,Nordjylland,"North Denmark",region,
DK,DK-85,Sjælland,Zealand,region,
DK,DK-83,Syddanmark,"Southern Denmark",region,
DM,DM-02,"Saint Andrew",,parish,
DM,DM-03,"Saint David",,parish,
DM,DM-04,"Saint George",,parish,
DM,DM-05,"Saint John",,parish,
DM,DM-06,"Saint Joseph",,parish,
DM,DM-07,"Saint Luke",,parish,
DM,DM-08,"Saint Mark",,parish,
DM,DM-09,"Saint Patrick",,parish,
DM,DM-10,"Saint Paul",,parish,
DM,DM-11,"Saint Peter",,parish,
DO,DO-33,"Cibao Nordeste","Northeast Cibao",region,
DO,DO-34,"Cibao Noroeste","Northwest Cibao",region,
DO,DO-35,"Cibao Norte","North Cibao",region,
DO,DO-36,"Cibao Sur","South Cibao",region,
DO,DO-37,"El Valle","The Valley",region,
DO,DO-38,Enriquillo,Enriquillo,region,
DO,DO-39,Higuamo,Higuamo,region,
DO,DO-40,Ozama,Ozama,region,
DO,DO-41,Valdesia,Valdesia,region,
DO,DO-42,Yuma,Yuma,region,
DO,DO-02,Azua,Azua,province,DO-41
DO,DO-03,Baoruco,Baoruco,province,DO-38
DO,DO-04,Barahona,Barahona,province,DO-38
DO,DO-05,Dajabón,Dajabon,province,DO-34
DO,DO-01,"Distrito Nacional","Santo Domingo City",district,DO-40
DO,DO-06,Duarte,Duarte,province,DO-33
DO,DO-08,"El Seibo","El Seibo",province,DO-42
DO,DO-07,"Elías Piña","Elias Pina",province,DO-37
DO,DO-09,Espaillat,Espaillat,province,DO-35
DO,DO-30,"Hato Mayor","Great Herd",province,DO-39
DO,DO-19,"Hermanas Mirabal","Mirabal Sisters",province,DO-33
DO,DO-10,Independencia,Independence,province,DO-38
DO,DO-11,"La Altagracia","La Altagracia",province,DO-42
DO,DO-12,"La Romana","La Romana",province,DO-42
DO,DO-13,"La Vega","La Vega",province,DO-36
DO,DO-14,"María Trinidad Sánchez","Maria Trinidad Sanchez",province,DO-33
DO,DO-28,"Monseñor Nouel","Monsignor Nouel",province,DO-36
DO,DO-15,"Monte Cristi","Christ Mountain",province,DO-34
DO,DO-29,"Monte Plata","Silver Mountain",province,DO-39
DO,DO-16,Pedernales,Pedernales,province,DO-38
DO,DO-17,Peravia,Peravia,province,DO-41
DO,DO-18,"Puerto Plata","Silver Port",province,DO-35
DO,DO-20,Samaná,Samana,province,DO-33
DO,DO-21,"San Cristóbal","Saint Christopher",province,DO-41
DO,DO-31,"San José de Ocoa","Saint Joseph",province,DO-41
DO,DO-22,"San Juan","Saint John",province,DO-37
DO,DO-23,"San Pedro de Macorís","Saint Peter",province,DO-39
DO,DO-24,"Sánchez Ramírez","Sanchez Ramirez",province,DO-36
DO,DO-25,Santiago,Santiago,province,DO-35
DO,DO-26,"Santiago Rodríguez","Santiago Rodriguez",province,DO-34
DO,DO-32,"Santo Domingo","Santo Domingo",province,DO-40
DO,DO-27,Valverde,Valverde,province,DO-34
DZ,DZ-01,Adrar,,province,
DZ,DZ-44,"Aïn Defla",,province,
DZ,DZ-46,"Aïn Témouchent",,province,
DZ,DZ-16,Alger,,province,
DZ,DZ-23,Annaba,,province,
DZ,DZ-05,Batna,,province,
DZ,DZ-08,Béchar,,province,
DZ,DZ-06,Béjaïa,,province,
DZ,DZ-52,"Béni Abbès",,province,
DZ,DZ-07,Biskra,,province,
DZ,DZ-09,Blida,,province,
DZ,DZ-50,"Bordj Badji Mokhtar",,province,
DZ,DZ-34,"Bordj Bou Arréridj",,province,
DZ,DZ-10,Bouira,,province,
DZ,DZ-35,Boumerdès,,province,
DZ,DZ-02,Chlef,,province,
DZ,DZ-25,Constantine,,province,
DZ,DZ-56,Djanet,,province,
DZ,DZ-17,Djelfa,,province,
DZ,DZ-32,"El Bayadh",,province,
DZ,DZ-57,"El Meghaier",,province,
DZ,DZ-58,"El Meniaa",,province,
DZ,DZ-39,"El Oued",,province,
DZ,DZ-36,"El Tarf",,province,
DZ,DZ-47,Ghardaïa,,province,
DZ,DZ-24,Guelma,,province,
DZ,DZ-33,Illizi,,province,
DZ,DZ-54,"In Guezzam",,province,
DZ,DZ-53,"In Salah",,province,
DZ,DZ-18,Jijel,,province,
DZ,DZ-40,Khenchela,,province,
DZ,DZ-03,Laghouat,,province,
DZ,DZ-28,M'sila,,province,
DZ,DZ-29,Mascara,,province,
DZ,DZ-26,Médéa,,province,
DZ,DZ-43,Mila,,province,
DZ,DZ-27,Mostaganem,,province,
DZ,DZ-45,Naama,,province,
DZ,DZ-31,Oran,,province,
DZ,DZ-30,Ouargla,,province,
DZ,DZ-51,"Ouled Djellal",,province,
DZ,DZ-04,"Oum el Bouaghi",,province,
DZ,DZ-48,Relizane,,province,
DZ,DZ-20,Saïda,,province,
DZ,DZ-19,Sétif,,province,
DZ,DZ-22,"Sidi Bel Abbès",,province,
DZ,DZ-21,Skikda,,province,
DZ,DZ-41,"Souk Ahras",,province,
DZ,DZ-11,Tamanrasset,,province,
DZ,DZ-12,Tébessa,,province,
DZ,DZ-14,Tiaret,,province,
DZ,DZ-49,Timimoun,,province,
DZ,DZ-37,Tindouf,,province,
DZ,DZ-42,Tipaza,,province,
DZ,DZ-38,Tissemsilt,,province,
DZ,DZ-15,"Tizi Ouzou",,province,
DZ,DZ-13,Tlemcen,,province,
DZ,DZ-55,Touggourt,,province,
EC,EC-A,Azuay,Azuay,province,
EC,EC-B,Bolívar,Bolivar,province,
EC,EC-F,Cañar,Canar,province,
EC,EC-C,Carchi,Carchi,province,
EC,EC-H,Chimborazo,Chimborazo,province,
EC,EC-X,Cotopaxi,Cotopaxi,province,
EC,EC-O,"El Oro","The Gold",province,
EC,EC-E,Esmeraldas,Esmeraldas,province,
EC,EC-W,Galápagos,Galapagos,province,
EC,EC-G,Guayas,Guayas,province,
EC,EC-I,Imbabura,Imbabura,province,
EC,EC-L,Loja,Loja,province,
EC,EC-R,"Los Ríos","The Rivers",province,
EC,EC-M,Manabí,Manabi,province,
EC,EC-S,"Morona Santiago","Morona Santiago",province,
EC,EC-N,Napo,Napo,province,
EC,EC-D,Orellana,Orellana,province,
EC,EC-Y,Pastaza,Pastaza,province,
EC,EC-P,Pichincha,Pichincha,province,
EC,EC-SE,"Santa Elena","Saint Helen",province,
EC,EC-SD,"Santo Domingo de los Tsáchilas","Saint Dominic",province,
EC,EC-U,Sucumbíos,Sucumbios,province,
EC,EC-T,Tungurahua,Tungurahua,province,
EC,EC-Z,"Zamora Chinchipe","Zamora Chinchipe",province,
EE,EE-37,Harjumaa,Harju,county,
EE,EE-39,Hiiumaa,Hiiu,county,
EE,EE-45,Ida-Virumaa,Ida-Viru,county,
EE,EE-50,Jõgevamaa,Jõgeva,county,
EE,EE-52,Järvamaa,Järva,county,
EE,EE-60,Lääne-Virumaa,Lääne-Viru,county,
EE,EE-56,Läänemaa,Lääne,county,
EE,EE-64,Põlvamaa,Põlva,county,
EE,EE-68,Pärnumaa,Pärnu,county,
EE,EE-71,Raplamaa,Rapla,county,
EE,EE-74,Saaremaa,Saare,county,
EE,EE-79,Tartumaa,Tartu,county,
EE,EE-81,Valgamaa,Valga,county,
EE,EE-84,Viljandimaa,Viljandi,county,
EE,EE-87,Võrumaa,Võru,county,
EE,EE-130,Alutaguse,,"rural municipality",EE-45
EE,EE-141,Anija,,"rural municipality",EE-37
EE,EE-142,Antsla,,"rural municipality",EE-87
EE,EE-171,Elva,,"rural municipality",EE-79
EE,EE-184,Haapsalu,,"urban municipality",EE-56
EE,EE-191,Haljala,,"rural municipality",EE-60
EE,EE-198,Harku,,"rural municipality",EE-37
EE,EE-205,Hiiumaa,,"rural municipality",EE-39
EE,EE-214,Häädemeeste,,"rural municipality",EE-68
EE,EE-245,Jõelähtme,,"rural municipality",EE-37
EE,EE-247,Jõgeva,,"rural municipality",EE-50
EE,EE-251,Jõhvi,,"rural municipality",EE-45
EE,EE-255,Järva,,"rural municipality",EE-52
EE,EE-272,Kadrina,,"rural municipality",EE-60
EE,EE-283,Kambja,,"rural municipality",EE-79
EE,EE-284,Kanepi,,"rural municipality",EE-64
EE,EE-291,Kastre,,"rural municipality",EE-79
EE,EE-293,Kehtna,,"rural municipality",EE-71
EE,EE-296,Keila,,"urban municipality",EE-37
EE,EE-303,Kihnu,,"rural municipality",EE-68
EE,EE-305,Kiili,,"rural municipality",EE-37
EE,EE-317,Kohila,,"rural municipality",EE-71
EE,EE-321,Kohtla-Järve,,"urban municipality",EE-45
EE,EE-338,Kose,,"rural municipality",EE-37
EE,EE-353,Kuusalu,,"rural municipality",EE-37
EE,EE-424,Loksa,,"urban municipality",EE-37
EE,EE-432,Luunja,,"rural municipality",EE-79
EE,EE-431,Lääne-Harju,,"rural municipality",EE-37
EE,EE-441,Lääne-Nigula,,"rural municipality",EE-56
EE,EE-430,Lääneranna,,"rural municipality",EE-68
EE,EE-442,Lüganuse,,"rural municipality",EE-45
EE,EE-446,Maardu,,"urban municipality",EE-37
EE,EE-478,Muhu,,"rural municipality",EE-74
EE,EE-480,Mulgi,,"rural municipality",EE-84
EE,EE-486,Mustvee,,"rural municipality",EE-50
EE,EE-503,Märjamaa,,"rural municipality",EE-71
EE,EE-511,Narva,,"urban municipality",EE-45
EE,EE-514,Narva-Jõesuu,,"urban municipality",EE-45
EE,EE-528,Nõo,,"rural municipality",EE-79
EE,EE-557,Otepää,,"rural municipality",EE-81
EE,EE-567,Paide,,"urban municipality",EE-52
EE,EE-586,Peipsiääre,,"rural municipality",EE-79
EE,EE-638,Põhja-Pärnumaa,,"rural municipality",EE-68
EE,EE-615,Põhja-Sakala,,"rural municipality",EE-84
EE,EE-618,Põltsamaa,,"rural municipality",EE-50
EE,EE-622,Põlva,,"rural municipality",EE-64
EE,EE-624,Pärnu,,"urban municipality",EE-68
EE,EE-651,Raasiku,,"rural municipality",EE-37
EE,EE-653,Rae,,"rural municipality",EE-37
EE,EE-661,Rakvere,,"rural municipality",EE-60
EE,EE-663,Rakvere,,"urban municipality",EE-60
EE,EE-668,Rapla,,"rural municipality",EE-71
EE,EE-689,Ruhnu,,"rural municipality",EE-74
EE,EE-698,Rõuge,,"rural municipality",EE-87
EE,EE-708,Räpina,,"rural municipality",EE-64
EE,EE-712,Saarde,,"rural municipality",EE-68
EE,EE-714,Saaremaa,,"rural municipality",EE-74
EE,EE-719,Saku,,"rural municipality",EE-37
EE,EE-726,Saue,,"rural municipality",EE-37
EE,EE-732,Setomaa,,"rural municipality",EE-87
EE,EE-735,Sillamäe,,"urban municipality",EE-45
EE,EE-784,Tallinn,,"urban municipality",EE-37
EE,EE-792,Tapa,,"rural municipality",EE-60
EE,EE-796,Tartu,,"rural municipality",EE-79
EE,EE-793,Tartu,,"urban municipality",EE-79
EE,EE-803,Toila,,"rural municipality",EE-45
EE,EE-809,Tori,,"rural municipality",EE-68
EE,EE-824,Tõrva,,"rural municipality",EE-81
EE,EE-834,Türi,,"rural municipality",EE-52
EE,EE-855,Valga,,"rural municipality",EE-81
EE,EE-890,Viimsi,,"rural municipality",EE-37
EE,EE-899,Viljandi,,"rural municipality",EE-84
EE,EE-897,Viljandi,,"urban municipality",EE-84
EE,EE-901,Vinni,,"rural municipality",EE-60
EE,EE-903,Viru-Nigula,,"rural municipality",EE-60
EE,EE-907,Vormsi,,"rural municipality",EE-56
EE,EE-917,Võru,,"rural municipality",EE-87
EE,EE-919,Võru,,"urban municipality",EE-87
EE,EE-928,Väike-Maarja,,"rural municipality",EE-60
EG,EG-DK,"Ad Daqahlīyah",Dakahlia,governorate,
EG,EG-BA,"Al Baḩr al Aḩmar","Red Sea",governorate,
EG,EG-BH,"Al Buḩayrah",Beheira,governorate,
EG,EG-FYM,"Al Fayyūm",Faiyum,governorate,
EG,EG-GH,"Al Gharbīyah",Gharbia,governorate,
EG,EG-ALX,"Al Iskandarīyah",Alexandria,governorate,
EG,EG-IS,"Al Ismā'īlīyah",Ismailia,governorate,
EG,EG-GZ,"Al Jīzah",Giza,governorate,
EG,EG-MNF,"Al Minūfīyah",Monufia,governorate,
EG,EG-MN,"Al Minyā",Minya,governorate,
EG,EG-C,"Al Qāhirah",Cairo,governorate,
EG,EG-KB,"Al Qalyūbīyah",Qalyubia,governorate,
EG,EG-LX,"Al Uqşur",Luxor,governorate,
EG,EG-WAD,"Al Wādī al Jadīd","New Valley",governorate,
EG,EG-SUZ,"As Suways",Suez,governorate,
EG,EG-SHR,"Ash Sharqīyah","Al Sharqia",governorate,
EG,EG-ASN,Aswān,Aswan,governorate,
EG,EG-AST,Asyūţ,Asyut,governorate,
EG,EG-BNS,"Banī Suwayf","Beni Suef",governorate,
EG,EG-PTS,"Būr Sa‘īd","Port Said",governorate,
EG,EG-DT,Dumyāţ,Damietta,governorate,
EG,EG-JS,"Janūb Sīnā'","South Sinai",governorate,
EG,EG-KFS,"Kafr ash Shaykh","Kafr el-Sheikh",governorate,
EG,EG-MT,Maţrūḩ,Matrouh,governorate,
EG,EG-KN,Qinā,Qena,governorate,
EG,EG-SIN,"Shamāl Sīnā'","North Sinai",governorate,
EG,EG-SHG,Sūhāj,Sohag,governorate,
ER,ER-MA,"Al Awsaţ",Central,region,
ER,ER-DU,"Al Janūbī",Southern,region,
ER,ER-AN,Ansabā,Anseba,region,
ER,ER-DK,"Janūbī al Baḩrī al Aḩmar","Southern Red Sea",region,
ER,ER-GB,Qāsh-Barkah,Gash-Barka,region,
ER,ER-SK,"Shimālī al Baḩrī al Aḩmar","Northern Red Sea",region,
ES,ES-AN,Andalucía,Andalusia,"autonomous community",
ES,ES-AR,Aragón,Aragon,"autonomous community",
ES,ES-AS,"Asturias, Principado de","Principality of Asturias","autonomous community",
ES,ES-CN,Canarias,"Canary Islands","autonomous community",
ES,ES-CB,Cantabria,Cantabria,"autonomous community",
ES,ES-CL,"Castilla y León","Castile and León","autonomous community",
ES,ES-CM,"Castilla-La Mancha","Castile-La Mancha","autonomous community",
ES,ES-CT,Catalunya,Catalonia,"autonomous community",
ES,ES-CE,Ceuta,Ceuta,"autonomous city in north africa",
ES,ES-EX,Extremadura,Extremadura,"autonomous community",
ES,ES-GA,Galicia,Galicia,"autonomous community",
ES,ES-IB,"Illes Balears","Balearic Islands","autonomous community",
ES,ES-RI,"La Rioja","La Rioja","autonomous community",
ES,ES-MD,"Madrid, Comunidad de","Community of Madrid","autonomous community",
ES,ES-ML,Melilla,Melilla,"autonomous city in north africa",
ES,ES-MC,"Murcia, Región de","Region of Murcia","autonomous community",
ES,ES-NC,"Navarra, Comunidad Foral de","Chartered Community of Navarre","autonomous community",
ES,ES-PV,"País Vasco","Basque Country","autonomous community",
ES,ES-VC,"Valenciana, Comunidad","Valencian Community","autonomous community",
ES,ES-C,"A Coruña",,province,ES-GA
ES,ES-VI,Álava,,province,ES-PV
ES,ES-AB,Albacete,,province,ES-CM
ES,ES-A,Alicante,,province,ES-VC
ES,ES-AL,Almería,,province,ES-AN
ES,ES-O,Asturias,,province,ES-AS
ES,ES-AV,Ávila,,province,ES-CL
ES,ES-BA,Badajoz,,province,ES-EX
ES,ES-B,Barcelona,,province,ES-CT
ES,ES-BI,Bizkaia,,province,ES-PV
ES,ES-BU,Burgos,,province,ES-CL
ES,ES-CC,Cáceres,,province,ES-EX
ES,ES-CA,Cádiz,,province,ES-AN
ES,ES-S,Cantabria,,province,ES-CB
ES,ES-CS,Castellón,,province,ES-VC
ES,ES-CR,"Ciudad Real",,province,ES-CM
ES,ES-CO,Córdoba,,province,ES-AN
ES,ES-CU,Cuenca,,province,ES-CM
ES,ES-SS,Gipuzkoa,,province,ES-PV
ES,ES-GI,Girona,,province,ES-CT
ES,ES-GR,Granada,,province,ES-AN
ES,ES-GU,Guadalajara,,province,ES-CM
ES,ES-H,Huelva,,province,ES-AN
ES,ES-HU,Huesca,,province,ES-AR
ES,ES-PM,"Illes Balears",,province,ES-IB
ES,ES-J,Jaén,,province,ES-AN
ES,ES-LO,"La Rioja",,province,ES-RI
ES,ES-GC,"Las Palmas",,province,ES-CN
ES,ES-LE,León,,province,ES-CL
ES,ES-L,Lleida,,province,ES-CT
ES,ES-LU,Lugo,,province,ES-GA
ES,ES-M,Madrid,,province,ES-MD
ES,ES-MA,Málaga,,province,ES-AN
ES,ES-MU,Murcia,,province,ES-MC
ES,ES-NA,Navarra,,province,ES-NC
ES,ES-OR,Ourense,,province,ES-GA
ES,ES-P,Palencia,,province,ES-CL
ES,ES-PO,Pontevedra,,province,ES-GA
ES,ES-SA,Salamanca,,province,ES-CL
ES,ES-TF,"Santa Cruz de Tenerife",,province,ES-CN
ES,ES-SG,Segovia,,province,ES-CL
ES,ES-SE,Sevilla,,province,ES-AN
ES,ES-SO,Soria,,province,ES-CL
ES,ES-T,Tarragona,,province,ES-CT
ES,ES-TE,Teruel,,province,ES-AR
ES,ES-TO,Toledo,,province,ES-CM
ES,ES-V,Valencia,,province,ES-VC
ES,ES-VA,Valladolid,,province,ES-CL
ES,ES-ZA,Zamora,,province,ES-CL
ES,ES-Z,Zaragoza,,province,ES-AR
ET,ET-AA,"Ādīs Ābeba","Addis Ababa",administration,
ET,ET-AF,Āfar,Afar,"regional state",
ET,ET-AM,Āmara,Amara,"regional state",
ET,ET-BE,"Bīnshangul Gumuz",Benshangul-Gumaz,"regional state",
ET,ET-DD,"Dirē Dawa","Dire Dawa",administration,
ET,ET-GA,"Gambēla Hizboch","Gambela Peoples","regional state",
ET,ET-HA,"Hārerī Hizb","Harari People","regional state",
ET,ET-OR,Oromīya,Oromia,"regional state",
ET,ET-SI,Sīdama,Sidama,"regional state",
ET,ET-SO,Sumalē,Somali,"regional state",
ET,ET-TI,Tigray,Tigrai,"regional state",
ET,ET-SN,"YeDebub Bihēroch Bihēreseboch na Hizboch","Southern Nations, Nationalities and Peoples","regional state",
ET,ET-SW,"YeDebub M‘irab Ītyop’iya Hizboch","Southwest Ethiopia Peoples","regional state",
FI,FI-01,"Ahvenanmaan maakunta",Åland,region,
FI,FI-02,Etelä-Karjala,"South Karelia",region,
FI,FI-03,Etelä-Pohjanmaa,"South Ostrobothnia",region,
FI,FI-04,Etelä-Savo,"South Savo",region,
FI,FI-05,Kainuu,Kainuu,region,
FI,FI-06,Kanta-Häme,Kanta-Häme,region,
FI,FI-07,Keski-Pohjanmaa,"Central Ostrobothnia",region,
FI,FI-08,Keski-Suomi,"Central Finland",region,
FI,FI-09,Kymenlaakso,Kymenlaakso,region,
FI,FI-10,Lappi,Lapland,region,
FI,FI-11,Pirkanmaa,Pirkanmaa,region,
FI,FI-12,Pohjanmaa,Ostrobothnia,region,
FI,FI-13,Pohjois-Karjala,"North Karelia",region,
FI,FI-14,Pohjois-Pohjanmaa,"North Ostrobothnia",region,
FI,FI-15,Pohjois-Savo,"North Savo",region,
FI,FI-16,Päijät-Häme,Päijät-Häme,region,
FI,FI-17,Satakunta,Satakunta,region,
FI,FI-18,Uusimaa,Uusimaa,region,
FI,FI-19,Varsinais-Suomi,"Southwest Finland",region,
FJ,FJ-C,Central,,division,
FJ,FJ-E,Eastern,,division,
FJ,FJ-N,Northern,,division,
FJ,FJ-W,Western,,division,
FJ,FJ-R,Rotuma,,dependency,
FJ,FJ-01,Ba,,province,FJ-W
FJ,FJ-02,Bua,,province,FJ-N
FJ,FJ-03,Cakaudrove,,province,FJ-N
FJ,FJ-04,Kadavu,,province,FJ-E
FJ,FJ-05,Lau,,province,FJ-E
FJ,FJ-06,Lomaiviti,,province,FJ-E
FJ,FJ-07,Macuata,,province,FJ-N
FJ,FJ-08,"Nadroga and Navosa",,province,FJ-W
FJ,FJ-09,Naitasiri,,province,FJ-C
FJ,FJ-10,Namosi,,province,FJ-C
FJ,FJ-11,Ra,,province,FJ-W
FJ,FJ-12,Rewa,,province,FJ-C
FJ,FJ-13,Serua,,province,FJ-C
FJ,FJ-14,Tailevu,,province,FJ-C
FM,FM-TRK,Chuuk,,state,
FM,FM-KSA,Kosrae,,state,
FM,FM-PNI,Pohnpei,,state,
FM,FM-YAP,Yap,,state,
FR,FR-ARA,Auvergne-Rhône-Alpes,Auvergne-Rhône-Alps,"metropolitan region",
FR,FR-BFC,Bourgogne-Franche-Comté,Burgundy-Franche-Comté,"metropolitan region",
FR,FR-BRE,Bretagne,Brittany,"metropolitan region",
FR,FR-CVL,"Centre-Val de Loire","Centre-Loire Valley","metropolitan region",
FR,FR-20R,Corse,Corsica,"metropolitan collectivity with special status",
FR,FR-GES,"Grand Est","Great East","metropolitan region",
FR,FR-HDF,Hauts-de-France,"Upper France","metropolitan region",
FR,FR-IDF,Île-de-France,Paris,"metropolitan region",
FR,FR-NOR,Normandie,Normandy,"metropolitan region",
FR,FR-NAQ,Nouvelle-Aquitaine,"New Aquitaine","metropolitan region",
FR,FR-OCC,Occitanie,Occitania,"metropolitan region",
FR,FR-PDL,Pays-de-la-Loire,"Loire Country","metropolitan region",
FR,FR-PAC,Provence-Alpes-Côte-d’Azur,"Provence-Alps-French Riviera","metropolitan region",
FR,FR-01,Ain,Ain,"metropolitan department",FR-ARA
FR,FR-02,Aisne,Aisne,"metropolitan department",FR-HDF
FR,FR-03,Allier,Allier,"metropolitan department",FR-ARA
FR,FR-04,Alpes-de-Haute-Provence,"Alps of Upper Provence","metropolitan department",FR-PAC
FR,FR-06,Alpes-Maritimes,"Maritime Alps","metropolitan department",FR-PAC
FR,FR-6AE,Alsace,Alsace,"european collectivity",FR-GES
FR,FR-07,Ardèche,Ardèche,"metropolitan department",FR-ARA
FR,FR-08,Ardennes,Ardennes,"metropolitan department",FR-GES
FR,FR-09,Ariège,Ariège,"metropolitan department",FR-OCC
FR,FR-10,Aube,Aube,"metropolitan department",FR-GES
FR,FR-11,Aude,Aude,"metropolitan department",FR-OCC
FR,FR-12,Aveyron,Aveyron,"metropolitan department",FR-OCC
FR,FR-13,Bouches-du-Rhône,"Rhône Delta","metropolitan department",FR-PAC
FR,FR-14,Calvados,Calvados,"metropolitan department",FR-NOR
FR,FR-15,Cantal,Cantal,"metropolitan department",FR-ARA
FR,FR-16,Charente,Charente,"metropolitan department",FR-NAQ
FR,FR-17,Charente-Maritime,"Maritime Charente","metropolitan department",FR-NAQ
FR,FR-18,Cher,Cher,"metropolitan department",FR-CVL
FR,FR-19,Corrèze,Corrèze,"metropolitan department",FR-NAQ
FR,FR-2A,Corse-du-Sud,"Southern Corsica","metropolitan department",FR-20R
FR,FR-21,Côte-d'Or,"Gold Coast","metropolitan department",FR-BFC
FR,FR-22,Côtes-d'Armor,"Armor Coast","metropolitan department",FR-BRE
FR,FR-23,Creuse,Creuse,"metropolitan department",FR-NAQ
FR,FR-79,Deux-Sèvres,"Two Sèvres","metropolitan department",FR-NAQ
FR,FR-24,Dordogne,Dordogne,"metropolitan department",FR-NAQ
FR,FR-25,Doubs,Doubs,"metropolitan department",FR-BFC
FR,FR-26,Drôme,Drôme,"metropolitan department",FR-ARA
FR,FR-91,Essonne,Essonne,"metropolitan department",FR-IDF
FR,FR-27,Eure,Eure,"metropolitan department",FR-NOR
FR,FR-28,Eure-et-Loir,"Eure and Loir","metropolitan department",FR-CVL
FR,FR-29,Finistère,Finisterre,"metropolitan department",FR-BRE
FR,FR-30,Gard,Gard,"metropolitan department",FR-OCC
FR,FR-32,Gers,Gers,"metropolitan department",FR-OCC
FR,FR-33,Gironde,Gironde,"metropolitan department",FR-NAQ
FR,FR-971,Guadeloupe,Guadeloupe,"overseas departmental collectivity",
FR,FR-973,"Guyane (française)","French Guiana","overseas unique territorial collectivity",
FR,FR-2B,Haute-Corse,"Upper Corsica","metropolitan department",FR-20R
FR,FR-31,Haute-Garonne,"Upper Garonne","metropolitan department",FR-OCC
FR,FR-43,Haute-Loire,"Upper Loire","metropolitan department",FR-ARA
FR,FR-52,Haute-Marne,"Upper Marne","metropolitan department",FR-GES
FR,FR-70,Haute-Saône,"Upper Saône","metropolitan department",FR-BFC
FR,FR-74,Haute-Savoie,"Upper Savoy","metropolitan department",FR-ARA
FR,FR-87,Haute-Vienne,"Upper Vienne","metropolitan department",FR-NAQ
FR,FR-05,Hautes-Alpes,"Upper Alps","metropolitan department",FR-PAC
FR,FR-65,Hautes-Pyrénées,"Upper Pyrenees","metropolitan department",FR-OCC
FR,FR-92,Hauts-de-Seine,"Upper Seine","metropolitan department",FR-IDF
FR,FR-34,Hérault,Herault,"metropolitan department",FR-OCC
FR,FR-35,Ille-et-Vilaine,"Ille and Vilaine","metropolitan department",FR-BRE
FR,FR-36,Indre,Indre,"metropolitan department",FR-CVL
FR,FR-37,Indre-et-Loire,"Indre and Loire","metropolitan department",FR-CVL
FR,FR-38,Isère,Isere,"metropolitan department",FR-ARA
FR,FR-39,Jura,Jura,"metropolitan department",FR-BFC
FR,FR-974,"La Réunion",Reunion,"overseas departmental collectivity",
FR,FR-40,Landes,Landes,"metropolitan department",FR-NAQ
FR,FR-41,Loir-et-Cher,"Loir and Cher","metropolitan department",FR-CVL
FR,FR-42,Loire,Loire,"metropolitan department",FR-ARA
FR,FR-44,Loire-Atlantique,"Atlantic Loire","metropolitan department",FR-PDL
FR,FR-45,Loiret,Loiret,"metropolitan department",FR-CVL
FR,FR-46,Lot,Lot,"metropolitan department",FR-OCC
FR,FR-47,Lot-et-Garonne,"Lot and Garonne","metropolitan department",FR-NAQ
FR,FR-48,Lozère,Lozere,"metropolitan department",FR-OCC
FR,FR-49,Maine-et-Loire,"Maine and Loire","metropolitan department",FR-PDL
FR,FR-50,Manche,Channel,"metropolitan department",FR-NOR
FR,FR-51,Marne,Marne,"metropolitan department",FR-GES
FR,FR-972,Martinique,Martinique,"overseas unique territorial collectivity",
FR,FR-53,Mayenne,Mayenne,"metropolitan department",FR-PDL
FR,FR-976,Mayotte,Mayotte,"overseas departmental collectivity",
FR,FR-69M,"Métropole de Lyon","Greater Lyon","metropolitan collectivity with special status",FR-ARA
FR,FR-54,Meurthe-et-Moselle,"Meurthe and Moselle","metropolitan department",FR-GES
FR,FR-55,Meuse,Meuse,"metropolitan department",FR-GES
FR,FR-56,Morbihan,Morbihan,"metropolitan department",FR-BRE
FR,FR-57,Moselle,Moselle,"metropolitan department",FR-GES
FR,FR-58,Nièvre,Nievre,"metropolitan department",FR-BFC
FR,FR-59,Nord,North,"metropolitan department",FR-HDF
FR,FR-60,Oise,Oise,"metropolitan department",FR-HDF
FR,FR-61,Orne,Orne,"metropolitan department",FR-NOR
FR,FR-75C,Paris,"City of Paris","metropolitan collectivity with special status",FR-IDF
FR,FR-62,Pas-de-Calais,"Strait of Calais","metropolitan department",FR-HDF
FR,FR-63,Puy-de-Dôme,"Puy de Dome","metropolitan department",FR-ARA
FR,FR-64,Pyrénées-Atlantiques,"Atlantic Pyrenees","metropolitan department",FR-NAQ
FR,FR-66,Pyrénées-Orientales,"Eastern Pyrenees","metropolitan department",FR-OCC
FR,FR-69,Rhône,Rhône,"metropolitan department",FR-ARA
FR,FR-71,Saône-et-Loire,"Saone and Loire","metropolitan department",FR-BFC
FR,FR-72,Sarthe,Sarthe,"metropolitan department",FR-PDL
FR,FR-73,Savoie,Savoy,"metropolitan department",FR-ARA
FR,FR-77,Seine-et-Marne,"Seine and Marne","metropolitan department",FR-IDF
FR,FR-76,Seine-Maritime,"Maritime Seine","metropolitan department",FR-NOR
FR,FR-93,Seine-Saint-Denis,"Saint Denis Seine","metropolitan department",FR-IDF
FR,FR-80,Somme,Somme,"metropolitan department",FR-HDF
FR,FR-81,Tarn,Tarn,"metropolitan department",FR-OCC
FR,FR-82,Tarn-et-Garonne,"Tarn and Garonne","metropolitan department",FR-OCC
FR,FR-90,"Territoire de Belfort","Belfort Territory","metropolitan department",FR-BFC
FR,FR-95,Val-d'Oise,"Oise Valley","metropolitan department",FR-IDF
FR,FR-94,Val-de-Marne,"Marne Valley","metropolitan department",FR-IDF
FR,FR-83,Var,Var,"metropolitan department",FR-PAC
FR,FR-84,Vaucluse,Vaucluse,"metropolitan department",FR-PAC
FR,FR-85,Vendée,Vendee,"metropolitan department",FR-PDL
FR,FR-86,Vienne,Vienne,"metropolitan department",FR-NAQ
FR,FR-88,Vosges,Vosges,"metropolitan department",FR-GES
FR,FR-89,Yonne,Yonne,"metropolitan department",FR-BFC
FR,FR-78,Yvelines,Yvelines,"metropolitan department",FR-IDF
FR,FR-67,Bas-Rhin,"Lower Rhine","metropolitan department",FR-6AE
FR,FR-68,Haut-Rhin,"Upper Rhine","metropolitan department",FR-6AE
FR,FR-CP,Clipperton,Clipperton,dependency,
FR,FR-NC,Nouvelle-Calédonie,"New Caledonia","overseas collectivity with special status",
FR,FR-PF,"Polynésie française","French Polynesia","overseas collectivity",
FR,FR-BL,Saint-Barthélemy,"Saint Barts","overseas collectivity",
FR,FR-MF,Saint-Martin,"Saint Martin","overseas collectivity",
FR,FR-PM,Saint-Pierre-et-Miquelon,"Saint Peter and Miquelon","overseas collectivity",
FR,FR-TF,"Terres australes françaises","French Southern Territories","overseas territory",
FR,FR-WF,Wallis-et-Futuna,"Wallis and Futuna","overseas collectivity",
GA,GA-1,Estuaire,Estuary,province,
GA,GA-2,Haut-Ogooué,"Upper Ogooué",province,
GA,GA-3,Moyen-Ogooué,"Middle Ogooué",province,
GA,GA-4,Ngounié,Ngounié,province,
GA,GA-5,Nyanga,Nyanga,province,
GA,GA-6,Ogooué-Ivindo,Ogooué-Ivindo,province,
GA,GA-7,Ogooué-Lolo,Ogooué-Lolo,province,
GA,GA-8,Ogooué-Maritime,"Maritime Ogooué",province,
GA,GA-9,Woleu-Ntem,Woleu-Ntem,province,
GB,GB-ENG,England,,country,
GB,GB-NIR,"Northern Ireland",,province,
GB,GB-SCT,Scotland,,country,
GB,GB-WLS,Wales,,country,
GB,GB-CAM,Cambridgeshire,,"two-tier county",GB-ENG
GB,GB-CMA,Cumbria,,"two-tier county",GB-ENG
GB,GB-DBY,Derbyshire,,"two-tier county",GB-ENG
GB,GB-DEV,Devon,,"two-tier county",GB-ENG
GB,GB-DOR,Dorset,,"two-tier county",GB-ENG
GB,GB-ESX,"East Sussex",,"two-tier county",GB-ENG
GB,GB-ESS,Essex,,"two-tier county",GB-ENG
GB,GB-GLS,Gloucestershire,,"two-tier county",GB-ENG
GB,GB-HAM,Hampshire,,"two-tier county",GB-ENG
GB,GB-HRT,Hertfordshire,,"two-tier county",GB-ENG
GB,GB-KEN,Kent,,"two-tier county",GB-ENG
GB,GB-LAN,Lancashire,,"two-tier county",GB-ENG
GB,GB-LEC,Leicestershire,,"two-tier county",GB-ENG
GB,GB-LIN,Lincolnshire,,"two-tier county",GB-ENG
GB,GB-NFK,Norfolk,,"two-tier county",GB-ENG
GB,GB-NYK,"North Yorkshire",,"two-tier county",GB-ENG
GB,GB-NTT,Nottinghamshire,,"two-tier county",GB-ENG
GB,GB-OXF,Oxfordshire,,"two-tier county",GB-ENG
GB,GB-SOM,Somerset,,"two-tier county",GB-ENG
GB,GB-STS,Staffordshire,,"two-tier county",GB-ENG
GB,GB-SFK,Suffolk,,"two-tier county",GB-ENG
GB,GB-SRY,Surrey,,"two-tier county",GB-ENG
GB,GB-WAR,Warwickshire,,"two-tier county",GB-ENG
GB,GB-WSX,"West Sussex",,"two-tier county",GB-ENG
GB,GB-WOR,Worcestershire,,"two-tier county",GB-ENG
GB,GB-LND,"London, City of",,"city corporation",GB-ENG
GB,GB-BDG,"Barking and Dagenham",,"london borough",GB-ENG
GB,GB-BNE,Barnet,,"london borough",GB-ENG
GB,GB-BEX,Bexley,,"london borough",GB-ENG
GB,GB-BEN,Brent,,"london borough",GB-ENG
GB,GB-BRY,Bromley,,"london borough",GB-ENG
GB,GB-CMD,Camden,,"london borough",GB-ENG
GB,GB-CRY,Croydon,,"london borough",GB-ENG
GB,GB-EAL,Ealing,,"london borough",GB-ENG
GB,GB-ENF,Enfield,,"london borough",GB-ENG
GB,GB-GRE,Greenwich,,"london borough",GB-ENG
GB,GB-HCK,Hackney,,"london borough",GB-ENG
GB,GB-HMF,"Hammersmith and Fulham",,"london borough",GB-ENG
GB,GB-HRY,Haringey,,"london borough",GB-ENG
GB,GB-HRW,Harrow,,"london borough",GB-ENG
GB,GB-HAV,Havering,,"london borough",GB-ENG
GB,GB-HIL,Hillingdon,,"london borough",GB-ENG
GB,GB-HNS,Hounslow,,"london borough",GB-ENG
GB,GB-ISL,Islington,,"london borough",GB-ENG
GB,GB-KEC,"Kensington and Chelsea",,"london borough",GB-ENG
GB,GB-KTT,"Kingston upon Thames",,"london borough",GB-ENG
GB,GB-LBH,Lambeth,,"london borough",GB-ENG
GB,GB-LEW,Lewisham,,"london borough",GB-ENG
GB,GB-MRT,Merton,,"london borough",GB-ENG
GB,GB-NWM,Newham,,"london borough",GB-ENG
GB,GB-RDB,Redbridge,,"london borough",GB-ENG
GB,GB-RIC,"Richmond upon Thames",,"london borough",GB-ENG
GB,GB-SWK,Southwark,,"london borough",GB-ENG
GB,GB-STN,Sutton,,"london borough",GB-ENG
GB,GB-TWH,"Tower Hamlets",,"london borough",GB-ENG
GB,GB-WFT,"Waltham Forest",,"london borough",GB-ENG
GB,GB-WND,Wandsworth,,"london borough",GB-ENG
GB,GB-WSM,Westminster,,"london borough",GB-ENG
GB,GB-BNS,Barnsley,,"metropolitan district",GB-ENG
GB,GB-BIR,Birmingham,,"metropolitan district",GB-ENG
GB,GB-BOL,Bolton,,"metropolitan district",GB-ENG
GB,GB-BRD,Bradford,,"metropolitan district",GB-ENG
GB,GB-BUR,Bury,,"metropolitan district",GB-ENG
GB,GB-CLD,Calderdale,,"metropolitan district",GB-ENG
GB,GB-COV,Coventry,,"metropolitan district",GB-ENG
GB,GB-DNC,Doncaster,,"metropolitan district",GB-ENG
GB,GB-DUD,Dudley,,"metropolitan district",GB-ENG
GB,GB-GAT,Gateshead,,"metropolitan district",GB-ENG
GB,GB-KIR,Kirklees,,"metropolitan district",GB-ENG
GB,GB-KWL,Knowsley,,"metropolitan district",GB-ENG
GB,GB-LDS,Leeds,,"metropolitan district",GB-ENG
GB,GB-LIV,Liverpool,,"metropolitan district",GB-ENG
GB,GB-MAN,Manchester,,"metropolitan district",GB-ENG
GB,GB-NET,"Newcastle upon Tyne",,"metropolitan district",GB-ENG
GB,GB-NTY,"North Tyneside",,"metropolitan district",GB-ENG
GB,GB-OLD,Oldham,,"metropolitan district",GB-ENG
GB,GB-RCH,Rochdale,,"metropolitan district",GB-ENG
GB,GB-ROT,Rotherham,,"metropolitan district",GB-ENG
GB,GB-SHN,"St. Helens",,"metropolitan district",GB-ENG
GB,GB-SLF,Salford,,"metropolitan district",GB-ENG
GB,GB-SAW,Sandwell,,"metropolitan district",GB-ENG
GB,GB-SFT,Sefton,,"metropolitan district",GB-ENG
GB,GB-SHF,Sheffield,,"metropolitan district",GB-ENG
GB,GB-SOL,Solihull,,"metropolitan district",GB-ENG
GB,GB-STY,"South Tyneside",,"metropolitan district",GB-ENG
GB,GB-SKP,Stockport,,"metropolitan district",GB-ENG
GB,GB-SND,Sunderland,,"metropolitan district",GB-ENG
GB,GB-TAM,Tameside,,"metropolitan district",GB-ENG
GB,GB-TRF,Trafford,,"metropolitan district",GB-ENG
GB,GB-WKF,Wakefield,,"metropolitan district",GB-ENG
GB,GB-WLL,Walsall,,"metropolitan district",GB-ENG
GB,GB-WGN,Wigan,,"metropolitan district",GB-ENG
GB,GB-WRL,Wirral,,"metropolitan district",GB-ENG
GB,GB-WLV,Wolverhampton,,"metropolitan district",GB-ENG
GB,GB-BAS,"Bath and North East Somerset",,"unitary authority",GB-ENG
GB,GB-BDF,Bedford,,"unitary authority",GB-ENG
GB,GB-BBD,"Blackburn with Darwen",,"unitary authority",GB-ENG
GB,GB-BPL,Blackpool,,"unitary authority",GB-ENG
GB,GB-BCP,"Bournemouth, Christchurch and Poole",,"unitary authority",GB-ENG
GB,GB-BRC,"Bracknell Forest",,"unitary authority",GB-ENG
GB,GB-BNH,"Brighton and Hove",,"unitary authority",GB-ENG
GB,GB-BST,"Bristol, City of",,"unitary authority",GB-ENG
GB,GB-BKM,Buckinghamshire,,"unitary authority",GB-ENG
GB,GB-CBF,"Central Bedfordshire",,"unitary authority",GB-ENG
GB,GB-CHE,"Cheshire East",,"unitary authority",GB-ENG
GB,GB-CHW,"Cheshire West and Chester",,"unitary authority",GB-ENG
GB,GB-CON,Cornwall,,"unitary authority",GB-ENG
GB,GB-DAL,Darlington,,"unitary authority",GB-ENG
GB,GB-DER,Derby,,"unitary authority",GB-ENG
GB,GB-DUR,"Durham, County",,"unitary authority",GB-ENG
GB,GB-ERY,"East Riding of Yorkshire",,"unitary authority",GB-ENG
GB,GB-HAL,Halton,,"unitary authority",GB-ENG
GB,GB-HPL,Hartlepool,,"unitary authority",GB-ENG
GB,GB-HEF,Herefordshire,,"unitary authority",GB-ENG
GB,GB-IOW,"Isle of Wight",,"unitary authority",GB-ENG
GB,GB-IOS,"Isles of Scilly",,"unitary authority",GB-ENG
GB,GB-KHL,"Kingston upon Hull",,"unitary authority",GB-ENG
GB,GB-LCE,Leicester,,"unitary authority",GB-ENG
GB,GB-LUT,Luton,,"unitary authority",GB-ENG
GB,GB-MDW,Medway,,"unitary authority",GB-ENG
GB,GB-MDB,Middlesbrough,,"unitary authority",GB-ENG
GB,GB-MIK,"Milton Keynes",,"unitary authority",GB-ENG
GB,GB-NEL,"North East Lincolnshire",,"unitary authority",GB-ENG
GB,GB-NLN,"North Lincolnshire",,"unitary authority",GB-ENG
GB,GB-NNH,"North Northamptonshire",,"unitary authority",GB-ENG
GB,GB-NSM,"North Somerset",,"unitary authority",GB-ENG
GB,GB-NBL,Northumberland,,"unitary authority",GB-ENG
GB,GB-NGM,Nottingham,,"unitary authority",GB-ENG
GB,GB-PTE,Peterborough,,"unitary authority",GB-ENG
GB,GB-PLY,Plymouth,,"unitary authority",GB-ENG
GB,GB-POR,Portsmouth,,"unitary authority",GB-ENG
GB,GB-RDG,Reading,,"unitary authority",GB-ENG
GB,GB-RCC,"Redcar and Cleveland",,"unitary authority",GB-ENG
GB,GB-RUT,Rutland,,"unitary authority",GB-ENG
GB,GB-SHR,Shropshire,,"unitary authority",GB-ENG
GB,GB-SLG,Slough,,"unitary authority",GB-ENG
GB,GB-SGC,"South Gloucestershire",,"unitary authority",GB-ENG
GB,GB-STH,Southampton,,"unitary authority",GB-ENG
GB,GB-SOS,Southend-on-Sea,,"unitary authority",GB-ENG
GB,GB-STT,Stockton-on-Tees,,"unitary authority",GB-ENG
GB,GB-STE,Stoke-on-Trent,,"unitary authority",GB-ENG
GB,GB-SWD,Swindon,,"unitary authority",GB-ENG
GB,GB-TFW,"Telford and Wrekin",,"unitary authority",GB-ENG
GB,GB-THR,Thurrock,,"unitary authority",GB-ENG
GB,GB-TOB,Torbay,,"unitary authority",GB-ENG
GB,GB-WRT,Warrington,,"unitary authority",GB-ENG
GB,GB-WBK,"West Berkshire",,"unitary authority",GB-ENG
GB,GB-WNH,"West Northamptonshire",,"unitary authority",GB-ENG
GB,GB-WIL,Wiltshire,,"unitary authority",GB-ENG
GB,GB-WNM,"Windsor and Maidenhead",,"unitary authority",GB-ENG
GB,GB-WOK,Wokingham,,"unitary authority",GB-ENG
GB,GB-YOR,York,,"unitary authority",GB-ENG
GB,GB-ANN,"Antrim and Newtownabbey",,district,GB-NIR
GB,GB-AND,"Ards and North Down",,district,GB-NIR
GB,GB-ABC,"Armagh City, Banbridge and Craigavon",,district,GB-NIR
GB,GB-BFS,"Belfast City",,district,GB-NIR
GB,GB-CCG,"Causeway Coast and Glens",,district,GB-NIR
GB,GB-DRS,"Derry and Strabane",,district,GB-NIR
GB,GB-FMO,"Fermanagh and Omagh",,district,GB-NIR
GB,GB-LBC,"Lisburn and Castlereagh",,district,GB-NIR
GB,GB-MEA,"Mid and East Antrim",,district,GB-NIR
GB,GB-MUL,Mid-Ulster,,district,GB-NIR
GB,GB-NMD,"Newry, Mourne and Down",,district,GB-NIR
GB,GB-ABE,"Aberdeen City",,"council area",GB-SCT
GB,GB-ABD,Aberdeenshire,,"council area",GB-SCT
GB,GB-ANS,Angus,,"council area",GB-SCT
GB,GB-AGB,"Argyll and Bute",,"council area",GB-SCT
GB,GB-CLK,Clackmannanshire,,"council area",GB-SCT
GB,GB-DGY,"Dumfries and Galloway",,"council area",GB-SCT
GB,GB-DND,"Dundee City",,"council area",GB-SCT
GB,GB-EAY,"East Ayrshire",,"council area",GB-SCT
GB,GB-EDU,"East Dunbartonshire",,"council area",GB-SCT
GB,GB-ELN,"East Lothian",,"council area",GB-SCT
GB,GB-ERW,"East Renfrewshire",,"council area",GB-SCT
GB,GB-EDH,"Edinburgh, City of",,"council area",GB-SCT
GB,GB-ELS,"Eilean Siar",,"council area",GB-SCT
GB,GB-FAL,Falkirk,,"council area",GB-SCT
GB,GB-FIF,Fife,,"council area",GB-SCT
GB,GB-GLG,"Glasgow City",,"council area",GB-SCT
GB,GB-HLD,Highland,,"council area",GB-SCT
GB,GB-IVC,Inverclyde,,"council area",GB-SCT
GB,GB-MLN,Midlothian,,"council area",GB-SCT
GB,GB-MRY,Moray,,"council area",GB-SCT
GB,GB-NAY,"North Ayrshire",,"council area",GB-SCT
GB,GB-NLK,"North Lanarkshire",,"council area",GB-SCT
GB,GB-ORK,"Orkney Islands",,"council area",GB-SCT
GB,GB-PKN,"Perth and Kinross",,"council area",GB-SCT
GB,GB-RFW,Renfrewshire,,"council area",GB-SCT
GB,GB-SCB,"Scottish Borders",,"council area",GB-SCT
GB,GB-ZET,"Shetland Islands",,"council area",GB-SCT
GB,GB-SAY,"South Ayrshire",,"council area",GB-SCT
GB,GB-SLK,"South Lanarkshire",,"council area",GB-SCT
GB,GB-STG,Stirling,,"council area",GB-SCT
GB,GB-WDU,"West Dunbartonshire",,"council area",GB-SCT
GB,GB-WLN,"West Lothian",,"council area",GB-SCT
GB,GB-BGW,"Blaenau Gwent",,"unitary authority",GB-WLS
GB,GB-BGE,Bridgend,,"unitary authority",GB-WLS
GB,GB-CAY,Caerphilly,,"unitary authority",GB-WLS
GB,GB-CRF,Cardiff,,"unitary authority",GB-WLS
GB,GB-CMN,Carmarthenshire,,"unitary authority",GB-WLS
GB,GB-CGN,Ceredigion,,"unitary authority",GB-WLS
GB,GB-CWY,Conwy,,"unitary authority",GB-WLS
GB,GB-DEN,Denbighshire,,"unitary authority",GB-WLS
GB,GB-FLN,Flintshire,,"unitary authority",GB-WLS
GB,GB-GWN,Gwynedd,,"unitary authority",GB-WLS
GB,GB-AGY,"Isle of Anglesey",,"unitary authority",GB-WLS
GB,GB-MTY,"Merthyr Tydfil",,"unitary authority",GB-WLS
GB,GB-MON,Monmouthshire,,"unitary authority",GB-WLS
GB,GB-NTL,"Neath Port Talbot",,"unitary authority",GB-WLS
GB,GB-NWP,Newport,,"unitary authority",GB-WLS
GB,GB-PEM,Pembrokeshire,,"unitary authority",GB-WLS
GB,GB-POW,Powys,,"unitary authority",GB-WLS
GB,GB-RCT,"Rhondda Cynon Taff",,"unitary authority",GB-WLS
GB,GB-SWA,Swansea,,"unitary authority",GB-WLS
GB,GB-TOF,Torfaen,,"unitary authority",GB-WLS
GB,GB-VGL,"Vale of Glamorgan, The",,"unitary authority",GB-WLS
GB,GB-WRX,Wrexham,,"unitary authority",GB-WLS
GD,GD-01,"Saint Andrew",,parish,
GD,GD-02,"Saint David",,parish,
GD,GD-03,"Saint George",,parish,
GD,GD-04,"Saint John",,parish,
GD,GD-05,"Saint Mark",,parish,
GD,GD-06,"Saint Patrick",,parish,
GD,GD-10,"Southern Grenadine Islands",,dependency,
GE,GE-AB,Abkhazia,,"autonomous republic",
GE,GE-AJ,Adjara,,"autonomous republic",
GE,GE-GU,Guria,,region,
GE,GE-IM,Imereti,,region,
GE,GE-KA,K'akheti,,region,
GE,GE-KK,"Kvemo Kartli",,region,
GE,GE-MM,Mtskheta-Mtianeti,,region,
GE,GE-RL,"Rach'a-Lechkhumi-Kvemo Svaneti",,region,
GE,GE-SZ,"Samegrelo-Zemo Svaneti",,region,
GE,GE-SJ,Samtskhe-Javakheti,,region,
GE,GE-SK,"Shida Kartli",,region,
GE,GE-TB,Tbilisi,,city,
GH,GH-AF,Ahafo,,region,
GH,GH-AH,Ashanti,,region,
GH,GH-BO,Bono,,region,
GH,GH-BE,"Bono East",,region,
GH,GH-CP,Central,,region,
GH,GH-EP,Eastern,,region,
GH,GH-AA,"Greater Accra",,region,
GH,GH-NE,"North East",,region,
GH,GH-NP,Northern,,region,
GH,GH-OT,Oti,,region,
GH,GH-SV,Savannah,,region,
GH,GH-UE,"Upper East",,region,
GH,GH-UW,"Upper West",,region,
GH,GH-TV,Volta,,region,
GH,GH-WP,Western,,region,
GH,GH-WN,"Western North",,region,
GL,GL-AV,"Avannaata Kommunia",Avannaata,municipality,
GL,GL-KU,"Kommune Kujalleq",Kujalleq,municipality,
GL,GL-QT,"Kommune Qeqertalik",Qeqertalik,municipality,
GL,GL-SM,"Kommuneqarfik Sermersooq",Sermersooq,municipality,
GL,GL-QE,"Qeqqata Kommunia",Qeqqata,municipality,
GM,GM-B,Banjul,,city,
GM,GM-M,"Central River",,division,
GM,GM-L,"Lower River",,division,
GM,GM-N,"North Bank",,division,
GM,GM-U,"Upper River",,division,
GM,GM-W,Western,,division,
GN,GN-B,Boké,,"administrative region",
GN,GN-F,Faranah,,"administrative region",
GN,GN-K,Kankan,,"administrative region",
GN,GN-D,Kindia,,"administrative region",
GN,GN-L,Labé,,"administrative region",
GN,GN-M,Mamou,,"administrative region",
GN,GN-N,Nzérékoré,,"administrative region",
GN,GN-C,Conakry,,governorate,
GN,GN-BE,Beyla,,prefecture,GN-N
GN,GN-BF,Boffa,,prefecture,GN-B
GN,GN-BK,Boké,,prefecture,GN-B
GN,GN-CO,Coyah,,prefecture,GN-D
GN,GN-DB,Dabola,,prefecture,GN-F
GN,GN-DL,Dalaba,,prefecture,GN-M
GN,GN-DI,Dinguiraye,,prefecture,GN-F
GN,GN-DU,Dubréka,,prefecture,GN-D
GN,GN-FA,Faranah,,prefecture,GN-F
GN,GN-FO,Forécariah,,prefecture,GN-D
GN,GN-FR,Fria,,prefecture,GN-B
GN,GN-GA,Gaoual,,prefecture,GN-B
GN,GN-GU,Guékédou,,prefecture,GN-N
GN,GN-KA,Kankan,,prefecture,GN-K
GN,GN-KE,Kérouané,,prefecture,GN-K
GN,GN-KD,Kindia,,prefecture,GN-D
GN,GN-KS,Kissidougou,,prefecture,GN-F
GN,GN-KB,Koubia,,prefecture,GN-L
GN,GN-KN,Koundara,,prefecture,GN-B
GN,GN-KO,Kouroussa,,prefecture,GN-K
GN,GN-LA,Labé,,prefecture,GN-L
GN,GN-LE,Lélouma,,prefecture,GN-L
GN,GN-LO,Lola,,prefecture,GN-N
GN,GN-MC,Macenta,,prefecture,GN-N
GN,GN-ML,Mali,,prefecture,GN-L
GN,GN-MM,Mamou,,prefecture,GN-M
GN,GN-MD,Mandiana,,prefecture,GN-K
GN,GN-NZ,Nzérékoré,,prefecture,GN-N
GN,GN-PI,Pita,,prefecture,GN-M
GN,GN-SI,Siguiri,,prefecture,GN-K
GN,GN-TE,Télimélé,,prefecture,GN-D
GN,GN-TO,Tougué,,prefecture,GN-L
GN,GN-YO,Yomou,,prefecture,GN-N
GQ,GQ-C,"Región Continental",Continental,region,
GQ,GQ-I,"Región Insular",Insular,region,
GQ,GQ-AN,Annobón,Annobon,province,GQ-I
GQ,GQ-BN,"Bioko Norte","North Bioko",province,GQ-I
GQ,GQ-BS,"Bioko Sur","South Bioko",province,GQ-I
GQ,GQ-CS,"Centro Sur","South Center",province,GQ-C
GQ,GQ-DJ,Djibloho,Djibloho,province,GQ-C
GQ,GQ-KN,Kié-Ntem,Kie-Ntem,province,GQ-C
GQ,GQ-LI,Litoral,Coast,province,GQ-C
GQ,GQ-WN,Wele-Nzas,Wele-Nzas,province,GQ-C
GR,GR-69,"Ágion Óros","Mount Athos","self-governed part",
GR,GR-A,"Anatolikí Makedonía kai Thráki","Eastern Macedonia and Thrace","administrative region",
GR,GR-I,Attikí,Attica,"administrative region",
GR,GR-G,"Dytikí Elláda","Western Greece","administrative region",
GR,GR-C,"Dytikí Makedonía","Western Macedonia","administrative region",
GR,GR-F,"Ionía Nísia","Ionian Islands","administrative region",
GR,GR-D,Ípeiros,Epirus,"administrative region",
GR,GR-B,"Kentrikí Makedonía","Central Macedonia","administrative region",
GR,GR-M,Kríti,Crete,"administrative region",
GR,GR-L,"Nótio Aigaío","Southern Aegean","administrative region",
GR,GR-J,Pelopónnisos,Peloponnese,"administrative region",
GR,GR-H,"Stereá Elláda","Central Greece","administrative region",
GR,GR-E,Thessalía,Thessaly,"administrative region",
GR,GR-K,"Vóreio Aigaío","Northern Aegean","administrative region",
GT,GT-16,"Alta Verapaz","Upper Verapaz",department,
GT,GT-15,"Baja Verapaz","Lower Verapaz",department,
GT,GT-04,Chimaltenango,Chimaltenango,department,
GT,GT-20,Chiquimula,Chiquimula,department,
GT,GT-02,"El Progreso","El Progreso",department,
GT,GT-05,Escuintla,Escuintla,department,
GT,GT-01,Guatemala,Guatemala,department,
GT,GT-13,Huehuetenango,Huehuetenango,department,
GT,GT-18,Izabal,Izabal,department,
GT,GT-21,Jalapa,Jalapa,department,
GT,GT-22,Jutiapa,Jutiapa,department,
GT,GT-17,Petén,Petén,department,
GT,GT-09,Quetzaltenango,Quetzaltenango,department,
GT,GT-14,Quiché,Quiché,department,
GT,GT-11,Retalhuleu,Retalhuleu,department,
GT,GT-03,Sacatepéquez,Sacatepéquez,department,
GT,GT-12,"San Marcos","Saint Mark",department,
GT,GT-06,"Santa Rosa","Saint Rose",department,
GT,GT-07,Sololá,Sololá,department,
GT,GT-10,Suchitepéquez,Suchitepéquez,department,
GT,GT-08,Totonicapán,Totonicapán,department,
GT,GT-19,Zacapa,Zacapa,department,
GW,GW-L,Leste,East,province,
GW,GW-N,Norte,North,province,
GW,GW-S,Sul,South,province,
GW,GW-BA,Bafatá,,region,GW-L
GW,GW-BM,Biombo,,region,GW-N
GW,GW-BS,Bissau,,"autonomous sector",
GW,GW-BL,"Bolama / Bijagós",,region,GW-S
GW,GW-CA,Cacheu,,region,GW-N
GW,GW-GA,Gabú,,region,GW-L
GW,GW-OI,Oio,,region,GW-N
GW,GW-QU,Quinara,,region,GW-S
GW,GW-TO,Tombali,,region,GW-S
GY,GY-BA,Barima-Waini,,region,
GY,GY-CU,Cuyuni-Mazaruni,,region,
GY,GY-DE,Demerara-Mahaica,,region,
GY,GY-EB,"East Berbice-Corentyne",,region,
GY,GY-ES,"Essequibo Islands-West Demerara",,region,
GY,GY-MA,Mahaica-Berbice,,region,
GY,GY-PM,Pomeroon-Supenaam,,region,
GY,GY-PT,Potaro-Siparuni,,region,
GY,GY-UD,"Upper Demerara-Berbice",,region,
GY,GY-UT,"Upper Takutu-Upper Essequibo",,region,
HN,HN-AT,Atlántida,,department,
HN,HN-CH,Choluteca,,department,
HN,HN-CL,Colón,,department,
HN,HN-CM,Comayagua,,department,
HN,HN-CP,Copán,,department,
HN,HN-CR,Cortés,,department,
HN,HN-EP,"El Paraíso",,department,
HN,HN-FM,"Francisco Morazán",,department,
HN,HN-GD,"Gracias a Dios",,department,
HN,HN-IN,Intibucá,,department,
HN,HN-IB,"Islas de la Bahía",,department,
HN,HN-LP,"La Paz",,department,
HN,HN-LE,Lempira,,department,
HN,HN-OC,Ocotepeque,,department,
HN,HN-OL,Olancho,,department,
HN,HN-SB,"Santa Bárbara",,department,
HN,HN-VA,Valle,,department,
HN,HN-YO,Yoro,,department,
HR,HR-07,"Bjelovarsko-bilogorska županija",Bjelovar-Bilogora,county,
HR,HR-12,"Brodsko-posavska županija",Brod-Posavina,county,
HR,HR-19,"Dubrovačko-neretvanska županija",Dubrovnik-Neretva,county,
HR,HR-21,"Grad Zagreb","Zagreb City",city,
HR,HR-18,"Istarska županija",Istria,county,
HR,HR-04,"Karlovačka županija",Karlovac,county,
HR,HR-06,"Koprivničko-križevačka županija",Koprivnica-Križevci,county,
HR,HR-02,"Krapinsko-zagorska županija",Krapina-Zagorje,county,
HR,HR-09,"Ličko-senjska županija",Lika-Senj,county,
HR,HR-20,"Međimurska županija",Međimurje,county,
HR,HR-14,"Osječko-baranjska županija",Osijek-Baranja,county,
HR,HR-11,"Požeško-slavonska županija",Požega-Slavonia,county,
HR,HR-08,"Primorsko-goranska županija","Primorje-Gorski Kotar",county,
HR,HR-03,"Sisačko-moslavačka županija",Sisak-Moslavina,county,
HR,HR-17,"Splitsko-dalmatinska županija",Split-Dalmatia,county,
HR,HR-15,"Šibensko-kninska županija",Šibenik-Knin,county,
HR,HR-05,"Varaždinska županija",Varaždin,county,
HR,HR-10,"Virovitičko-podravska županija",Virovitica-Podravina,county,
HR,HR-16,"Vukovarsko-srijemska županija",Vukovar-Srijem,county,
HR,HR-13,"Zadarska županija",Zadar,county,
HR,HR-01,"Zagrebačka županija","Zagreb County",county,
HT,HT-AR,Artibonite,Artibonite,department,
HT,HT-CE,Centre,Center,department,
HT,HT-GA,Grande’Anse,"Big Cove",department,
HT,HT-NI,Nippes,Nippes,department,
HT,HT-ND,Nord,North,department,
HT,HT-NE,Nord-Est,Northeast,department,
HT,HT-NO,Nord-Ouest,Northwest,department,
HT,HT-OU,Ouest,West,department,
HT,HT-SD,Sud,South,department,
HT,HT-SE,Sud-Est,Southeast,department,
HU,HU-BK,Bács-Kiskun,,county,
HU,HU-BA,Baranya,,county,
HU,HU-BE,Békés,,county,
HU,HU-BC,Békéscsaba,,"city with county rights",
HU,HU-BZ,Borsod-Abaúj-Zemplén,,county,
HU,HU-BU,Budapest,,"capital city",
HU,HU-CS,Csongrád-Csanád,,county,
HU,HU-DE,Debrecen,,"city with county rights",
HU,HU-DU,Dunaújváros,,"city with county rights",
HU,HU-EG,Eger,,"city with county rights",
HU,HU-ER,Érd,,"city with county rights",
HU,HU-FE,Fejér,,county,
HU,HU-GY,Győr,,"city with county rights",
HU,HU-GS,Győr-Moson-Sopron,,county,
HU,HU-HB,Hajdú-Bihar,,county,
HU,HU-HE,Heves,,county,
HU,HU-HV,Hódmezővásárhely,,"city with county rights",
HU,HU-JN,Jász-Nagykun-Szolnok,,county,
HU,HU-KV,Kaposvár,,"city with county rights",
HU,HU-KM,Kecskemét,,"city with county rights",
HU,HU-KE,Komárom-Esztergom,,county,
HU,HU-MI,Miskolc,,"city with county rights",
HU,HU-NK,Nagykanizsa,,"city with county rights",
HU,HU-NO,Nógrád,,county,
HU,HU-NY,Nyíregyháza,,"city with county rights",
HU,HU-PS,Pécs,,"city with county rights",
HU,HU-PE,Pest,,county,
HU,HU-ST,Salgótarján,,"city with county rights",
HU,HU-SO,Somogy,,county,
HU,HU-SN,Sopron,,"city with county rights",
HU,HU-SZ,Szabolcs-Szatmár-Bereg,,county,
HU,HU-SD,Szeged,,"city with county rights",
HU,HU-SF,Székesfehérvár,,"city with county rights",
HU,HU-SS,Szekszárd,,"city with county rights",
HU,HU-SK,Szolnok,,"city with county rights",
HU,HU-SH,Szombathely,,"city with county rights",
HU,HU-TB,Tatabánya,,"city with county rights",
HU,HU-TO,Tolna,,county,
HU,HU-VA,Vas,,county,
HU,HU-VM,Veszprém,,"city with county rights",
HU,HU-VE,Veszprém,,county,
HU,HU-ZA,Zala,,county,
HU,HU-ZE,Zalaegerszeg,,"city with county rights",
ID,ID-JW,Jawa,Java,"geographical unit",
ID,ID-KA,Kalimantan,Kalimantan,"geographical unit",
ID,ID-ML,Maluku,Moluccas,"geographical unit",
ID,ID-NU,"Nusa Tenggara","Lesser Sunda Islands","geographical unit",
ID,ID-PP,Papua,"Western New Guinea","geographical unit",
ID,ID-SL,Sulawesi,Sulawesi,"geographical unit",
ID,ID-SM,Sumatera,Sumatra,"geographical unit",
ID,ID-AC,Aceh,Aceh,province,ID-SM
ID,ID-BA,Bali,Bali,province,ID-NU
ID,ID-BT,Banten,Banten,province,ID-JW
ID,ID-BE,Bengkulu,Bengkulu,province,ID-SM
ID,ID-GO,Gorontalo,Gorontalo,province,ID-SL
ID,ID-JK,"Jakarta Raya",Jakarta,"capital district",ID-JW
ID,ID-JA,Jambi,Jambi,province,ID-SM
ID,ID-JB,"Jawa Barat","West Java",province,ID-JW
ID,ID-JT,"Jawa Tengah","Central Java",province,ID-JW
ID,ID-JI,"Jawa Timur","East Java",province,ID-JW
ID,ID-KB,"Kalimantan Barat","West Kalimantan",province,ID-KA
ID,ID-KS,"Kalimantan Selatan","South Kalimantan",province,ID-KA
ID,ID-KT,"Kalimantan Tengah","Central Kalimantan",province,ID-KA
ID,ID-KI,"Kalimantan Timur","East Kalimantan",province,ID-KA
ID,ID-KU,"Kalimantan Utara","North Kalimantan",province,ID-KA
ID,ID-BB,"Kepulauan Bangka Belitung","Bangka Belitung Islands",province,ID-SM
ID,ID-KR,"Kepulauan Riau","Riau Islands",province,ID-SM
ID,ID-LA,Lampung,Lampung,province,ID-SM
ID,ID-MA,Maluku,Maluku,province,ID-ML
ID,ID-MU,"Maluku Utara","North Maluku",province,ID-ML
ID,ID-NB,"Nusa Tenggara Barat","West Nusa Tenggara",province,ID-NU
ID,ID-NT,"Nusa Tenggara Timur","East Nusa Tenggara",province,ID-NU
ID,ID-PA,Papua,Papua,province,ID-PP
ID,ID-PB,"Papua Barat","West Papua",province,ID-PP
ID,ID-PD,"Papua Barat Daya","Southwest Papua",province,ID-PP
ID,ID-PE,"Papua Pengunungan","Highland Papua",province,ID-PP
ID,ID-PS,"Papua Selatan","South Papua",province,ID-PP
ID,ID-PT,"Papua Tengah","Central Papua",province,ID-PP
ID,ID-RI,Riau,Riau,province,ID-SM
ID,ID-SR,"Sulawesi Barat","West Sulawesi",province,ID-SL
ID,ID-SN,"Sulawesi Selatan","South Sulawesi",province,ID-SL
ID,ID-ST,"Sulawesi Tengah","Central Sulawesi",province,ID-SL
ID,ID-SG,"Sulawesi Tenggara","Southeast Sulawesi",province,ID-SL
ID,ID-SA,"Sulawesi Utara","North Sulawesi",province,ID-SL
ID,ID-SB,"Sumatera Barat","West Sumatra",province,ID-SM
ID,ID-SS,"Sumatera Selatan","South Sumatra",province,ID-SM
ID,ID-SU,"Sumatera Utara","North Sumatra",province,ID-SM
ID,ID-YO,Yogyakarta,Yogyakarta,"special region",ID-JW
IE,IE-C,Connaught,,province,
IE,IE-L,Leinster,,province,
IE,IE-M,Munster,,province,
IE,IE-U,Ulster,,province,
IE,IE-CW,Carlow,,county,IE-L
IE,IE-CN,Cavan,,county,IE-U
IE,IE-CE,Clare,,county,IE-M
IE,IE-CO,Cork,,county,IE-M
IE,IE-DL,Donegal,,county,IE-U
IE,IE-D,Dublin,,county,IE-L
IE,IE-G,Galway,,county,IE-C
IE,IE-KY,Kerry,,county,IE-M
IE,IE-KE,Kildare,,county,IE-L
IE,IE-KK,Kilkenny,,county,IE-L
IE,IE-LS,Laois,,county,IE-L
IE,IE-LM,Leitrim,,county,IE-C
IE,IE-LK,Limerick,,county,IE-M
IE,IE-LD,Longford,,county,IE-L
IE,IE-LH,Louth,,county,IE-L
IE,IE-MO,Mayo,,county,IE-C
IE,IE-MH,Meath,,county,IE-L
IE,IE-MN,Monaghan,,county,IE-U
IE,IE-OY,Offaly,,county,IE-L
IE,IE-RN,Roscommon,,county,IE-C
IE,IE-SO,Sligo,,county,IE-C
IE,IE-TA,Tipperary,,county,IE-M
IE,IE-WD,Waterford,,county,IE-M
IE,IE-WH,Westmeath,,county,IE-L
IE,IE-WX,Wexford,,county,IE-L
IE,IE-WW,Wicklow,,county,IE-L
IL,IL-D,HaDarom,,district,
IL,IL-M,HaMerkaz,,district,
IL,IL-Z,HaTsafon,,district,
IL,IL-HA,H̱efa,,district,
IL,IL-TA,"Tel Aviv",,district,
IL,IL-JM,Yerushalayim,,district,
IN,IN-AN,"Andaman and Nicobar Islands",,"union territory",
IN,IN-AP,"Andhra Pradesh",,state,
IN,IN-AR,"Arunāchal Pradesh",,state,
IN,IN-AS,Assam,,state,
IN,IN-BR,Bihār,,state,
IN,IN-CH,Chandigarh,,"union territory",
IN,IN-CG,Chhattīsgarh,,state,
IN,IN-DH,"Dādra and Nagar Haveli and Damān and Diu",,"union territory",
IN,IN-DL,Delhi,,"union territory",
IN,IN-GA,Goa,,state,
IN,IN-GJ,Gujarāt,,state,
IN,IN-HR,Haryāna,,state,
IN,IN-HP,"Himāchal Pradesh",,state,
IN,IN-JK,"Jammu and Kashmīr",,"union territory",
IN,IN-JH,Jhārkhand,,state,
IN,IN-KA,Karnātaka,,state,
IN,IN-KL,Kerala,,state,
IN,IN-LA,Ladākh,,"union territory",
IN,IN-LD,Lakshadweep,,"union territory",
IN,IN-MP,"Madhya Pradesh",,state,
IN,IN-MH,Mahārāshtra,,state,
IN,IN-MN,Manipur,,state,
IN,IN-ML,Meghālaya,,state,
IN,IN-MZ,Mizoram,,state,
IN,IN-NL,Nāgāland,,state,
IN,IN-OD,Odisha,,state,
IN,IN-PY,Puducherry,,"union territory",
IN,IN-PB,Punjab,,state,
IN,IN-RJ,Rājasthān,,state,
IN,IN-SK,Sikkim,,state,
IN,IN-TN,"Tamil Nādu",,state,
IN,IN-TS,Telangāna,,state,
IN,IN-TR,Tripura,,state,
IN,IN-UP,"Uttar Pradesh",,state,
IN,IN-UK,Uttarākhand,,state,
IN,IN-WB,"West Bengal",,state,
IQ,IQ-AN,"Al Anbār",Anbar,governorate,
IQ,IQ-BA,"Al Başrah",Basra,governorate,
IQ,IQ-MU,"Al Muthanná",Muthanna,governorate,
IQ,IQ-QA,"Al Qādisīyah",Qadisiya,governorate,
IQ,IQ-NA,"An Najaf",Najaf,governorate,
IQ,IQ-AR,Arbīl,Erbil,governorate,IQ-KR
IQ,IQ-SU,"As Sulaymānīyah",Sulaymaniya,governorate,IQ-KR
IQ,IQ-BB,Bābil,Babylon,governorate,
IQ,IQ-BG,Baghdād,Baghdad,governorate,
IQ,IQ-DA,Dahūk,Duhok,governorate,IQ-KR
IQ,IQ-DQ,"Dhī Qār","Dhi Qar",governorate,
IQ,IQ-DI,Diyālá,Diyala,governorate,
IQ,IQ-KR,"Iqlīm Kūrdistān",Kurdistan,region,
IQ,IQ-KA,Karbalā’,Karbala,governorate,
IQ,IQ-KI,Kirkūk,Kirkuk,governorate,
IQ,IQ-MA,Maysān,Maysan,governorate,
IQ,IQ-NI,Nīnawá,Nineveh,governorate,
IQ,IQ-SD,"Şalāḩ ad Dīn",Saladin,governorate,
IQ,IQ-WA,Wāsiţ,Wasit,governorate,
IR,IR-30,Alborz,Alborz,province,
IR,IR-24,Ardabīl,Ardabil,province,
IR,IR-04,"Āz̄ārbāyjān-e Ghārbī","West Azerbaijan",province,
IR,IR-03,"Āz̄ārbāyjān-e Shārqī","East Azerbaijan",province,
IR,IR-18,Būshehr,Bushehr,province,
IR,IR-14,"Chahār Maḩāl va Bakhtīārī","Chaharmahal and Bakhtiari",province,
IR,IR-10,Eşfahān,Isfahan,province,
IR,IR-07,Fārs,Fars,province,
IR,IR-01,Gīlān,Gilan,province,
IR,IR-27,Golestān,Golestan,province,
IR,IR-13,Hamadān,Hamadan,province,
IR,IR-22,Hormozgān,Hormozgan,province,
IR,IR-16,Īlām,Ilam,province,
IR,IR-08,Kermān,Kerman,province,
IR,IR-05,Kermānshāh,Kermanshah,province,
IR,IR-29,"Khorāsān-e Jonūbī","South Khorasan",province,
IR,IR-09,"Khorāsān-e Raẕavī","Central Khorasan",province,
IR,IR-28,"Khorāsān-e Shomālī","North Khorasan",province,
IR,IR-06,Khūzestān,Khuzestan,province,
IR,IR-17,"Kohgīlūyeh va Bowyer Aḩmad","Kohgiluyeh and Boyer-Ahmad",province,
IR,IR-12,Kordestān,Kurdistan,province,
IR,IR-15,Lorestān,Lorestan,province,
IR,IR-00,Markazī,Markazi,province,
IR,IR-02,Māzandarān,Mazandaran,province,
IR,IR-26,Qazvīn,Qazvin,province,
IR,IR-25,Qom,Qom,province,
IR,IR-20,Semnān,Semnan,province,
IR,IR-11,"Sīstān va Balūchestān","Sistan and Baluchestan",province,
IR,IR-23,Tehrān,Tehran,province,
IR,IR-21,Yazd,Yazd,province,
IR,IR-19,Zanjān,Zanjan,province,
IS,IS-7,Austurland,"Eastern Region",region,
IS,IS-1,Höfuðborgarsvæði,"Capital Region",region,
IS,IS-6,"Norðurland eystra","Northeastern Region",region,
IS,IS-5,"Norðurland vestra","Northwestern Region",region,
IS,IS-8,Suðurland,"Southern Region",region,
IS,IS-2,Suðurnes,"Southern Peninsula",region,
IS,IS-4,Vestfirðir,Westfjords,region,
IS,IS-3,Vesturland,"Western Region",region,
IS,IS-AKN,Akraneskaupstaður,"Akranes (Market) Town",municipality,IS-3
IS,IS-AKU,Akureyrarbær,"Akureyri Town",municipality,IS-6
IS,IS-ARN,Árneshreppur,"Arnes District",municipality,IS-4
IS,IS-ASA,Ásahreppur,"Asa District",municipality,IS-8
IS,IS-BLA,Bláskógabyggð,"Blaskoga Settlement",municipality,IS-8
IS,IS-BOL,Bolungarvíkurkaupstaður,"Bolungarvik (Market) Town",municipality,IS-4
IS,IS-BOG,Borgarbyggð,"Borgar Settlement",municipality,IS-3
IS,IS-DAB,Dalabyggð,"Dala Settlement",municipality,IS-3
IS,IS-DAV,Dalvíkurbyggð,"Dalvik Settlement",municipality,IS-6
IS,IS-EOM,"Eyja- og Miklaholtshreppur","Eyja and Miklaholt District",municipality,IS-3
IS,IS-EYF,Eyjafjarðarsveit,"Eyjafjordur Village",municipality,IS-6
IS,IS-FJL,Fjallabyggð,"Fjalla Settlement",municipality,IS-6
IS,IS-FJD,Fjarðabyggð,"Fjarda Settlement",municipality,IS-7
IS,IS-FLR,Fljótsdalshreppur,"Fljotsdalur District",municipality,IS-7
IS,IS-FLA,Flóahreppur,"Floa District",municipality,IS-8
IS,IS-GAR,Garðabær,"Garda Town",municipality,IS-1
IS,IS-GOG,"Grímsnes- og Grafningshreppur","Grimsnes and Grafnings District",municipality,IS-8
IS,IS-GRN,Grindavíkurbær,"Grindavik Town",municipality,IS-2
IS,IS-GRU,Grundarfjarðarbær,"Grundarfjordur Town",municipality,IS-3
IS,IS-GRY,Grýtubakkahreppur,"Grytubakka District",municipality,IS-6
IS,IS-HAF,Hafnarfjarðarkaupstaður,"Hafnarfjordur (Market) Town",municipality,IS-1
IS,IS-HRG,Hörgársveit,"Horgar Village",municipality,IS-6
IS,IS-HRU,Hrunamannahreppur,"Hrunamanna District",municipality,IS-8
IS,IS-HUG,Húnabyggð,"Huna Settlement",municipality,IS-5
IS,IS-HUV,"Húnaþing vestra","Western Hunathing",municipality,IS-5
IS,IS-HVA,Hvalfjarðarsveit,"Hvalfjordur Village",municipality,IS-3
IS,IS-HVE,Hveragerðisbær,"Hveragerdi Town",municipality,IS-8
IS,IS-ISA,Ísafjarðarbær,"Isafjordur Town",municipality,IS-4
IS,IS-KAL,Kaldrananeshreppur,"Kaldrananes District",municipality,IS-4
IS,IS-KJO,Kjósarhreppur,"Kjosar District",municipality,IS-1
IS,IS-KOP,Kópavogsbær,"Kopavogur Town",municipality,IS-1
IS,IS-LAN,Langanesbyggð,"Langanes Settlement",municipality,IS-6
IS,IS-MOS,Mosfellsbær,"Mosfell Town",municipality,IS-1
IS,IS-MUL,Múlaþing,Mulathing,municipality,IS-7
IS,IS-MYR,Mýrdalshreppur,"Myrdalur District",municipality,IS-8
IS,IS-NOR,Norðurþing,Nordurthing,municipality,IS-6
IS,IS-RGE,"Rangárþing eystra","Eastern Rangarthing",municipality,IS-8
IS,IS-RGY,"Rangárþing ytra","Outer Rangarthing",municipality,IS-8
IS,IS-RHH,Reykhólahreppur,"Reykhola District",municipality,IS-4
IS,IS-RKN,Reykjanesbær,"Reykjanes Town",municipality,IS-2
IS,IS-RKV,Reykjavíkurborg,"Reykjavik City",municipality,IS-1
IS,IS-SEL,Seltjarnarnesbær,"Seltjarnarnes Town",municipality,IS-1
IS,IS-SKF,Skaftárhreppur,"Skaftar District",municipality,IS-8
IS,IS-SKG,Skagabyggð,"Skaga Settlement",municipality,IS-5
IS,IS-SKR,Skagafjörður,Skagafjordur,municipality,IS-5
IS,IS-SOG,"Skeiða- og Gnúpverjahreppur","Skeida and Gnupverja District",municipality,IS-8
IS,IS-SKO,Skorradalshreppur,"Skorradalur District",municipality,IS-3
IS,IS-SNF,Snæfellsbær,"Snaefell Town",municipality,IS-3
IS,IS-STR,Strandabyggð,"Stranda Settlement",municipality,IS-4
IS,IS-STY,Stykkishólmsbær,"Stykkisholmur Town",municipality,IS-3
IS,IS-SDV,Súðavíkurhreppur,"Sudavik District",municipality,IS-4
IS,IS-SDN,Suðurnesjabær,"Sudurnesja Town",municipality,IS-2
IS,IS-SBT,Svalbarðsstrandarhreppur,"Svalbardsstrond District",municipality,IS-6
IS,IS-SFA,"Sveitarfélagið Árborg","Arborg Township",municipality,IS-8
IS,IS-SHF,"Sveitarfélagið Hornafjörður","Hornafjordur Township",municipality,IS-7
IS,IS-SOL,"Sveitarfélagið Ölfus","Olfus Township",municipality,IS-8
IS,IS-SSS,"Sveitarfélagið Skagaströnd","Skagastrond Township",municipality,IS-5
IS,IS-SVG,"Sveitarfélagið Vogar","Vogar Township",municipality,IS-2
IS,IS-TAL,Tálknafjarðarhreppur,"Talknafjordur District",municipality,IS-4
IS,IS-TJO,Tjörneshreppur,"Tjornes District",municipality,IS-6
IS,IS-VEM,Vestmannaeyjabær,"Vestmannaeyja Town",municipality,IS-8
IS,IS-VER,Vesturbyggð,"Western Settlement",municipality,IS-4
IS,IS-VOP,Vopnafjarðarhreppur,"Vopnafjordur District",municipality,IS-7
IS,IS-THG,Þingeyjarsveit,"Thingeyjar Village",municipality,IS-6
IT,IT-65,Abruzzo,Abruzzo,region,
IT,IT-77,Basilicata,Basilicata,region,
IT,IT-78,Calabria,Calabria,region,
IT,IT-72,Campania,Campania,region,
IT,IT-45,Emilia-Romagna,Emilia-Romagna,region,
IT,IT-36,"Friuli Venezia Giulia","Friuli Venezia Giulia","autonomous region",
IT,IT-62,Lazio,Lazio,region,
IT,IT-42,Liguria,Liguria,region,
IT,IT-25,Lombardia,Lombardy,region,
IT,IT-57,Marche,Marche,region,
IT,IT-67,Molise,Molise,region,
IT,IT-21,Piemonte,Piedmont,region,
IT,IT-75,Puglia,Apulia,region,
IT,IT-88,Sardegna,Sardinia,"autonomous region",
IT,IT-82,Sicilia,Sicily,"autonomous region",
IT,IT-52,Toscana,Tuscany,region,
IT,IT-32,"Trentino-Alto Adige","Trentino-South Tyrol","autonomous region",
IT,IT-55,Umbria,Umbria,region,
IT,IT-23,"Valle d'Aosta","Aosta Valley","autonomous region",
IT,IT-34,Veneto,Veneto,region,
IT,IT-AG,Agrigento,,"free municipal consortium",IT-82
IT,IT-AL,Alessandria,,province,IT-21
IT,IT-AN,Ancona,,province,IT-57
IT,IT-AR,Arezzo,,province,IT-52
IT,IT-AP,"Ascoli Piceno",,province,IT-57
IT,IT-AT,Asti,,province,IT-21
IT,IT-AV,Avellino,,province,IT-72
IT,IT-BA,Bari,,"metropolitan city",IT-75
IT,IT-BT,Barletta-Andria-Trani,,province,IT-75
IT,IT-BL,Belluno,,province,IT-34
IT,IT-BN,Benevento,,province,IT-72
IT,IT-BG,Bergamo,,province,IT-25
IT,IT-BI,Biella,,province,IT-21
IT,IT-BO,Bologna,,"metropolitan city",IT-45
IT,IT-BZ,Bolzano,,"autonomous province",IT-32
IT,IT-BS,Brescia,,province,IT-25
IT,IT-BR,Brindisi,,province,IT-75
IT,IT-CA,Cagliari,,"metropolitan city",IT-88
IT,IT-CL,Caltanissetta,,"free municipal consortium",IT-82
IT,IT-CB,Campobasso,,province,IT-67
IT,IT-CE,Caserta,,province,IT-72
IT,IT-CT,Catania,,"metropolitan city",IT-82
IT,IT-CZ,Catanzaro,,province,IT-78
IT,IT-CH,Chieti,,province,IT-65
IT,IT-CO,Como,,province,IT-25
IT,IT-CS,Cosenza,,province,IT-78
IT,IT-CR,Cremona,,province,IT-25
IT,IT-KR,Crotone,,province,IT-78
IT,IT-CN,Cuneo,,province,IT-21
IT,IT-EN,Enna,,"free municipal consortium",IT-82
IT,IT-FM,Fermo,,province,IT-57
IT,IT-FE,Ferrara,,province,IT-45
IT,IT-FI,Firenze,,"metropolitan city",IT-52
IT,IT-FG,Foggia,,province,IT-75
IT,IT-FC,Forlì-Cesena,,province,IT-45
IT,IT-FR,Frosinone,,province,IT-62
IT,IT-GE,Genova,,"metropolitan city",IT-42
IT,IT-GO,Gorizia,,"decentralized regional entity",IT-36
IT,IT-GR,Grosseto,,province,IT-52
IT,IT-IM,Imperia,,province,IT-42
IT,IT-IS,Isernia,,province,IT-67
IT,IT-AQ,L'Aquila,,province,IT-65
IT,IT-SP,"La Spezia",,province,IT-42
IT,IT-LT,Latina,,province,IT-62
IT,IT-LE,Lecce,,province,IT-75
IT,IT-LC,Lecco,,province,IT-25
IT,IT-LI,Livorno,,province,IT-52
IT,IT-LO,Lodi,,province,IT-25
IT,IT-LU,Lucca,,province,IT-52
IT,IT-MC,Macerata,,province,IT-57
IT,IT-MN,Mantova,,province,IT-25
IT,IT-MS,Massa-Carrara,,province,IT-52
IT,IT-MT,Matera,,province,IT-77
IT,IT-ME,Messina,,"metropolitan city",IT-82
IT,IT-MI,Milano,,"metropolitan city",IT-25
IT,IT-MO,Modena,,province,IT-45
IT,IT-MB,"Monza e Brianza",,province,IT-25
IT,IT-NA,Napoli,,"metropolitan city",IT-72
IT,IT-NO,Novara,,province,IT-21
IT,IT-NU,Nuoro,,province,IT-88
IT,IT-OR,Oristano,,province,IT-88
IT,IT-PD,Padova,,province,IT-34
IT,IT-PA,Palermo,,"metropolitan city",IT-82
IT,IT-PR,Parma,,province,IT-45
IT,IT-PV,Pavia,,province,IT-25
IT,IT-PG,Perugia,,province,IT-55
IT,IT-PU,"Pesaro e Urbino",,province,IT-57
IT,IT-PE,Pescara,,province,IT-65
IT,IT-PC,Piacenza,,province,IT-45
IT,IT-PI,Pisa,,province,IT-52
IT,IT-PT,Pistoia,,province,IT-52
IT,IT-PN,Pordenone,,"decentralized regional entity",IT-36
IT,IT-PZ,Potenza,,province,IT-77
IT,IT-PO,Prato,,province,IT-52
IT,IT-RG,Ragusa,,"free municipal consortium",IT-82
IT,IT-RA,Ravenna,,province,IT-45
IT,IT-RC,"Reggio Calabria",,"metropolitan city",IT-78
IT,IT-RE,"Reggio Emilia",,province,IT-45
IT,IT-RI,Rieti,,province,IT-62
IT,IT-RN,Rimini,,province,IT-45
IT,IT-RM,Roma,,"metropolitan city",IT-62
IT,IT-RO,Rovigo,,province,IT-34
IT,IT-SA,Salerno,,province,IT-72
IT,IT-SS,Sassari,,province,IT-88
IT,IT-SV,Savona,,province,IT-42
IT,IT-SI,Siena,,province,IT-52
IT,IT-SR,Siracusa,,"free municipal consortium",IT-82
IT,IT-SO,Sondrio,,province,IT-25
IT,IT-SU,"Sud Sardegna",,province,IT-88
IT,IT-TA,Taranto,,province,IT-75
IT,IT-TE,Teramo,,province,IT-65
IT,IT-TR,Terni,,province,IT-55
IT,IT-TO,Torino,,"metropolitan city",IT-21
IT,IT-TP,Trapani,,"free municipal consortium",IT-82
IT,IT-TN,Trento,,"autonomous province",IT-32
IT,IT-TV,Treviso,,province,IT-34
IT,IT-TS,Trieste,,"decentralized regional entity",IT-36
IT,IT-UD,Udine,,"decentralized regional entity",IT-36
IT,IT-VA,Varese,,province,IT-25
IT,IT-VE,Venezia,,"metropolitan city",IT-34
IT,IT-VB,Verbano-Cusio-Ossola,,province,IT-21
IT,IT-VC,Vercelli,,province,IT-21
IT,IT-VR,Verona,,province,IT-34
IT,IT-VV,"Vibo Valentia",,province,IT-78
IT,IT-VI,Vicenza,,province,IT-34
IT,IT-VT,Viterbo,,province,IT-62
JM,JM-13,Clarendon,,parish,
JM,JM-09,Hanover,,parish,
JM,JM-01,Kingston,,parish,
JM,JM-12,Manchester,,parish,
JM,JM-04,Portland,,parish,
JM,JM-02,"Saint Andrew",,parish,
JM,JM-06,"Saint Ann",,parish,
JM,JM-14,"Saint Catherine",,parish,
JM,JM-11,"Saint Elizabeth",,parish,
JM,JM-08,"Saint James",,parish,
JM,JM-05,"Saint Mary",,parish,
JM,JM-03,"Saint Thomas",,parish,
JM,JM-07,Trelawny,,parish,
JM,JM-10,Westmoreland,,parish,
JO,JO-AJ,‘Ajlūn,Ajloun,governorate,
JO,JO-AQ,"Al ‘Aqabah",Aqaba,governorate,
JO,JO-AM,"Al ‘A̅şimah",Amman,governorate,
JO,JO-BA,"Al Balqā’",Balqa,governorate,
JO,JO-KA,"Al Karak",Karak,governorate,
JO,JO-MA,"Al Mafraq",Mafraq,governorate,
JO,JO-AT,"Aţ Ţafīlah",Tafilah,governorate,
JO,JO-AZ,"Az Zarqā’",Zarqa,governorate,
JO,JO-IR,Irbid,Irbid,governorate,
JO,JO-JA,Jarash,Jerash,governorate,
JO,JO-MN,Ma‘ān,Ma'an,governorate,
JO,JO-MD,Mādabā,Madaba,governorate,
JP,JP-23,Aiti,Aichi,prefecture,
JP,JP-05,Akita,,prefecture,
JP,JP-02,Aomori,,prefecture,
JP,JP-38,Ehime,,prefecture,
JP,JP-21,Gihu,Gifu,prefecture,
JP,JP-10,Gunma,,prefecture,
JP,JP-34,Hirosima,Hiroshima,prefecture,
JP,JP-01,Hokkaidô,Hokkaido,prefecture,
JP,JP-18,Hukui,Fukui,prefecture,
JP,JP-40,Hukuoka,Fukuoka,prefecture,
JP,JP-07,Hukusima,Fukushima,prefecture,
JP,JP-28,Hyôgo,Hyogo,prefecture,
JP,JP-08,Ibaraki,,prefecture,
JP,JP-17,Isikawa,Ishikawa,prefecture,
JP,JP-03,Iwate,,prefecture,
JP,JP-37,Kagawa,,prefecture,
JP,JP-46,Kagosima,Kagoshima,prefecture,
JP,JP-14,Kanagawa,,prefecture,
JP,JP-39,Kôti,Kochi,prefecture,
JP,JP-43,Kumamoto,,prefecture,
JP,JP-26,Kyôto,Kyoto,prefecture,
JP,JP-24,Mie,,prefecture,
JP,JP-04,Miyagi,,prefecture,
JP,JP-45,Miyazaki,,prefecture,
JP,JP-20,Nagano,,prefecture,
JP,JP-42,Nagasaki,,prefecture,
JP,JP-29,Nara,,prefecture,
JP,JP-15,Niigata,,prefecture,
JP,JP-44,Ôita,Oita,prefecture,
JP,JP-33,Okayama,,prefecture,
JP,JP-47,Okinawa,,prefecture,
JP,JP-27,Ôsaka,Osaka,prefecture,
JP,JP-41,Saga,,prefecture,
JP,JP-11,Saitama,,prefecture,
JP,JP-25,Siga,Shiga,prefecture,
JP,JP-32,Simane,Shimane,prefecture,
JP,JP-22,Sizuoka,Shizuoka,prefecture,
JP,JP-12,Tiba,Chiba,prefecture,
JP,JP-36,Tokusima,Tokushima,prefecture,
JP,JP-13,Tôkyô,Tokyo,prefecture,
JP,JP-09,Totigi,Tochigi,prefecture,
JP,JP-31,Tottori,,prefecture,
JP,JP-16,Toyama,,prefecture,
JP,JP-30,Wakayama,,prefecture,
JP,JP-06,Yamagata,,prefecture,
JP,JP-35,Yamaguti,Yamaguchi,prefecture,
JP,JP-19,Yamanasi,Yamanashi,prefecture,
KE,KE-01,Baringo,,county,
KE,KE-02,Bomet,,county,
KE,KE-03,Bungoma,,county,
KE,KE-04,Busia,,county,
KE,KE-05,Elgeyo/Marakwet,,county,
KE,KE-06,Embu,,county,
KE,KE-07,Garissa,,county,
KE,KE-08,"Homa Bay",,county,
KE,KE-09,Isiolo,,county,
KE,KE-10,Kajiado,,county,
KE,KE-11,Kakamega,,county,
KE,KE-12,Kericho,,county,
KE,KE-13,Kiambu,,county,
KE,KE-14,Kilifi,,county,
KE,KE-15,Kirinyaga,,county,
KE,KE-16,Kisii,,county,
KE,KE-17,Kisumu,,county,
KE,KE-18,Kitui,,county,
KE,KE-19,Kwale,,county,
KE,KE-20,Laikipia,,county,
KE,KE-21,Lamu,,county,
KE,KE-22,Machakos,,county,
KE,KE-23,Makueni,,county,
KE,KE-24,Mandera,,county,
KE,KE-25,Marsabit,,county,
KE,KE-26,Meru,,county,
KE,KE-27,Migori,,county,
KE,KE-28,Mombasa,,county,
KE,KE-29,Murang'a,,county,
KE,KE-30,"Nairobi City",,county,
KE,KE-31,Nakuru,,county,
KE,KE-32,Nandi,,county,
KE,KE-33,Narok,,county,
KE,KE-34,Nyamira,,county,
KE,KE-35,Nyandarua,,county,
KE,KE-36,Nyeri,,county,
KE,KE-37,Samburu,,county,
KE,KE-38,Siaya,,county,
KE,KE-39,Taita/Taveta,,county,
KE,KE-40,"Tana River",,county,
KE,KE-41,Tharaka-Nithi,,county,
KE,KE-42,"Trans Nzoia",,county,
KE,KE-43,Turkana,,county,
KE,KE-44,"Uasin Gishu",,county,
KE,KE-45,Vihiga,,county,
KE,KE-46,Wajir,,county,
KE,KE-47,"West Pokot",,county,
KG,KG-B,Batken,Batken,region,
KG,KG-GB,"Bishkek Shaary",Bishkek,city,
KG,KG-C,Chüy,Chuy,region,
KG,KG-J,Jalal-Abad,Jalal-Abad,region,
KG,KG-N,Naryn,Naryn,region,
KG,KG-O,Osh,Osh,region,
KG,KG-GO,"Osh Shaary","Osh City",city,
KG,KG-T,Talas,Talas,region,
KG,KG-Y,Ysyk-Köl,Issyk-Kul,region,
KH,KH-2,"Baat Dambang",,province,
KH,KH-1,"Banteay Mean Choăy",,province,
KH,KH-23,Kaeb,,province,
KH,KH-3,"Kampong Chaam",,province,
KH,KH-4,"Kampong Chhnang",,province,
KH,KH-5,"Kampong Spueu",,province,
KH,KH-6,"Kampong Thum",,province,
KH,KH-7,Kampot,,province,
KH,KH-8,Kandaal,,province,
KH,KH-9,"Kaoh Kong",,province,
KH,KH-10,Kracheh,,province,
KH,KH-11,"Mondol Kiri",,province,
KH,KH-22,"Otdar Mean Chey",,province,
KH,KH-24,Pailin,,province,
KH,KH-12,"Phnom Penh",,"autonomous municipality",
KH,KH-15,Pousaat,,province,
KH,KH-18,"Preah Sihanouk",,province,
KH,KH-13,"Preah Vihear",,province,
KH,KH-14,"Prey Veaeng",,province,
KH,KH-16,"Rotanak Kiri",,province,
KH,KH-17,"Siem Reab",,province,
KH,KH-19,"Stueng Traeng",,province,
KH,KH-20,"Svaay Rieng",,province,
KH,KH-21,Taakaev,,province,
KH,KH-25,"Tbong Khmum",,province,
KI,KI-G,"Gilbert Islands",,"geographical unit",
KI,KI-L,"Line Islands",,"geographical unit",
KI,KI-P,"Phoenix Islands",,"geographical unit",
KM,KM-G,"Grande Comore",,"geographical unit",
KM,KM-A,Anjouan,,"geographical unit",
KM,KM-M,Mohéli,,"geographical unit",
KN,KN-K,"Saint Kitts",,state,
KN,KN-N,Nevis,,state,
KN,KN-01,"Christ Church Nichola Town",,parish,KN-K
KN,KN-02,"Saint Anne Sandy Point",,parish,KN-K
KN,KN-03,"Saint George Basseterre",,parish,KN-K
KN,KN-04,"Saint George Gingerland",,parish,KN-N
KN,KN-05,"Saint James Windward",,parish,KN-N
KN,KN-06,"Saint John Capisterre",,parish,KN-K
KN,KN-07,"Saint John Figtree",,parish,KN-N
KN,KN-08,"Saint Mary Cayon",,parish,KN-K
KN,KN-09,"Saint Paul Capisterre",,parish,KN-K
KN,KN-10,"Saint Paul Charlestown",,parish,KN-N
KN,KN-11,"Saint Peter Basseterre",,parish,KN-K
KN,KN-12,"Saint Thomas Lowland",,parish,KN-N
KN,KN-13,"Saint Thomas Middle Island",,parish,KN-K
KN,KN-15,"Trinity Palmetto Point",,parish,KN-K
KP,KP-04,Chagang-do,Chagang,province,
KP,KP-09,Hamgyǒng-bukto,"North Hamgyong",province,
KP,KP-08,Hamgyǒng-namdo,"South Hamgyong",province,
KP,KP-06,Hwanghae-bukto,"North Hwanghae",province,
KP,KP-05,Hwanghae-namdo,"South Hwanghae",province,
KP,KP-15,Kaesŏng,Kaesong,"metropolitan city",
KP,KP-07,Kangwǒn-do,Kangwon,province,
KP,KP-14,Namp’o,Nampo,"metropolitan city",
KP,KP-03,P'yǒngan-bukto,"North Pyongan",province,
KP,KP-02,P'yǒngan-namdo,"South Pyongan",province,
KP,KP-01,P'yǒngyang,Pyongyang,"capital city",
KP,KP-13,Rasǒn,Rason,"special city",
KP,KP-10,Ryanggang-do,Ryanggang,province,
KR,KR-26,Busan-gwangyeoksi,Busan,"metropolitan city",
KR,KR-43,Chungcheongbuk-do,"North Chungcheong",province,
KR,KR-44,Chungcheongnam-do,"South Chungcheong",province,
KR,KR-27,Daegu-gwangyeoksi,Daegu,"metropolitan city",
KR,KR-30,Daejeon-gwangyeoksi,Daejeon,"metropolitan city",
KR,KR-42,Gangwon-teukbyeoljachido,Gangwon,"special self-governing province",
KR,KR-29,Gwangju-gwangyeoksi,Gwangju,"metropolitan city",
KR,KR-41,Gyeonggi-do,Gyeonggi,province,
KR,KR-47,Gyeongsangbuk-do,"North Gyeongsang",province,
KR,KR-48,Gyeongsangnam-do,"South Gyeongsang",province,
KR,KR-28,Incheon-gwangyeoksi,Incheon,"metropolitan city",
KR,KR-49,Jeju-teukbyeoljachido,Jeju,"special self-governing province",
KR,KR-45,Jeollabuk-do,"North Jeolla",province,
KR,KR-46,Jeollanam-do,"South Jeolla",province,
KR,KR-50,Sejong,Sejong,"special self-governing city",
KR,KR-11,Seoul-teukbyeolsi,Seoul,"special city",
KR,KR-31,Ulsan-gwangyeoksi,Ulsan,"metropolitan city",
KW,KW-AH,"Al Aḩmadī",Ahmadi,governorate,
KW,KW-FA,"Al Farwānīyah",Farwaniya,governorate,
KW,KW-JA,"Al Jahrā’",Jahra,governorate,
KW,KW-KU,"Al ‘Āşimah",Capital,governorate,
KW,KW-HA,Ḩawallī,Hawalli,governorate,
KW,KW-MU,"Mubārak al Kabīr","Mubarak Al-Kabeer",governorate,
KZ,KZ-10,"Abay oblysy",Abai,region,
KZ,KZ-75,Almaty,"Almaty City",city,
KZ,KZ-19,"Almaty oblysy",Almaty,region,
KZ,KZ-11,"Aqmola oblysy",Akmola,region,
KZ,KZ-15,"Aqtöbe oblysy",Aktobe,region,
KZ,KZ-71,Astana,Astana,city,
KZ,KZ-23,"Atyraū oblysy",Atyrau,region,
KZ,KZ-27,"Batys Qazaqstan oblysy","West Kazakhstan",region,
KZ,KZ-47,"Mangghystaū oblysy",Mangystau,region,
KZ,KZ-55,"Pavlodar oblysy",Pavlodar,region,
KZ,KZ-35,"Qaraghandy oblysy",Karaganda,region,
KZ,KZ-39,"Qostanay oblysy",Kostanay,region,
KZ,KZ-43,"Qyzylorda oblysy",Kyzylorda,region,
KZ,KZ-63,"Shyghys Qazaqstan oblysy","East Kazakhstan",region,
KZ,KZ-79,Shymkent,Shymkent,city,
KZ,KZ-59,"Soltüstik Qazaqstan oblysy","North Kazakhstan",region,
KZ,KZ-61,"Türkistan oblysy",Turkistan,region,
KZ,KZ-62,"Ulytaū oblysy",Ulytau,region,
KZ,KZ-31,"Zhambyl oblysy",Jambyl,region,
KZ,KZ-33,"Zhetisū oblysy",Jetisu,region,
LA,LA-AT,Attapu,,province,
LA,LA-BK,Bokèo,,province,
LA,LA-BL,Bolikhamxai,,province,
LA,LA-CH,Champasak,,province,
LA,LA-HO,Houaphan,,province,
LA,LA-KH,Khammouan,,province,
LA,LA-LM,"Louang Namtha",,province,
LA,LA-LP,Louangphabang,,province,
LA,LA-OU,Oudômxai,,province,
LA,LA-PH,Phôngsali,,province,
LA,LA-SL,Salavan,,province,
LA,LA-SV,Savannakhét,,province,
LA,LA-VI,Viangchan,,province,
LA,LA-VT,Viangchan,,prefecture,
LA,LA-XA,Xaignabouli,,province,
LA,LA-XS,Xaisômboun,,province,
LA,LA-XE,Xékong,,province,
LA,LA-XI,Xiangkhouang,,province,
LB,LB-AK,Aakkâr,Akkar,governorate,
LB,LB-BH,Baalbek-Hermel,Baalbek-Hermel,governorate,
LB,LB-BI,Béqaa,Beqaa,governorate,
LB,LB-BA,Beyrouth,Beirut,governorate,
LB,LB-AS,Liban-Nord,"North Lebanon",governorate,
LB,LB-JA,Liban-Sud,"South Lebanon",governorate,
LB,LB-JL,Mont-Liban,"Mount Lebanon",governorate,
LB,LB-NA,Nabatîyé,Nabatieh,governorate,
LC,LC-01,"Anse la Raye",,district,
LC,LC-12,Canaries,,district,
LC,LC-02,Castries,,district,
LC,LC-03,Choiseul,,district,
LC,LC-05,Dennery,,district,
LC,LC-06,"Gros Islet",,district,
LC,LC-07,Laborie,,district,
LC,LC-08,Micoud,,district,
LC,LC-10,Soufrière,,district,
LC,LC-11,"Vieux Fort",,district,
LI,LI-01,Balzers,,commune,
LI,LI-02,Eschen,,commune,
LI,LI-03,Gamprin,,commune,
LI,LI-04,Mauren,,commune,
LI,LI-05,Planken,,commune,
LI,LI-06,Ruggell,,commune,
LI,LI-07,Schaan,,commune,
LI,LI-08,Schellenberg,,commune,
LI,LI-09,Triesen,,commune,
LI,LI-10,Triesenberg,,commune,
LI,LI-11,Vaduz,,commune,
LK,LK-1,"Basnāhira paḷāta","Western Province",province,
LK,LK-3,"Dakuṇu paḷāta","Southern Province",province,
LK,LK-2,"Madhyama paḷāta","Central Province",province,
LK,LK-5,"Næ̆gĕnahira paḷāta","Eastern Province",province,
LK,LK-9,"Sabaragamuva paḷāta","Sabaragamuwa Province",province,
LK,LK-4,"Uturu paḷāta","Northern Province",province,
LK,LK-7,"Uturumæ̆da paḷāta","North Central Province",province,
LK,LK-8,"Ūva paḷāta","Uva Province",province,
LK,LK-6,"Vayamba paḷāta","North Western Province",province,
LK,LK-52,Ampāra,Ampara,district,LK-5
LK,LK-71,Anurādhapura,Anuradhapura,district,LK-7
LK,LK-81,Badulla,Badulla,district,LK-8
LK,LK-31,Gālla,Galle,district,LK-3
LK,LK-12,Gampaha,Gampaha,district,LK-1
LK,LK-33,Hambantŏṭa,Hambantota,district,LK-3
LK,LK-92,Kægalla,Kegalla,district,LK-9
LK,LK-13,Kalutara,Kalutara,district,LK-1
LK,LK-42,Kilinŏchchi,Kilinochchi,district,LK-4
LK,LK-11,Kŏḷamba,Colombo,district,LK-1
LK,LK-61,Kuruṇægala,Kurunegala,district,LK-6
LK,LK-51,Maḍakalapuva,Batticaloa,district,LK-5
LK,LK-21,Mahanuvara,Kandy,district,LK-2
LK,LK-43,Mannārama,Mannar,district,LK-4
LK,LK-22,Mātale,Matale,district,LK-2
LK,LK-32,Mātara,Matara,district,LK-3
LK,LK-82,Mŏṇarāgala,Monaragala,district,LK-8
LK,LK-45,Mulativ,Mullaittivu,district,LK-4
LK,LK-23,"Nuvara Ĕliya","Nuwara Eliya",district,LK-2
LK,LK-72,Pŏḷŏnnaruva,Polonnaruwa,district,LK-7
LK,LK-62,Puttalama,Puttalam,district,LK-6
LK,LK-91,Ratnapura,Ratnapura,district,LK-9
LK,LK-53,Trikuṇāmalaya,Trincomalee,district,LK-5
LK,LK-44,Vavuniyāva,Vavuniya,district,LK-4
LK,LK-41,Yāpanaya,Jaffna,district,LK-4
LR,LR-BM,Bomi,,county,
LR,LR-BG,Bong,,county,
LR,LR-GP,Gbarpolu,,county,
LR,LR-GB,"Grand Bassa",,county,
LR,LR-CM,"Grand Cape Mount",,county,
LR,LR-GG,"Grand Gedeh",,county,
LR,LR-GK,"Grand Kru",,county,
LR,LR-LO,Lofa,,county,
LR,LR-MG,Margibi,,county,
LR,LR-MY,Maryland,,county,
LR,LR-MO,Montserrado,,county,
LR,LR-NI,Nimba,,county,
LR,LR-RI,"River Cess",,county,
LR,LR-RG,"River Gee",,county,
LR,LR-SI,Sinoe,,county,
LS,LS-D,Berea,,district,
LS,LS-B,Botha-Bothe,,district,
LS,LS-C,Leribe,,district,
LS,LS-E,Mafeteng,,district,
LS,LS-A,Maseru,,district,
LS,LS-F,"Mohale's Hoek",,district,
LS,LS-J,Mokhotlong,,district,
LS,LS-H,"Qacha's Nek",,district,
LS,LS-G,Quthing,,district,
LS,LS-K,Thaba-Tseka,,district,
LT,LT-AL,"Alytaus apskritis","Alytus County",county,
LT,LT-KU,"Kauno apskritis","Kaunas County",county,
LT,LT-KL,"Klaipėdos apskritis","Klaipėda County",county,
LT,LT-MR,"Marijampolės apskritis","Marijampolė County",county,
LT,LT-PN,"Panevėžio apskritis","Panevėžys County",county,
LT,LT-SA,"Šiaulių apskritis","Šiauliai County",county,
LT,LT-TA,"Tauragės apskritis","Tauragė County",county,
LT,LT-TE,"Telšių apskritis","Telšiai County",county,
LT,LT-UT,"Utenos apskritis","Utena County",county,
LT,LT-VL,"Vilniaus apskritis","Vilnius County",county,
LT,LT-01,Akmenė,,"district municipality",LT-SA
LT,LT-02,"Alytaus miestas",,"city municipality",LT-AL
LT,LT-03,Alytus,,"district municipality",LT-AL
LT,LT-04,Anykščiai,,"district municipality",LT-UT
LT,LT-05,Birštonas,,municipality,LT-KU
LT,LT-06,Biržai,,"district municipality",LT-PN
LT,LT-07,Druskininkai,,municipality,LT-AL
LT,LT-08,Elektrėnai,,municipality,LT-VL
LT,LT-09,Ignalina,,"district municipality",LT-UT
LT,LT-10,Jonava,,"district municipality",LT-KU
LT,LT-11,Joniškis,,"district municipality",LT-SA
LT,LT-12,Jurbarkas,,"district municipality",LT-TA
LT,LT-13,Kaišiadorys,,"district municipality",LT-KU
LT,LT-14,Kalvarija,,municipality,LT-MR
LT,LT-16,Kaunas,,"district municipality",LT-KU
LT,LT-15,"Kauno miestas",,"city municipality",LT-KU
LT,LT-17,"Kazlų Rūdos",,municipality,LT-MR
LT,LT-18,Kėdainiai,,"district municipality",LT-KU
LT,LT-19,Kelmė,,"district municipality",LT-SA
LT,LT-21,Klaipėda,,"district municipality",LT-KL
LT,LT-20,"Klaipėdos miestas",,"city municipality",LT-KL
LT,LT-22,Kretinga,,"district municipality",LT-KL
LT,LT-23,Kupiškis,,"district municipality",LT-PN
LT,LT-24,Lazdijai,,"district municipality",LT-AL
LT,LT-25,Marijampolė,,"district municipality",LT-MR
LT,LT-26,Mažeikiai,,"district municipality",LT-TE
LT,LT-27,Molėtai,,"district municipality",LT-UT
LT,LT-28,Neringa,,municipality,LT-KL
LT,LT-29,Pagėgiai,,municipality,LT-TA
LT,LT-30,Pakruojis,,"district municipality",LT-SA
LT,LT-31,"Palangos miestas",,"city municipality",LT-KL
LT,LT-32,"Panevėžio miestas",,"city municipality",LT-PN
LT,LT-33,Panevėžys,,"district municipality",LT-PN
LT,LT-34,Pasvalys,,"district municipality",LT-PN
LT,LT-35,Plungė,,"district municipality",LT-TE
LT,LT-36,Prienai,,"district municipality",LT-KU
LT,LT-37,Radviliškis,,"district municipality",LT-SA
LT,LT-38,Raseiniai,,"district municipality",LT-KU
LT,LT-39,Rietavas,,municipality,LT-TE
LT,LT-40,Rokiškis,,"district municipality",LT-PN
LT,LT-41,Šakiai,,"district municipality",LT-MR
LT,LT-42,Šalčininkai,,"district municipality",LT-VL
LT,LT-44,Šiauliai,,"district municipality",LT-SA
LT,LT-43,"Šiaulių miestas",,"city municipality",LT-SA
LT,LT-45,Šilalė,,"district municipality",LT-TA
LT,LT-46,Šilutė,,"district municipality",LT-KL
LT,LT-47,Širvintos,,"district municipality",LT-VL
LT,LT-48,Skuodas,,"district municipality",LT-KL
LT,LT-49,Švenčionys,,"district municipality",LT-VL
LT,LT-50,Tauragė,,"district municipality",LT-TA
LT,LT-51,Telšiai,,"district municipality",LT-TE
LT,LT-52,Trakai,,"district municipality",LT-VL
LT,LT-53,Ukmergė,,"district municipality",LT-VL
LT,LT-54,Utena,,"district municipality",LT-UT
LT,LT-55,Varėna,,"district municipality",LT-AL
LT,LT-56,Vilkaviškis,,"district municipality",LT-MR
LT,LT-57,"Vilniaus miestas",,"city municipality",LT-VL
LT,LT-58,Vilnius,,"district municipality",LT-VL
LT,LT-59,Visaginas,,municipality,LT-UT
LT,LT-60,Zarasai,,"district municipality",LT-UT
LU,LU-CA,Capellen,,canton,
LU,LU-CL,Clervaux,,canton,
LU,LU-DI,Diekirch,,canton,
LU,LU-EC,Echternach,,canton,
LU,LU-ES,Esch-sur-Alzette,,canton,
LU,LU-GR,Grevenmacher,,canton,
LU,LU-LU,Luxembourg,,canton,
LU,LU-ME,Mersch,,canton,
LU,LU-RD,Redange,,canton,
LU,LU-RM,Remich,,canton,
LU,LU-VD,Vianden,,canton,
LU,LU-WI,Wiltz,,canton,
LV,LV-002,"Aizkraukles novads",,municipality,
LV,LV-007,"Alūksnes novads",,municipality,
LV,LV-111,"Augšdaugavas novads",,municipality,
LV,LV-011,"Ādažu novads",,municipality,
LV,LV-015,"Balvu novads",,municipality,
LV,LV-016,"Bauskas novads",,municipality,
LV,LV-022,"Cēsu novads",,municipality,
LV,LV-DGV,Daugavpils,,"state city",
LV,LV-112,"Dienvidkurzemes Novads",,municipality,
LV,LV-026,"Dobeles novads",,municipality,
LV,LV-033,"Gulbenes novads",,municipality,
LV,LV-JEL,Jelgava,,"state city",
LV,LV-041,"Jelgavas novads",,municipality,
LV,LV-042,"Jēkabpils novads",,municipality,
LV,LV-JUR,Jūrmala,,"state city",
LV,LV-047,"Krāslavas novads",,municipality,
LV,LV-050,"Kuldīgas novads",,municipality,
LV,LV-052,"Ķekavas novads",,municipality,
LV,LV-LPX,Liepāja,,"state city",
LV,LV-054,"Limbažu novads",,municipality,
LV,LV-056,"Līvānu novads",,municipality,
LV,LV-058,"Ludzas novads",,municipality,
LV,LV-059,"Madonas novads",,municipality,
LV,LV-062,"Mārupes novads",,municipality,
LV,LV-067,"Ogres novads",,municipality,
LV,LV-068,"Olaines novads",,municipality,
LV,LV-073,"Preiļu novads",,municipality,
LV,LV-REZ,Rēzekne,,"state city",
LV,LV-077,"Rēzeknes novads",,municipality,
LV,LV-RIX,Rīga,,"state city",
LV,LV-080,"Ropažu novads",,municipality,
LV,LV-087,"Salaspils novads",,municipality,
LV,LV-088,"Saldus novads",,municipality,
LV,LV-089,"Saulkrastu novads",,municipality,
LV,LV-091,"Siguldas novads",,municipality,
LV,LV-094,"Smiltenes novads",,municipality,
LV,LV-097,"Talsu novads",,municipality,
LV,LV-099,"Tukuma novads",,municipality,
LV,LV-101,"Valkas novads",,municipality,
LV,LV-113,"Valmieras Novads",,municipality,
LV,LV-102,"Varakļānu novads",,municipality,
LV,LV-VEN,Ventspils,,"state city",
LV,LV-106,"Ventspils novads",,municipality,
LY,LY-BU,"Al Buţnān",Butnan,popularate,
LY,LY-JA,"Al Jabal al Akhḑar","Green Mountain",popularate,
LY,LY-JG,"Al Jabal al Gharbī","Western Mountain",popularate,
LY,LY-JI,"Al Jafārah",Jafara,popularate,
LY,LY-JU,"Al Jufrah",Jufra,popularate,
LY,LY-KF,"Al Kufrah",Kufra,popularate,
LY,LY-MJ,"Al Marj",Meadows,popularate,
LY,LY-MB,"Al Marqab",Murqub,popularate,
LY,LY-WA,"Al Wāḩāt",Oases,popularate,
LY,LY-NQ,"An Nuqāţ al Khams","Nuqat al Khams",popularate,
LY,LY-ZA,"Az Zāwiyah",Zawiya,popularate,
LY,LY-BA,Banghāzī,Benghazi,popularate,
LY,LY-DR,Darnah,Derna,popularate,
LY,LY-GT,Ghāt,Ghat,popularate,
LY,LY-MI,Mişrātah,Misrata,popularate,
LY,LY-MQ,Murzuq,Murzuq,popularate,
LY,LY-NL,Nālūt,Nalut,popularate,
LY,LY-SB,Sabhā,Sabha,popularate,
LY,LY-SR,Surt,Sirte,popularate,
LY,LY-TB,Ţarābulus,Tripoli,popularate,
LY,LY-WD,"Wādī al Ḩayāt","Wadi al Hayaa",popularate,
LY,LY-WS,"Wādī ash Shāţi’","Wadi ash Shati",popularate,
MA,MA-05,"Béni Mellal-Khénifra",,region,
MA,MA-06,Casablanca-Settat,,region,
MA,MA-12,"Dakhla-Oued Ed-Dahab",,region,
MA,MA-08,Drâa-Tafilalet,,region,
MA,MA-03,Fès-Meknès,,region,
MA,MA-10,"Guelmim-Oued Noun",,region,
MA,MA-02,L'Oriental,,region,
MA,MA-11,"Laâyoune-Sakia El Hamra",,region,
MA,MA-07,Marrakech-Safi,,region,
MA,MA-04,Rabat-Salé-Kénitra,,region,
MA,MA-09,Souss-Massa,,region,
MA,MA-01,"Tanger-Tétouan-Al Hoceïma",,region,
MA,MA-AGD,Agadir-Ida-Ou-Tanane,,prefecture,MA-09
MA,MA-HAO,"Al Haouz",,province,MA-07
MA,MA-HOC,"Al Hoceïma",,province,MA-01
MA,MA-AOU,Aousserd,,province,MA-12
MA,MA-ASZ,Assa-Zag,,province,MA-10
MA,MA-AZI,Azilal,,province,MA-05
MA,MA-BEM,"Béni Mellal",,province,MA-05
MA,MA-BES,Benslimane,,province,MA-06
MA,MA-BER,Berkane,,province,MA-02
MA,MA-BRR,Berrechid,,province,MA-06
MA,MA-BOD,Boujdour,,province,MA-11
MA,MA-BOM,Boulemane,,province,MA-03
MA,MA-CAS,Casablanca,,prefecture,MA-06
MA,MA-CHE,Chefchaouen,,province,MA-01
MA,MA-CHI,Chichaoua,,province,MA-07
MA,MA-CHT,"Chtouka-Ait Baha",,province,MA-06
MA,MA-DRI,Driouch,,province,MA-02
MA,MA-HAJ,"El Hajeb",,province,MA-03
MA,MA-JDI,"El Jadida",,province,MA-06
MA,MA-KES,"El Kelâa des Sraghna",,province,MA-07
MA,MA-ERR,Errachidia,,province,MA-08
MA,MA-ESM,Es-Semara,,province,MA-11
MA,MA-ESI,Essaouira,,province,MA-07
MA,MA-FAH,Fahs-Anjra,,province,MA-01
MA,MA-FES,Fès,,prefecture,MA-03
MA,MA-FIG,Figuig,,province,MA-02
MA,MA-FQH,"Fquih Ben Salah",,province,MA-05
MA,MA-GUE,Guelmim,,province,MA-10
MA,MA-GUF,Guercif,,province,MA-02
MA,MA-IFR,Ifrane,,province,MA-03
MA,MA-INE,"Inezgane-Ait Melloul",,prefecture,MA-09
MA,MA-JRA,Jerada,,province,MA-02
MA,MA-KEN,Kénitra,,province,MA-04
MA,MA-KHE,Khémisset,,province,MA-04
MA,MA-KHN,Khénifra,,province,MA-05
MA,MA-KHO,Khouribga,,province,MA-05
MA,MA-LAA,Laâyoune,,province,MA-11
MA,MA-LAR,Larache,,province,MA-01
MA,MA-MDF,M’diq-Fnideq,,prefecture,MA-01
MA,MA-MAR,Marrakech,,prefecture,MA-07
MA,MA-MED,Médiouna,,province,MA-06
MA,MA-MEK,Meknès,,prefecture,MA-03
MA,MA-MID,Midelt,,province,MA-08
MA,MA-MOH,Mohammadia,,prefecture,MA-06
MA,MA-MOU,"Moulay Yacoub",,province,MA-03
MA,MA-NAD,Nador,,province,MA-02
MA,MA-NOU,Nouaceur,,province,MA-04
MA,MA-OUA,Ouarzazate,,province,MA-08
MA,MA-OUD,"Oued Ed-Dahab",,province,MA-12
MA,MA-OUZ,Ouezzane,,province,MA-01
MA,MA-OUJ,Oujda-Angad,,prefecture,MA-02
MA,MA-RAB,Rabat,,prefecture,MA-04
MA,MA-REH,Rehamna,,province,MA-07
MA,MA-SAF,Safi,,province,MA-07
MA,MA-SAL,Salé,,prefecture,MA-04
MA,MA-SEF,Sefrou,,province,MA-03
MA,MA-SET,Settat,,province,MA-06
MA,MA-SIB,"Sidi Bennour",,province,MA-06
MA,MA-SIF,"Sidi Ifni",,province,MA-10
MA,MA-SIK,"Sidi Kacem",,province,MA-04
MA,MA-SIL,"Sidi Slimane",,province,MA-04
MA,MA-SKH,Skhirate-Témara,,prefecture,MA-04
MA,MA-TNT,Tan-Tan,,province,MA-10
MA,MA-TNG,Tanger-Assilah,,prefecture,MA-01
MA,MA-TAO,Taounate,,province,MA-03
MA,MA-TAI,Taourirt,,province,MA-02
MA,MA-TAF,Tarfaya,,province,MA-11
MA,MA-TAR,Taroudannt,,province,MA-09
MA,MA-TAT,Tata,,province,MA-09
MA,MA-TAZ,Taza,,province,MA-03
MA,MA-TET,Tétouan,,province,MA-01
MA,MA-TIN,Tinghir,,province,MA-08
MA,MA-TIZ,Tiznit,,province,MA-09
MA,MA-YUS,Youssoufia,,province,MA-07
MA,MA-ZAG,Zagora,,province,MA-08
MC,MC-FO,Fontvieille,,quarter,
MC,MC-JE,"Jardin Exotique",,quarter,
MC,MC-CL,"La Colle",,quarter,
MC,MC-CO,"La Condamine",,quarter,
MC,MC-GA,"La Gare",,quarter,
MC,MC-SO,"La Source",,quarter,
MC,MC-LA,Larvotto,,quarter,
MC,MC-MA,Malbousquet,,quarter,
MC,MC-MO,Monaco-Ville,,quarter,
MC,MC-MG,Moneghetti,,quarter,
MC,MC-MC,Monte-Carlo,,quarter,
MC,MC-MU,Moulins,,quarter,
MC,MC-PH,Port-Hercule,,quarter,
MC,MC-SR,Saint-Roman,,quarter,
MC,MC-SD,Sainte-Dévote,,quarter,
MC,MC-SP,Spélugues,,quarter,
MC,MC-VR,"Vallon de la Rousse",,quarter,
MD,MD-AN,"Anenii Noi",,district,
MD,MD-BS,Basarabeasca,,district,
MD,MD-BA,Bălți,,city,
MD,MD-BD,Bender,,city,
MD,MD-BR,Briceni,,district,
MD,MD-CA,Cahul,,district,
MD,MD-CT,Cantemir,,district,
MD,MD-CL,Călărași,,district,
MD,MD-CS,Căușeni,,district,
MD,MD-CU,Chișinău,,city,
MD,MD-CM,Cimișlia,,district,
MD,MD-CR,Criuleni,,district,
MD,MD-DO,Dondușeni,,district,
MD,MD-DR,Drochia,,district,
MD,MD-DU,Dubăsari,,district,
MD,MD-ED,Edineț,,district,
MD,MD-FA,Fălești,,district,
MD,MD-FL,Florești,,district,
MD,MD-GA,"Găgăuzia, Unitatea teritorială autonomă",,"autonomous territorial unit",
MD,MD-GL,Glodeni,,district,
MD,MD-HI,Hîncești,,district,
MD,MD-IA,Ialoveni,,district,
MD,MD-LE,Leova,,district,
MD,MD-NI,Nisporeni,,district,
MD,MD-OC,Ocnița,,district,
MD,MD-OR,Orhei,,district,
MD,MD-RE,Rezina,,district,
MD,MD-RI,Rîșcani,,district,
MD,MD-SI,Sîngerei,,district,
MD,MD-SO,Soroca,,district,
MD,MD-SN,"Stînga Nistrului, unitatea teritorială din",,"territorial unit",
MD,MD-ST,Strășeni,,district,
MD,MD-SD,Șoldănești,,district,
MD,MD-SV,"Ștefan Vodă",,district,
MD,MD-TA,Taraclia,,district,
MD,MD-TE,Telenești,,district,
MD,MD-UN,Ungheni,,district,
ME,ME-01,Andrijevica,,municipality,
ME,ME-02,Bar,,municipality,
ME,ME-03,Berane,,municipality,
ME,ME-04,"Bijelo Polje",,municipality,
ME,ME-05,Budva,,municipality,
ME,ME-06,Cetinje,,municipality,
ME,ME-07,Danilovgrad,,municipality,
ME,ME-22,Gusinje,,municipality,
ME,ME-08,Herceg-Novi,,municipality,
ME,ME-09,Kolašin,,municipality,
ME,ME-10,Kotor,,municipality,
ME,ME-11,Mojkovac,,municipality,
ME,ME-12,Nikšić,,municipality,
ME,ME-23,Petnjica,,municipality,
ME,ME-13,Plav,,municipality,
ME,ME-14,Pljevlja,,municipality,
ME,ME-15,Plužine,,municipality,
ME,ME-16,Podgorica,,municipality,
ME,ME-17,Rožaje,,municipality,
ME,ME-18,Šavnik,,municipality,
ME,ME-19,Tivat,,municipality,
ME,ME-24,Tuzi,,municipality,
ME,ME-20,Ulcinj,,municipality,
ME,ME-21,Žabljak,,municipality,
ME,ME-25,Zeta,,municipality,
MG,MG-T,Antananarivo,,province,
MG,MG-D,Antsiranana,,province,
MG,MG-F,Fianarantsoa,,province,
MG,MG-M,Mahajanga,,province,
MG,MG-A,Toamasina,,province,
MG,MG-U,Toliara,,province,
MH,MH-L,"Ralik chain",,"geographical unit",
MH,MH-T,"Ratak chain",,"geographical unit",
MH,MH-ALL,Ailinglaplap,,municipality,MH-L
MH,MH-ALK,Ailuk,,municipality,MH-T
MH,MH-ARN,Arno,,municipality,MH-T
MH,MH-AUR,Aur,,municipality,MH-T
MH,MH-KIL,"Bikini & Kili",,municipality,MH-L
MH,MH-EBO,Ebon,,municipality,MH-L
MH,MH-ENI,"Enewetak & Ujelang",,municipality,MH-L
MH,MH-JAB,Jabat,,municipality,MH-L
MH,MH-JAL,Jaluit,,municipality,MH-L
MH,MH-KWA,Kwajalein,,municipality,MH-L
MH,MH-LAE,Lae,,municipality,MH-L
MH,MH-LIB,Lib,,municipality,MH-L
MH,MH-LIK,Likiep,,municipality,MH-T
MH,MH-MAJ,Majuro,,municipality,MH-T
MH,MH-MAL,Maloelap,,municipality,MH-T
MH,MH-MEJ,Mejit,,municipality,MH-T
MH,MH-MIL,Mili,,municipality,MH-T
MH,MH-NMK,Namdrik,,municipality,MH-L
MH,MH-NMU,Namu,,municipality,MH-L
MH,MH-RON,Rongelap,,municipality,MH-L
MH,MH-UJA,Ujae,,municipality,MH-L
MH,MH-UTI,Utrik,,municipality,MH-T
MH,MH-WTH,Wotho,,municipality,MH-L
MH,MH-WTJ,Wotje,,municipality,MH-T
MK,MK-801,Aerodrom,,municipality,
MK,MK-802,Aračinovo,,municipality,
MK,MK-201,Berovo,,municipality,
MK,MK-501,Bitola,,municipality,
MK,MK-401,Bogdanci,,municipality,
MK,MK-601,Bogovinje,,municipality,
MK,MK-402,Bosilovo,,municipality,
MK,MK-602,Brvenica,,municipality,
MK,MK-803,Butel,,municipality,
MK,MK-814,Centar,,municipality,
MK,MK-313,"Centar Župa",,municipality,
MK,MK-815,Čair,,municipality,
MK,MK-109,Čaška,,municipality,
MK,MK-210,Češinovo-Obleševo,,municipality,
MK,MK-816,Čučer-Sandevo,,municipality,
MK,MK-303,Debar,,municipality,
MK,MK-304,Debrca,,municipality,
MK,MK-203,Delčevo,,municipality,
MK,MK-502,"Demir Hisar",,municipality,
MK,MK-103,"Demir Kapija",,municipality,
MK,MK-406,Dojran,,municipality,
MK,MK-503,Dolneni,,municipality,
MK,MK-804,"Gazi Baba",,municipality,
MK,MK-405,Gevgelija,,municipality,
MK,MK-805,"Gjorče Petrov",,municipality,
MK,MK-604,Gostivar,,municipality,
MK,MK-102,Gradsko,,municipality,
MK,MK-807,Ilinden,,municipality,
MK,MK-606,Jegunovce,,municipality,
MK,MK-205,Karbinci,,municipality,
MK,MK-808,Karpoš,,municipality,
MK,MK-104,Kavadarci,,municipality,
MK,MK-307,Kičevo,,municipality,
MK,MK-809,"Kisela Voda",,municipality,
MK,MK-206,Kočani,,municipality,
MK,MK-407,Konče,,municipality,
MK,MK-701,Kratovo,,municipality,
MK,MK-702,"Kriva Palanka",,municipality,
MK,MK-504,Krivogaštani,,municipality,
MK,MK-505,Kruševo,,municipality,
MK,MK-703,Kumanovo,,municipality,
MK,MK-704,Lipkovo,,municipality,
MK,MK-105,Lozovo,,municipality,
MK,MK-207,"Makedonska Kamenica",,municipality,
MK,MK-308,"Makedonski Brod",,municipality,
MK,MK-607,"Mavrovo i Rostuše",,municipality,
MK,MK-506,Mogila,,municipality,
MK,MK-106,Negotino,,municipality,
MK,MK-507,Novaci,,municipality,
MK,MK-408,"Novo Selo",,municipality,
MK,MK-310,Ohrid,,municipality,
MK,MK-208,Pehčevo,,municipality,
MK,MK-810,Petrovec,,municipality,
MK,MK-311,Plasnica,,municipality,
MK,MK-508,Prilep,,municipality,
MK,MK-209,Probištip,,municipality,
MK,MK-409,Radoviš,,municipality,
MK,MK-705,Rankovce,,municipality,
MK,MK-509,Resen,,municipality,
MK,MK-107,Rosoman,,municipality,
MK,MK-811,Saraj,,municipality,
MK,MK-812,Sopište,,municipality,
MK,MK-706,"Staro Nagoričane",,municipality,
MK,MK-312,Struga,,municipality,
MK,MK-410,Strumica,,municipality,
MK,MK-813,Studeničani,,municipality,
MK,MK-108,"Sveti Nikole",,municipality,
MK,MK-211,Štip,,municipality,
MK,MK-817,"Šuto Orizari",,municipality,
MK,MK-608,Tearce,,municipality,
MK,MK-609,Tetovo,,municipality,
MK,MK-403,Valandovo,,municipality,
MK,MK-404,Vasilevo,,municipality,
MK,MK-101,Veles,,municipality,
MK,MK-301,Vevčani,,municipality,
MK,MK-202,Vinica,,municipality,
MK,MK-603,Vrapčište,,municipality,
MK,MK-806,Zelenikovo,,municipality,
MK,MK-204,Zrnovci,,municipality,
MK,MK-605,Želino,,municipality,
ML,ML-BKO,Bamako,,district,
ML,ML-7,Gao,,region,
ML,ML-1,Kayes,,region,
ML,ML-8,Kidal,,region,
ML,ML-2,Koulikoro,,region,
ML,ML-9,Ménaka,,region,
ML,ML-5,Mopti,,region,
ML,ML-4,Ségou,,region,
ML,ML-3,Sikasso,,region,
ML,ML-10,Taoudénit,,region,
ML,ML-6,Tombouctou,,region,
MM,MM-07,Ayeyarwady,,region,
MM,MM-02,Bago,,region,
MM,MM-14,Chin,,state,
MM,MM-11,Kachin,,state,
MM,MM-12,Kayah,,state,
MM,MM-13,Kayin,,state,
MM,MM-03,Magway,,region,
MM,MM-04,Mandalay,,region,
MM,MM-15,Mon,,state,
MM,MM-18,"Nay Pyi Taw",,"union territory",
MM,MM-16,Rakhine,,state,
MM,MM-01,Sagaing,,region,
MM,MM-17,Shan,,state,
MM,MM-05,Tanintharyi,,region,
MM,MM-06,Yangon,,region,
MN,MN-073,Arhangay,,province,
MN,MN-069,Bayanhongor,,province,
MN,MN-071,Bayan-Ölgiy,,province,
MN,MN-067,Bulgan,,province,
MN,MN-037,"Darhan uul",,province,
MN,MN-061,Dornod,,province,
MN,MN-063,Dornogovĭ,,province,
MN,MN-059,Dundgovĭ,,province,
MN,MN-057,Dzavhan,,province,
MN,MN-065,Govĭ-Altay,,province,
MN,MN-064,Govĭ-Sümber,,province,
MN,MN-039,Hentiy,,province,
MN,MN-043,Hovd,,province,
MN,MN-041,Hövsgöl,,province,
MN,MN-053,Ömnögovĭ,,province,
MN,MN-035,Orhon,,province,
MN,MN-055,Övörhangay,,province,
MN,MN-049,Selenge,,province,
MN,MN-051,Sühbaatar,,province,
MN,MN-047,Töv,,province,
MN,MN-1,Ulaanbaatar,,"capital city",
MN,MN-046,Uvs,,province,
MR,MR-07,Adrar,Adrar,region,
MR,MR-03,Assaba,Assaba,region,
MR,MR-05,Brakna,Brakna,region,
MR,MR-08,"Dakhlet Nouâdhibou","Nouadhibou Peninsula",region,
MR,MR-04,Gorgol,Gorgol,region,
MR,MR-10,Guidimaka,Guidimaka,region,
MR,MR-01,"Hodh ech Chargui","Eastern Basin",region,
MR,MR-02,"Hodh el Gharbi","Western Basin",region,
MR,MR-12,Inchiri,Inchiri,region,
MR,MR-14,Nouakchott-Nord,"North Nouakchott",region,
MR,MR-13,Nouakchott-Ouest,"West Nouakchott",region,
MR,MR-15,Nouakchott-Sud,"South Nouakchott",region,
MR,MR-09,Tagant,Tagant,region,
MR,MR-11,"Tiris Zemmour","Tiris Zemmour",region,
MR,MR-06,Trarza,Trarza,region,
MT,MT-01,Attard,Attard,"local council",
MT,MT-02,Balzan,Balzan,"local council",
MT,MT-03,Birgu,Birgu,"local council",
MT,MT-04,Birkirkara,Birkirkara,"local council",
MT,MT-05,Birżebbuġa,Birżebbuġa,"local council",
MT,MT-06,Bormla,Bormla,"local council",
MT,MT-07,Dingli,Dingli,"local council",
MT,MT-08,Fgura,Fgura,"local council",
MT,MT-09,Floriana,Floriana,"local council",
MT,MT-10,Fontana,Fontana,"local council",
MT,MT-11,Gudja,Gudja,"local council",
MT,MT-12,Gżira,Gżira,"local council",
MT,MT-13,Għajnsielem,Għajnsielem,"local council",
MT,MT-14,Għarb,Għarb,"local council",
MT,MT-15,Għargħur,Għargħur,"local council",
MT,MT-16,Għasri,Għasri,"local council",
MT,MT-17,Għaxaq,Għaxaq,"local council",
MT,MT-18,Ħamrun,Ħamrun,"local council",
MT,MT-19,Iklin,Iklin,"local council",
MT,MT-20,Isla,Isla,"local council",
MT,MT-21,Kalkara,Kalkara,"local council",
MT,MT-22,Kerċem,Kerċem,"local council",
MT,MT-23,Kirkop,Kirkop,"local council",
MT,MT-24,Lija,Lija,"local council",
MT,MT-25,Luqa,Luqa,"local council",
MT,MT-26,Marsa,Marsa,"local council",
MT,MT-27,Marsaskala,Marsaskala,"local council",
MT,MT-28,Marsaxlokk,Marsaxlokk,"local council",
MT,MT-29,Mdina,Mdina,"local council",
MT,MT-30,Mellieħa,Mellieħa,"local council",
MT,MT-31,Mġarr,Mġarr,"local council",
MT,MT-32,Mosta,Mosta,"local council",
MT,MT-33,Mqabba,Mqabba,"local council",
MT,MT-34,Msida,Msida,"local council",
MT,MT-35,Mtarfa,Mtarfa,"local council",
MT,MT-36,Munxar,Munxar,"local council",
MT,MT-37,Nadur,Nadur,"local council",
MT,MT-38,Naxxar,Naxxar,"local council",
MT,MT-39,Paola,Paola,"local council",
MT,MT-40,Pembroke,Pembroke,"local council",
MT,MT-41,Pietà,Pietà,"local council",
MT,MT-42,Qala,Qala,"local council",
MT,MT-43,Qormi,Qormi,"local council",
MT,MT-44,Qrendi,Qrendi,"local council",
MT,MT-45,"Rabat Għawdex","Rabat Gozo","local council",
MT,MT-46,"Rabat Malta","Rabat Malta","local council",
MT,MT-47,Safi,Safi,"local council",
MT,MT-48,"San Ġiljan","Saint Julian's","local council",
MT,MT-49,"San Ġwann","Saint John","local council",
MT,MT-50,"San Lawrenz","Saint Lawrence","local council",
MT,MT-51,"San Pawl il-Baħar","Saint Paul's Bay","local council",
MT,MT-52,Sannat,Sannat,"local council",
MT,MT-53,"Santa Luċija","Saint Lucia's","local council",
MT,MT-54,"Santa Venera","Santa Venera","local council",
MT,MT-55,Siġġiewi,Siġġiewi,"local council",
MT,MT-56,Sliema,Sliema,"local council",
MT,MT-57,Swieqi,Swieqi,"local council",
MT,MT-58,"Ta' Xbiex","Ta' Xbiex","local council",
MT,MT-59,Tarxien,Tarxien,"local council",
MT,MT-60,Valletta,Valletta,"local council",
MT,MT-61,Xagħra,Xagħra,"local council",
MT,MT-62,Xewkija,Xewkija,"local council",
MT,MT-63,Xgħajra,Xgħajra,"local council",
MT,MT-64,Żabbar,Żabbar,"local council",
MT,MT-65,"Żebbuġ Għawdex","Żebbuġ Gozo","local council",
MT,MT-66,"Żebbuġ Malta","Żebbuġ Malta","local council",
MT,MT-67,Żejtun,Żejtun,"local council",
MT,MT-68,Żurrieq,Żurrieq,"local council",
MU,MU-AG,"Agalega Islands",,dependency,
MU,MU-BL,"Black River",,district,
MU,MU-CC,"Cargados Carajos Shoals",,dependency,
MU,MU-FL,Flacq,,district,
MU,MU-GP,"Grand Port",,district,
MU,MU-MO,Moka,,district,
MU,MU-PA,Pamplemousses,,district,
MU,MU-PW,"Plaines Wilhems",,district,
MU,MU-PL,"Port Louis",,district,
MU,MU-RR,"Rivière du Rempart",,district,
MU,MU-RO,"Rodrigues Island",,dependency,
MU,MU-SA,Savanne,,district,
MV,MV-01,Addu,"Addu City",city,
MV,MV-00,"Ariatholhu Dhekunuburi","South Ari Atoll","administrative atoll",
MV,MV-02,"Ariatholhu Uthuruburi","North Ari Atoll","administrative atoll",
MV,MV-03,Faadhippolhu,Faadhippolhu,"administrative atoll",
MV,MV-04,Felidheatholhu,"Felidhu Atoll","administrative atoll",
MV,MV-29,Fuvammulah,Fuvammulah,"administrative atoll",
MV,MV-05,Hahdhunmathi,Hahdhunmathi,"administrative atoll",
MV,MV-28,"Huvadhuatholhu Dhekunuburi","South Huvadhu Atoll","administrative atoll",
MV,MV-27,"Huvadhuatholhu Uthuruburi","North Huvadhu Atoll","administrative atoll",
MV,MV-08,Kolhumadulu,Kolhumadulu,"administrative atoll",
MV,MV-MLE,Maale,Male,city,
MV,MV-26,Maaleatholhu,"Male Atoll","administrative atoll",
MV,MV-20,"Maalhosmadulu Dhekunuburi","South Maalhosmadulu","administrative atoll",
MV,MV-13,"Maalhosmadulu Uthuruburi","North Maalhosmadulu","administrative atoll",
MV,MV-25,"Miladhunmadulu Dhekunuburi","South Miladhunmadulu","administrative atoll",
MV,MV-24,"Miladhunmadulu Uthuruburi","North Miladhunmadulu","administrative atoll",
MV,MV-12,Mulakatholhu,"Mulaku Atoll","administrative atoll",
MV,MV-17,"Nilandheatholhu Dhekunuburi","South Nilandhe Atoll","administrative atoll",
MV,MV-14,"Nilandheatholhu Uthuruburi","North Nilandhe Atoll","administrative atoll",
MV,MV-23,"Thiladhunmathee Dhekunuburi","South Thiladhunmathi","administrative atoll",
MV,MV-07,"Thiladhunmathee Uthuruburi","North Thiladhunmathi","administrative atoll",
MW,MW-N,Chakumpoto,"Northern Region",region,
MW,MW-S,Chakumwera,"Southern Region",region,
MW,MW-C,Chapakati,"Central Region",region,
MW,MW-BA,Balaka,,district,MW-S
MW,MW-BL,Blantyre,,district,MW-S
MW,MW-CK,Chikwawa,,district,MW-S
MW,MW-CR,Chiradzulu,,district,MW-S
MW,MW-CT,Chitipa,,district,MW-N
MW,MW-DE,Dedza,,district,MW-C
MW,MW-DO,Dowa,,district,MW-C
MW,MW-KR,Karonga,,district,MW-N
MW,MW-KS,Kasungu,,district,MW-C
MW,MW-LK,Likoma,,district,MW-N
MW,MW-LI,Lilongwe,,district,MW-C
MW,MW-MH,Machinga,,district,MW-S
MW,MW-MG,Mangochi,,district,MW-S
MW,MW-MC,Mchinji,,district,MW-C
MW,MW-MU,Mulanje,,district,MW-S
MW,MW-MW,Mwanza,,district,MW-S
MW,MW-MZ,Mzimba,,district,MW-N
MW,MW-NE,Neno,,district,MW-S
MW,MW-NB,"Nkhata Bay",,district,MW-N
MW,MW-NK,Nkhotakota,,district,MW-C
MW,MW-NS,Nsanje,,district,MW-S
MW,MW-NU,Ntcheu,,district,MW-C
MW,MW-NI,Ntchisi,,district,MW-C
MW,MW-PH,Phalombe,,district,MW-S
MW,MW-RU,Rumphi,,district,MW-N
MW,MW-SA,Salima,,district,MW-C
MW,MW-TH,Thyolo,,district,MW-S
MW,MW-ZO,Zomba,,district,MW-S
MX,MX-AGU,Aguascalientes,,state,
MX,MX-BCN,"Baja California",,state,
MX,MX-BCS,"Baja California Sur",,state,
MX,MX-CAM,Campeche,,state,
MX,MX-CHP,Chiapas,,state,
MX,MX-CHH,Chihuahua,,state,
MX,MX-CMX,"Ciudad de México",,"federal entity",
MX,MX-COA,"Coahuila de Zaragoza",,state,
MX,MX-COL,Colima,,state,
MX,MX-DUR,Durango,,state,
MX,MX-GUA,Guanajuato,,state,
MX,MX-GRO,Guerrero,,state,
MX,MX-HID,Hidalgo,,state,
MX,MX-JAL,Jalisco,,state,
MX,MX-MIC,"Michoacán de Ocampo",,state,
MX,MX-MOR,Morelos,,state,
MX,MX-MEX,México,,state,
MX,MX-NAY,Nayarit,,state,
MX,MX-NLE,"Nuevo León",,state,
MX,MX-OAX,Oaxaca,,state,
MX,MX-PUE,Puebla,,state,
MX,MX-QUE,Querétaro,,state,
MX,MX-ROO,"Quintana Roo",,state,
MX,MX-SLP,"San Luis Potosí",,state,
MX,MX-SIN,Sinaloa,,state,
MX,MX-SON,Sonora,,state,
MX,MX-TAB,Tabasco,,state,
MX,MX-TAM,Tamaulipas,,state,
MX,MX-TLA,Tlaxcala,,state,
MX,MX-VER,"Veracruz de Ignacio de la Llave",,state,
MX,MX-YUC,Yucatán,,state,
MX,MX-ZAC,Zacatecas,,state,
MY,MY-01,Johor,,state,
MY,MY-02,Kedah,,state,
MY,MY-03,Kelantan,,state,
MY,MY-04,Melaka,,state,
MY,MY-05,"Negeri Sembilan",,state,
MY,MY-06,Pahang,,state,
MY,MY-08,Perak,,state,
MY,MY-09,Perlis,,state,
MY,MY-07,"Pulau Pinang",,state,
MY,MY-12,Sabah,,state,
MY,MY-13,Sarawak,,state,
MY,MY-10,Selangor,,state,
MY,MY-11,Terengganu,,state,
MY,MY-14,"Wilayah Persekutuan Kuala Lumpur",,"federal territory",
MY,MY-15,"Wilayah Persekutuan Labuan",,"federal territory",
MY,MY-16,"Wilayah Persekutuan Putrajaya",,"federal territory",
MZ,MZ-P,"Cabo Delgado",,province,
MZ,MZ-G,Gaza,,province,
MZ,MZ-I,Inhambane,,province,
MZ,MZ-B,Manica,,province,
MZ,MZ-MPM,Maputo,,city,
MZ,MZ-L,Maputo,,province,
MZ,MZ-N,Nampula,,province,
MZ,MZ-A,Niassa,,province,
MZ,MZ-S,Sofala,,province,
MZ,MZ-T,Tete,,province,
MZ,MZ-Q,Zambézia,,province,
NA,NA-ER,Erongo,,region,
NA,NA-HA,Hardap,,region,
NA,NA-KA,//Karas,,region,
NA,NA-KE,"Kavango East",,region,
NA,NA-KW,"Kavango West",,region,
NA,NA-KH,Khomas,,region,
NA,NA-KU,Kunene,,region,
NA,NA-OW,Ohangwena,,region,
NA,NA-OH,Omaheke,,region,
NA,NA-OS,Omusati,,region,
NA,NA-ON,Oshana,,region,
NA,NA-OT,Oshikoto,,region,
NA,NA-OD,Otjozondjupa,,region,
NA,NA-CA,Zambezi,,region,
NE,NE-1,Agadez,,region,
NE,NE-2,Diffa,,region,
NE,NE-3,Dosso,,region,
NE,NE-4,Maradi,,region,
NE,NE-8,Niamey,,"urban community",
NE,NE-5,Tahoua,,region,
NE,NE-6,Tillabéri,,region,
NE,NE-7,Zinder,,region,
NG,NG-AB,Abia,,state,
NG,NG-FC,"Abuja Federal Capital Territory",,"capital territory",
NG,NG-AD,Adamawa,,state,
NG,NG-AK,"Akwa Ibom",,state,
NG,NG-AN,Anambra,,state,
NG,NG-BA,Bauchi,,state,
NG,NG-BY,Bayelsa,,state,
NG,NG-BE,Benue,,state,
NG,NG-BO,Borno,,state,
NG,NG-CR,"Cross River",,state,
NG,NG-DE,Delta,,state,
NG,NG-EB,Ebonyi,,state,
NG,NG-ED,Edo,,state,
NG,NG-EK,Ekiti,,state,
NG,NG-EN,Enugu,,state,
NG,NG-GO,Gombe,,state,
NG,NG-IM,Imo,,state,
NG,NG-JI,Jigawa,,state,
NG,NG-KD,Kaduna,,state,
NG,NG-KN,Kano,,state,
NG,NG-KT,Katsina,,state,
NG,NG-KE,Kebbi,,state,
NG,NG-KO,Kogi,,state,
NG,NG-KW,Kwara,,state,
NG,NG-LA,Lagos,,state,
NG,NG-NA,Nasarawa,,state,
NG,NG-NI,Niger,,state,
NG,NG-OG,Ogun,,state,
NG,NG-ON,Ondo,,state,
NG,NG-OS,Osun,,state,
NG,NG-OY,Oyo,,state,
NG,NG-PL,Plateau,,state,
NG,NG-RI,Rivers,,state,
NG,NG-SO,Sokoto,,state,
NG,NG-TA,Taraba,,state,
NG,NG-YO,Yobe,,state,
NG,NG-ZA,Zamfara,,state,
NI,NI-BO,Boaco,Boaco,department,
NI,NI-CA,Carazo,Carazo,department,
NI,NI-CI,Chinandega,Chinandega,department,
NI,NI-CO,Chontales,Chontales,department,
NI,NI-AN,"Costa Caribe Norte","North Caribbean Coast","autonomous region",
NI,NI-AS,"Costa Caribe Sur","South Caribbean Coast","autonomous region",
NI,NI-ES,Estelí,Estelí,department,
NI,NI-GR,Granada,Granada,department,
NI,NI-JI,Jinotega,Jinotega,department,
NI,NI-LE,León,León,department,
NI,NI-MD,Madriz,Madriz,department,
NI,NI-MN,Managua,Managua,department,
NI,NI-MS,Masaya,Masaya,department,
NI,NI-MT,Matagalpa,Matagalpa,department,
NI,NI-NS,"Nueva Segovia","New Segovia",department,
NI,NI-SJ,"Río San Juan","Saint John River",department,
NI,NI-RI,Rivas,Rivas,department,
NL,NL-DR,Drenthe,Drenthe,province,
NL,NL-FL,Flevoland,Flevoland,province,
NL,NL-FR,Fryslân,Friesland,province,
NL,NL-GE,Gelderland,Gelderland,province,
NL,NL-GR,Groningen,Groningen,province,
NL,NL-LI,Limburg,Limburg,province,
NL,NL-NB,Noord-Brabant,"North Brabant",province,
NL,NL-NH,Noord-Holland,"North Holland",province,
NL,NL-OV,Overijssel,Overijssel,province,
NL,NL-UT,Utrecht,Utrecht,province,
NL,NL-ZE,Zeeland,Zeeland,province,
NL,NL-ZH,Zuid-Holland,"South Holland",province,
NL,NL-AW,Aruba,,country,
NL,NL-CW,Curaçao,,country,
NL,NL-SX,"Sint Maarten",,country,
NL,NL-BQ1,Bonaire,,"special municipality",
NL,NL-BQ2,Saba,,"special municipality",
NL,NL-BQ3,"Sint Eustatius",,"special municipality",
NO,NO-42,Agder,Agder,county,
NO,NO-34,Innlandet,Inland,county,
NO,NO-22,"Jan Mayen","Jan Mayen","arctic region",
NO,NO-15,"Møre og Romsdal","More and Romsdal",county,
NO,NO-18,Nordland,Northland,county,
NO,NO-03,Oslo,Oslo,county,
NO,NO-11,Rogaland,Rogaland,county,
NO,NO-21,Svalbard,Svalbard,"arctic region",
NO,NO-54,"Troms og Finnmark","Troms and Finnmark",county,
NO,NO-50,Trøndelag,Trondelag,county,
NO,NO-38,"Vestfold og Telemark","Vestfold and Telemark",county,
NO,NO-46,Vestland,Westland,county,
NO,NO-30,Viken,Viken,county,
NP,NP-P3,Bāgmatī,बागमती,province,
NP,NP-P4,Gaṇḍakī,गण्डकी,province,
NP,NP-P6,Karṇālī,कर्णाली,province,
NP,NP-P1,Koshī,कोशी,province,
NP,NP-P5,Lumbinī,कोशी,province,
NP,NP-P2,Madhesh,मधेश,province,
NP,NP-P7,Sudūrpashchim,सुदूर-पश्चिम,province,
NR,NR-01,Aiwo,,district,
NR,NR-02,Anabar,,district,
NR,NR-03,Anetan,,district,
NR,NR-04,Anibare,,district,
NR,NR-05,Baitsi,,district,
NR,NR-06,Boe,,district,
NR,NR-07,Buada,,district,
NR,NR-08,Denigomodu,,district,
NR,NR-09,Ewa,,district,
NR,NR-10,Ijuw,,district,
NR,NR-11,Meneng,,district,
NR,NR-12,Nibok,,district,
NR,NR-13,Uaboe,,district,
NR,NR-14,Yaren,,district,
NZ,NZ-AUK,Auckland,,region,
NZ,NZ-BOP,"Bay of Plenty",,region,
NZ,NZ-CAN,Canterbury,,region,
NZ,NZ-CIT,"Chatham Islands Territory",,"special island authority",
NZ,NZ-GIS,Gisborne,,region,
NZ,NZ-WGN,"Greater Wellington",,region,
NZ,NZ-HKB,"Hawke's Bay",,region,
NZ,NZ-MWT,Manawatū-Whanganui,,region,
NZ,NZ-MBH,Marlborough,,region,
NZ,NZ-NSN,Nelson,,region,
NZ,NZ-NTL,Northland,,region,
NZ,NZ-OTA,Otago,,region,
NZ,NZ-STL,Southland,,region,
NZ,NZ-TKI,Taranaki,,region,
NZ,NZ-TAS,Tasman,,region,
NZ,NZ-WKO,Waikato,,region,
NZ,NZ-WTC,"West Coast",,region,
OM,OM-DA,"Ad Dākhilīyah",Interior,governorate,
OM,OM-BU,"Al Buraymī",Buraymi,governorate,
OM,OM-WU,"Al Wusţá",Central,governorate,
OM,OM-ZA,"Az̧ Z̧āhirah",Dhahira,governorate,
OM,OM-BJ,"Janūb al Bāţinah","South Batina",governorate,
OM,OM-SJ,"Janūb ash Sharqīyah",Southeastern,governorate,
OM,OM-MA,Masqaţ,Muscat,governorate,
OM,OM-MU,Musandam,Musandam,governorate,
OM,OM-BS,"Shamāl al Bāţinah","North Batina",governorate,
OM,OM-SS,"Shamāl ash Sharqīyah",Northeastern,governorate,
OM,OM-ZU,Z̧ufār,Dhofar,governorate,
PA,PA-1,"Bocas del Toro","Bocas del Toro",province,
PA,PA-4,Chiriquí,Chiriqui,province,
PA,PA-2,Coclé,Cocle,province,
PA,PA-3,Colón,Colon,province,
PA,PA-5,Darién,Darien,province,
PA,PA-EM,Emberá,Embera,"indigenous region",
PA,PA-KY,"Guna Yala","Guna Yala","indigenous region",
PA,PA-6,Herrera,Herrera,province,
PA,PA-7,"Los Santos","Los Santos",province,
PA,PA-NT,"Naso Tjër Di","Naso Tjer Di","indigenous region",
PA,PA-NB,Ngäbe-Buglé,Ngabe-Bugle,"indigenous region",
PA,PA-8,Panamá,Panama,province,
PA,PA-10,"Panamá Oeste","West Panama",province,
PA,PA-9,Veraguas,Veraguas,province,
PE,PE-AMA,Amazonas,,region,
PE,PE-ANC,Ancash,,region,
PE,PE-APU,Apurímac,,region,
PE,PE-ARE,Arequipa,,region,
PE,PE-AYA,Ayacucho,,region,
PE,PE-CAJ,Cajamarca,,region,
PE,PE-CUS,Cusco,,region,
PE,PE-CAL,"El Callao",,region,
PE,PE-HUV,Huancavelica,,region,
PE,PE-HUC,Huánuco,,region,
PE,PE-ICA,Ica,,region,
PE,PE-JUN,Junín,,region,
PE,PE-LAL,"La Libertad",,region,
PE,PE-LAM,Lambayeque,,region,
PE,PE-LIM,Lima,,region,
PE,PE-LOR,Loreto,,region,
PE,PE-MDD,"Madre de Dios",,region,
PE,PE-MOQ,Moquegua,,region,
PE,PE-LMA,"Municipalidad Metropolitana de Lima",,municipality,
PE,PE-PAS,Pasco,,region,
PE,PE-PIU,Piura,,region,
PE,PE-PUN,Puno,,region,
PE,PE-SAM,"San Martín",,region,
PE,PE-TAC,Tacna,,region,
PE,PE-TUM,Tumbes,,region,
PE,PE-UCA,Ucayali,,region,
PG,PG-NSB,Bougainville,,"autonomous region",
PG,PG-CPM,Central,,province,
PG,PG-CPK,Chimbu,,province,
PG,PG-EBR,"East New Britain",,province,
PG,PG-ESW,"East Sepik",,province,
PG,PG-EHG,"Eastern Highlands",,province,
PG,PG-EPW,Enga,,province,
PG,PG-GPK,Gulf,,province,
PG,PG-HLA,Hela,,province,
PG,PG-JWK,Jiwaka,,province,
PG,PG-MPM,Madang,,province,
PG,PG-MRL,Manus,,province,
PG,PG-MBA,"Milne Bay",,province,
PG,PG-MPL,Morobe,,province,
PG,PG-NCD,"National Capital District",,district,
PG,PG-NIK,"New Ireland",,province,
PG,PG-NPP,Northern,,province,
PG,PG-SHM,"Southern Highlands",,province,
PG,PG-WBK,"West New Britain",,province,
PG,PG-SAN,"West Sepik",,province,
PG,PG-WPD,Western,,province,
PG,PG-WHM,"Western Highlands",,province,
PH,PH-14,"Autonomous Region in Muslim Mindanao",,region,
PH,PH-05,Bicol,,region,
PH,PH-02,"Cagayan Valley",,region,
PH,PH-40,Calabarzon,,region,
PH,PH-13,Caraga,,region,
PH,PH-03,"Central Luzon",,region,
PH,PH-07,"Central Visayas",,region,
PH,PH-15,"Cordillera Administrative Region",,region,
PH,PH-11,Davao,,region,
PH,PH-08,"Eastern Visayas",,region,
PH,PH-01,Ilocos,,region,
PH,PH-41,Mimaropa,,region,
PH,PH-00,"National Capital Region",,region,
PH,PH-10,"Northern Mindanao",,region,
PH,PH-12,Soccsksargen,,region,
PH,PH-06,"Western Visayas",,region,
PH,PH-09,"Zamboanga Peninsula",,region,
PH,PH-ABR,Abra,,province,PH-15
PH,PH-AGN,"Agusan del Norte",,province,PH-13
PH,PH-AGS,"Agusan del Sur",,province,PH-13
PH,PH-AKL,Aklan,,province,PH-06
PH,PH-ALB,Albay,,province,PH-05
PH,PH-ANT,Antique,,province,PH-06
PH,PH-APA,Apayao,,province,PH-15
PH,PH-AUR,Aurora,,province,PH-03
PH,PH-BAS,Basilan,,province,PH-09
PH,PH-BAN,Bataan,,province,PH-03
PH,PH-BTN,Batanes,,province,PH-02
PH,PH-BTG,Batangas,,province,PH-40
PH,PH-BEN,Benguet,,province,PH-15
PH,PH-BIL,Biliran,,province,PH-08
PH,PH-BOH,Bohol,,province,PH-07
PH,PH-BUK,Bukidnon,,province,PH-10
PH,PH-BUL,Bulacan,,province,PH-03
PH,PH-CAG,Cagayan,,province,PH-02
PH,PH-CAN,"Camarines Norte",,province,PH-05
PH,PH-CAS,"Camarines Sur",,province,PH-05
PH,PH-CAM,Camiguin,,province,PH-10
PH,PH-CAP,Capiz,,province,PH-06
PH,PH-CAT,Catanduanes,,province,PH-05
PH,PH-CAV,Cavite,,province,PH-40
PH,PH-CEB,Cebu,,province,PH-07
PH,PH-NCO,Cotabato,,province,PH-12
PH,PH-COM,"Davao de Oro",,province,PH-11
PH,PH-DAV,"Davao del Norte",,province,PH-11
PH,PH-DAS,"Davao del Sur",,province,PH-11
PH,PH-DVO,"Davao Occidental",,province,PH-11
PH,PH-DAO,"Davao Oriental",,province,PH-11
PH,PH-DIN,"Dinagat Islands",,province,PH-13
PH,PH-EAS,"Eastern Samar",,province,PH-08
PH,PH-GUI,Guimaras,,province,PH-06
PH,PH-IFU,Ifugao,,province,PH-15
PH,PH-ILN,"Ilocos Norte",,province,PH-01
PH,PH-ILS,"Ilocos Sur",,province,PH-01
PH,PH-ILI,Iloilo,,province,PH-06
PH,PH-ISA,Isabela,,province,PH-02
PH,PH-KAL,Kalinga,,province,PH-15
PH,PH-LUN,"La Union",,province,PH-01
PH,PH-LAG,Laguna,,province,PH-40
PH,PH-LAN,"Lanao del Norte",,province,PH-12
PH,PH-LAS,"Lanao del Sur",,province,PH-14
PH,PH-LEY,Leyte,,province,PH-08
PH,PH-MAD,Marinduque,,province,PH-41
PH,PH-MAS,Masbate,,province,PH-05
PH,PH-MDC,"Mindoro Occidental",,province,PH-41
PH,PH-MDR,"Mindoro Oriental",,province,PH-41
PH,PH-MGN,"Maguindanao del Norte",,province,PH-14
PH,PH-MGS,"Maguindanao del Sur",,province,PH-14
PH,PH-MSC,"Misamis Occidental",,province,PH-10
PH,PH-MSR,"Misamis Oriental",,province,PH-10
PH,PH-MOU,"Mountain Province",,province,PH-15
PH,PH-NEC,"Negros Occidental",,province,PH-06
PH,PH-NER,"Negros Oriental",,province,PH-07
PH,PH-NSA,"Northern Samar",,province,PH-08
PH,PH-NUE,"Nueva Ecija",,province,PH-03
PH,PH-NUV,"Nueva Vizcaya",,province,PH-02
PH,PH-PLW,Palawan,,province,PH-41
PH,PH-PAM,Pampanga,,province,PH-03
PH,PH-PAN,Pangasinan,,province,PH-01
PH,PH-QUE,Quezon,,province,PH-40
PH,PH-QUI,Quirino,,province,PH-02
PH,PH-RIZ,Rizal,,province,PH-40
PH,PH-ROM,Romblon,,province,PH-41
PH,PH-WSA,Samar,,province,PH-08
PH,PH-SAR,Sarangani,,province,PH-11
PH,PH-SIG,Siquijor,,province,PH-07
PH,PH-SOR,Sorsogon,,province,PH-05
PH,PH-SCO,"South Cotabato",,province,PH-11
PH,PH-SLE,"Southern Leyte",,province,PH-08
PH,PH-SUK,"Sultan Kudarat",,province,PH-12
PH,PH-SLU,Sulu,,province,PH-14
PH,PH-SUN,"Surigao del Norte",,province,PH-13
PH,PH-SUR,"Surigao del Sur",,province,PH-13
PH,PH-TAR,Tarlac,,province,PH-03
PH,PH-TAW,Tawi-Tawi,,province,PH-14
PH,PH-ZMB,Zambales,,province,PH-03
PH,PH-ZAN,"Zamboanga del Norte",,province,PH-09
PH,PH-ZAS,"Zamboanga del Sur",,province,PH-09
PH,PH-ZSI,"Zamboanga Sibugay",,province,PH-09
PK,PK-JK,"Āzād Jammūñ o Kashmīr","Azad Jammu and Kashmir","pakistan administered area",
PK,PK-BA,Balōchistān,Balochistan,province,
PK,PK-GB,Gilgit-Baltistān,Gilgit-Baltistan,"pakistan administered area",
PK,PK-IS,Islāmābād,Islamabad,"federal capital territory",
PK,PK-KP,"Khaībar Pakhtūnkhwā","Khyber Pakhtunkhwa",province,
PK,PK-PB,Panjāb,Punjab,province,
PK,PK-SD,Sindh,Sindh,province,
PL,PL-02,Dolnośląskie,"Lower Silesia",voivodship,
PL,PL-04,Kujawsko-Pomorskie,Kuyavia-Pomerania,voivodship,
PL,PL-06,Lubelskie,Lublin,voivodship,
PL,PL-08,Lubuskie,Lubusz,voivodship,
PL,PL-10,Łódzkie,Łódź,voivodship,
PL,PL-12,Małopolskie,"Lesser Poland",voivodship,
PL,PL-14,Mazowieckie,Mazovia,voivodship,
PL,PL-16,Opolskie,Opole,voivodship,
PL,PL-18,Podkarpackie,Subcarpathia,voivodship,
PL,PL-20,Podlaskie,Podlaskie,voivodship,
PL,PL-22,Pomorskie,Pomerania,voivodship,
PL,PL-24,Śląskie,Silesia,voivodship,
PL,PL-26,Świętokrzyskie,"Holy Cross",voivodship,
PL,PL-28,Warmińsko-Mazurskie,Warmia-Masuria,voivodship,
PL,PL-30,Wielkopolskie,"Greater Poland",voivodship,
PL,PL-32,Zachodniopomorskie,"West Pomerania",voivodship,
PS,PS-BTH,"Bayt Laḩm",Bethlehem,governorate,
PS,PS-DEB,"Dayr al Balaḩ","Deir El Balah",governorate,
PS,PS-GZA,Ghazzah,Gaza,governorate,
PS,PS-HBN,"Al Khalīl",Hebron,governorate,
PS,PS-JEN,Janīn,Jenin,governorate,
PS,PS-JRH,"Arīḩā wal Aghwār","Jericho and Al Aghwar",governorate,
PS,PS-JEM,"Al Quds",Jerusalem,governorate,
PS,PS-KYS,"Khān Yūnis","Khan Yunis",governorate,
PS,PS-NBS,Nāblus,Nablus,governorate,
PS,PS-NGZ,"Shamāl Ghazzah","North Gaza",governorate,
PS,PS-QQA,Qalqīlyah,Qalqilya,governorate,
PS,PS-RFH,Rafaḩ,Rafah,governorate,
PS,PS-RBH,"Rām Allāh wal Bīrah",Ramallah,governorate,
PS,PS-SLT,Salfīt,Salfit,governorate,
PS,PS-TBS,Ţūbās,Tubas,governorate,
PS,PS-TKM,Ţūlkarm,Tulkarm,governorate,
PT,PT-01,Aveiro,Aveiro,district,
PT,PT-02,Beja,Beja,district,
PT,PT-03,Braga,Braga,district,
PT,PT-04,Bragança,Bragança,district,
PT,PT-05,"Castelo Branco","White Castle",district,
PT,PT-06,Coimbra,Coimbra,district,
PT,PT-07,Évora,Evora,district,
PT,PT-08,Faro,Faro,district,
PT,PT-09,Guarda,Guarda,district,
PT,PT-10,Leiria,Leiria,district,
PT,PT-11,Lisboa,Lisbon,district,
PT,PT-12,Portalegre,Portalegre,district,
PT,PT-13,Porto,Porto,district,
PT,PT-30,"Região Autónoma da Madeira",Madeira,"autonomous region",
PT,PT-20,"Região Autónoma dos Açores",Azores,"autonomous region",
PT,PT-14,Santarém,Santarém,district,
PT,PT-15,Setúbal,Setúbal,district,
PT,PT-16,"Viana do Castelo","Viana do Castelo",district,
PT,PT-17,"Vila Real","Royal Town",district,
PT,PT-18,Viseu,Viseu,district,
PW,PW-002,Aimeliik,,state,
PW,PW-004,Airai,,state,
PW,PW-010,Angaur,,state,
PW,PW-050,Hatohobei,,state,
PW,PW-100,Kayangel,,state,
PW,PW-150,Koror,,state,
PW,PW-212,Melekeok,,state,
PW,PW-214,Ngaraard,,state,
PW,PW-218,Ngarchelong,,state,
PW,PW-222,Ngardmau,,state,
PW,PW-224,Ngatpang,,state,
PW,PW-226,Ngchesar,,state,
PW,PW-227,Ngeremlengui,,state,
PW,PW-228,Ngiwal,,state,
PW,PW-350,Peleliu,,state,
PW,PW-370,Sonsorol,,state,
PY,PY-16,"Alto Paraguay","Upper Paraguay",department,
PY,PY-10,"Alto Paraná","Upper Parana",department,
PY,PY-13,Amambay,Amambay,department,
PY,PY-ASU,Asunción,Asuncion,capital,
PY,PY-19,Boquerón,Boqueron,department,
PY,PY-5,Caaguazú,Caaguazu,department,
PY,PY-6,Caazapá,Caazapa,department,
PY,PY-14,Canindeyú,Canindeyu,department,
PY,PY-11,Central,Central,department,
PY,PY-1,Concepción,Concepcion,department,
PY,PY-3,Cordillera,Cordillera,department,
PY,PY-4,Guairá,Guaira,department,
PY,PY-7,Itapúa,Itapua,department,
PY,PY-8,Misiones,Misiones,department,
PY,PY-12,Ñeembucú,Neembucu,department,
PY,PY-9,Paraguarí,Paraguari,department,
PY,PY-15,"Presidente Hayes","President Hayes",department,
PY,PY-2,"San Pedro","Saint Peter",department,
QA,QA-DA,"Ad Dawḩah",Doha,municipality,
QA,QA-KH,"Al Khawr wa adh Dhakhīrah",Khor,municipality,
QA,QA-WA,"Al Wakrah",Wakra,municipality,
QA,QA-RA,"Ar Rayyān",Rayyan,municipality,
QA,QA-MS,"Ash Shamāl",North,municipality,
QA,QA-SH,"Ash Shīḩānīyah",Shahaniya,municipality,
QA,QA-ZA,"Az̧ Z̧a‘āyin",Daayen,municipality,
QA,QA-US,"Umm Şalāl","Umm Salal",municipality,
RO,RO-AB,Alba,,department,
RO,RO-AR,Arad,,department,
RO,RO-AG,Argeș,,department,
RO,RO-BC,Bacău,,department,
RO,RO-BH,Bihor,,department,
RO,RO-BN,Bistrița-Năsăud,,department,
RO,RO-BT,Botoșani,,department,
RO,RO-BV,Brașov,,department,
RO,RO-BR,Brăila,,department,
RO,RO-B,București,,municipality,
RO,RO-BZ,Buzău,,department,
RO,RO-CS,Caraș-Severin,,department,
RO,RO-CL,Călărași,,department,
RO,RO-CJ,Cluj,,department,
RO,RO-CT,Constanța,,department,
RO,RO-CV,Covasna,,department,
RO,RO-DB,Dâmbovița,,department,
RO,RO-DJ,Dolj,,department,
RO,RO-GL,Galați,,department,
RO,RO-GR,Giurgiu,,department,
RO,RO-GJ,Gorj,,department,
RO,RO-HR,Harghita,,department,
RO,RO-HD,Hunedoara,,department,
RO,RO-IL,Ialomița,,department,
RO,RO-IS,Iași,,department,
RO,RO-IF,Ilfov,,department,
RO,RO-MM,Maramureș,,department,
RO,RO-MH,Mehedinți,,department,
RO,RO-MS,Mureș,,department,
RO,RO-NT,Neamț,,department,
RO,RO-OT,Olt,,department,
RO,RO-PH,Prahova,,department,
RO,RO-SM,"Satu Mare",,department,
RO,RO-SJ,Sălaj,,department,
RO,RO-SB,Sibiu,,department,
RO,RO-SV,Suceava,,department,
RO,RO-TR,Teleorman,,department,
RO,RO-TM,Timiș,,department,
RO,RO-TL,Tulcea,,department,
RO,RO-VS,Vaslui,,department,
RO,RO-VL,Vâlcea,,department,
RO,RO-VN,Vrancea,,department,
RS,RS-KM,Kosovo-Metohija,,"autonomus province",
RS,RS-VO,Vojvodina,,"autonomus province",
RS,RS-00,Beograd,Belgrade,city,
RS,RS-14,"Borski okrug",Bor,district,
RS,RS-11,"Braničevski okrug",Braničevo,district,
RS,RS-23,"Jablanički okrug",Jablanica,district,
RS,RS-06,"Južnobački okrug","South Bačka",district,RS-VO
RS,RS-04,"Južnobanatski okrug","South Banat",district,RS-VO
RS,RS-09,"Kolubarski okrug",Kolubara,district,
RS,RS-25,"Kosovski okrug",Kosovo,district,RS-KM
RS,RS-28,"Kosovsko-Mitrovački okrug",Kosovo-Mitrovica,district,RS-KM
RS,RS-29,"Kosovsko-Pomoravski okrug",Kosovo-Pomoravlje,district,RS-KM
RS,RS-08,"Mačvanski okrug",Mačva,district,
RS,RS-17,"Moravički okrug",Moravica,district,
RS,RS-20,"Nišavski okrug",Nišava,district,
RS,RS-24,"Pčinjski okrug",Pčinja,district,
RS,RS-26,"Pećki okrug",Peć,district,RS-KM
RS,RS-22,"Pirotski okrug",Pirot,district,
RS,RS-10,"Podunavski okrug",Podunavlje,district,
RS,RS-13,"Pomoravski okrug",Pomoravlje,district,
RS,RS-27,"Prizrenski okrug",Prizren,district,RS-KM
RS,RS-19,"Rasinski okrug",Rasina,district,
RS,RS-18,"Raški okrug",Raška,district,
RS,RS-01,"Severnobački okrug","North Bačka",district,RS-VO
RS,RS-03,"Severnobanatski okrug","North Banat",district,RS-VO
RS,RS-02,"Srednjebanatski okrug","Central Banat",district,RS-VO
RS,RS-07,"Sremski okrug",Srem,district,RS-VO
RS,RS-12,"Šumadijski okrug",Šumadija,district,
RS,RS-21,"Toplički okrug",Toplica,district,
RS,RS-15,"Zaječarski okrug",Zaječar,district,
RS,RS-05,"Zapadnobački okrug","West Bačka",district,RS-VO
RS,RS-16,"Zlatiborski okrug",Zlatibor,district,
RU,RU-AD,"Adygeya, Respublika",Adygea,republic,
RU,RU-AL,"Altay, Respublika",Gorno-Altai,republic,
RU,RU-ALT,"Altayskiy kray",Altai,"administrative territory",
RU,RU-AMU,"Amurskaya oblast'",Amur,"administrative region",
RU,RU-ARK,"Arkhangel'skaya oblast'",Arkhangelsk,"administrative region",
RU,RU-AST,"Astrakhanskaya oblast'",Astrakhan,"administrative region",
RU,RU-BA,"Bashkortostan, Respublika",Bashkortostan,republic,
RU,RU-BEL,"Belgorodskaya oblast'",Belgorod,"administrative region",
RU,RU-BRY,"Bryanskaya oblast'",Bryansk,"administrative region",
RU,RU-BU,"Buryatiya, Respublika",Buryatia,republic,
RU,RU-CE,"Chechenskaya Respublika",Chechnya,republic,
RU,RU-CHE,"Chelyabinskaya oblast'",Chelyabinsk,"administrative region",
RU,RU-CHU,"Chukotskiy avtonomnyy okrug",Chukotka,"autonomous district",
RU,RU-CU,"Chuvashskaya Respublika",Chuvashia,republic,
RU,RU-DA,"Dagestan, Respublika",Dagestan,republic,
RU,RU-IN,"Ingushetiya, Respublika",Ingushetia,republic,
RU,RU-IRK,"Irkutskaya oblast'",Irkutsk,"administrative region",
RU,RU-IVA,"Ivanovskaya oblast'",Ivanovo,"administrative region",
RU,RU-KB,"Kabardino- Balkarskaya Respublika","Kabardino- Balkaria",republic,
RU,RU-KGD,"Kaliningradskaya oblast'",Kaliningrad,"administrative region",
RU,RU-KL,"Kalmykiya, Respublika",Kalmykia,republic,
RU,RU-KLU,"Kaluzhskaya oblast'",Kaluga,"administrative region",
RU,RU-KAM,"Kamchatskiy kray",Kamchatka,"administrative territory",
RU,RU-KC,"Karachayevo-Cherkesskaya Respublika",Karachay-Cherkessia,republic,
RU,RU-KR,"Kareliya, Respublika",Karelia,republic,
RU,RU-KEM,"Kemerovskaya oblast'",Kemerovo,"administrative region",
RU,RU-KHA,"Khabarovskiy kray",Khabarovsk,"administrative territory",
RU,RU-KK,"Khakasiya, Respublika",Khakassia,republic,
RU,RU-KHM,"Khanty- Mansiyskiy avtonomnyy okrug",Yugoria,"autonomous district",
RU,RU-KIR,"Kirovskaya oblast'",Kirov,"administrative region",
RU,RU-KO,"Komi, Respublika",Komi,republic,
RU,RU-KOS,"Kostromskaya oblast'",Kostroma,"administrative region",
RU,RU-KDA,"Krasnodarskiy kray",Krasnodar,"administrative territory",
RU,RU-KYA,"Krasnoyarskiy kray",Krasnoyarsk,"administrative territory",
RU,RU-KGN,"Kurganskaya oblast'",Kurgan,"administrative region",
RU,RU-KRS,"Kurskaya oblast'",Kursk,"administrative region",
RU,RU-LEN,"Leningradskaya oblast'",Leningrad,"administrative region",
RU,RU-LIP,"Lipetskaya oblast'",Lipetsk,"administrative region",
RU,RU-MAG,"Magadanskaya oblast'",Magadan,"administrative region",
RU,RU-ME,"Mariy El, Respublika","Mari El",republic,
RU,RU-MO,"Mordoviya, Respublika",Mordovia,republic,
RU,RU-MOS,"Moskovskaya oblast'",Moscow,"administrative region",
RU,RU-MOW,Moskva,"Moscow City","autonomous city",
RU,RU-MUR,"Murmanskaya oblast'",Murmansk,"administrative region",
RU,RU-NEN,"Nenetskiy avtonomnyy okrug",Nenetsia,"autonomous district",
RU,RU-NIZ,"Nizhegorodskaya oblast'","Nizhny Novgorod","administrative region",
RU,RU-NGR,"Novgorodskaya oblast'",Novgorod,"administrative region",
RU,RU-NVS,"Novosibirskaya oblast'",Novosibirsk,"administrative region",
RU,RU-OMS,"Omskaya oblast'",Omsk,"administrative region",
RU,RU-ORE,"Orenburgskaya oblast'",Orenburg,"administrative region",
RU,RU-ORL,"Orlovskaya oblast'",Oryol,"administrative region",
RU,RU-PNZ,"Penzenskaya oblast'",Penza,"administrative region",
RU,RU-PER,"Permskiy kray",Perm,"administrative territory",
RU,RU-PRI,"Primorskiy kray",Primorye,"administrative territory",
RU,RU-PSK,"Pskovskaya oblast'",Pskov,"administrative region",
RU,RU-ROS,"Rostovskaya oblast'",Rostov,"administrative region",
RU,RU-RYA,"Ryazanskaya oblast'",Ryazan,"administrative region",
RU,RU-SA,"Saha, Respublika",Yakutia,republic,
RU,RU-SAK,"Sakhalinskaya oblast'",Sakhalin,"administrative region",
RU,RU-SAM,"Samarskaya oblast'",Samara,"administrative region",
RU,RU-SPE,Sankt-Peterburg,"Saint Petersburg","autonomous city",
RU,RU-SAR,"Saratovskaya oblast'",Saratov,"administrative region",
RU,RU-SE,"Severnaya Osetiya, Respublika","North Ossetia",republic,
RU,RU-SMO,"Smolenskaya oblast'",Smolensk,"administrative region",
RU,RU-STA,"Stavropol'skiy kray",Stavropol,"administrative territory",
RU,RU-SVE,"Sverdlovskaya oblast'",Sverdlovsk,"administrative region",
RU,RU-TAM,"Tambovskaya oblast'",Tambov,"administrative region",
RU,RU-TA,"Tatarstan, Respublika",Tatarstan,republic,
RU,RU-TOM,"Tomskaya oblast'",Tomsk,"administrative region",
RU,RU-TUL,"Tul'skaya oblast'",Tula,"administrative region",
RU,RU-TVE,"Tverskaya oblast'",Tver,"administrative region",
RU,RU-TYU,"Tyumenskaya oblast'",Tyumen,"administrative region",
RU,RU-TY,"Tyva, Respublika",Tuva,republic,
RU,RU-UD,"Udmurtskaya Respublika",Udmurtia,republic,
RU,RU-ULY,"Ul'yanovskaya oblast'",Ulyanovsk,"administrative region",
RU,RU-VLA,"Vladimirskaya oblast'",Vladimir,"administrative region",
RU,RU-VGG,"Volgogradskaya oblast'",Volgograd,"administrative region",
RU,RU-VLG,"Vologodskaya oblast'",Vologda,"administrative region",
RU,RU-VOR,"Voronezhskaya oblast'",Voronezh,"administrative region",
RU,RU-YAN,"Yamalo- Nenetskiy avtonomnyy okrug",Yamalia,"autonomous district",
RU,RU-YAR,"Yaroslavskaya oblast'",Yaroslavl,"administrative region",
RU,RU-YEV,"Yevreyskaya avtonomnaya oblast'","Jewish Autonomous Oblast","autonomous region",
RU,RU-ZAB,"Zabaykal'skiy kray",Transbaikalia,"administrative territory",
RW,RW-01,"City of Kigali",,city,
RW,RW-02,Eastern,,province,
RW,RW-03,Northern,,province,
RW,RW-05,Southern,,province,
RW,RW-04,Western,,province,
SA,SA-14,'Asīr,Asir,region,
SA,SA-11,"Al Bāḩah",Baha,region,
SA,SA-08,"Al Ḩudūd ash Shamālīyah","Northern Borders",region,
SA,SA-12,"Al Jawf",Jouf,region,
SA,SA-03,"Al Madīnah al Munawwarah",Medina,region,
SA,SA-05,"Al Qaşīm",Qassim,region,
SA,SA-01,"Ar Riyāḑ",Riyadh,region,
SA,SA-04,"Ash Sharqīyah",Eastern,region,
SA,SA-06,Ḩā'il,Ha’il,region,
SA,SA-09,Jāzān,Jizan,region,
SA,SA-02,"Makkah al Mukarramah",Mecca,region,
SA,SA-10,Najrān,Najran,region,
SA,SA-07,Tabūk,Tabuk,region,
SB,SB-CT,"Capital Territory",,"capital territory",
SB,SB-CE,Central,,province,
SB,SB-CH,Choiseul,,province,
SB,SB-GU,Guadalcanal,,province,
SB,SB-IS,Isabel,,province,
SB,SB-MK,Makira-Ulawa,,province,
SB,SB-ML,Malaita,,province,
SB,SB-RB,"Rennell and Bellona",,province,
SB,SB-TE,Temotu,,province,
SB,SB-WE,Western,,province,
SC,SC-01,"Anse aux Pins",,district,
SC,SC-02,"Anse Boileau",,district,
SC,SC-03,"Anse Etoile",,district,
SC,SC-05,"Anse Royale",,district,
SC,SC-04,"Au Cap",,district,
SC,SC-06,"Baie Lazare",,district,
SC,SC-07,"Baie Sainte Anne",,district,
SC,SC-08,"Beau Vallon",,district,
SC,SC-09,"Bel Air",,district,
SC,SC-10,"Bel Ombre",,district,
SC,SC-11,Cascade,,district,
SC,SC-16,"English River",,district,
SC,SC-12,Glacis,,district,
SC,SC-13,"Grand Anse Mahe",,district,
SC,SC-14,"Grand Anse Praslin",,district,
SC,SC-26,"Ile Perseverance I",,district,
SC,SC-27,"Ile Perseverance II",,district,
SC,SC-15,"La Digue",,district,
SC,SC-24,"Les Mamelles",,district,
SC,SC-17,"Mont Buxton",,district,
SC,SC-18,"Mont Fleuri",,district,
SC,SC-19,Plaisance,,district,
SC,SC-20,"Pointe Larue",,district,
SC,SC-21,"Port Glaud",,district,
SC,SC-25,"Roche Caiman",,district,
SC,SC-22,"Saint Louis",,district,
SC,SC-23,Takamaka,,district,
SD,SD-RS,"Al Baḩr al Aḩmar","Red Sea",state,
SD,SD-GZ,"Al Jazīrah",Gezira,state,
SD,SD-KH,"Al Kharţūm",Khartoum,state,
SD,SD-GD,"Al Qaḑārif",Gedaref,state,
SD,SD-NW,"An Nīl al Abyaḑ","White Nile",state,
SD,SD-NB,"An Nīl al Azraq","Blue Nile",state,
SD,SD-NO,"Ash Shamālīyah",Northern,state,
SD,SD-DW,"Gharb Dārfūr","West Darfur",state,
SD,SD-GK,"Gharb Kurdufān","West Kordofan",state,
SD,SD-DS,"Janūb Dārfūr","South Darfur",state,
SD,SD-KS,"Janūb Kurdufān","South Kordofan",state,
SD,SD-KA,Kassalā,Kassala,state,
SD,SD-NR,"Nahr an Nīl","River Nile",state,
SD,SD-DN,"Shamāl Dārfūr","North Darfur",state,
SD,SD-KN,"Shamāl Kurdufān","North Kordofan",state,
SD,SD-DE,"Sharq Dārfūr","East Darfur",state,
SD,SD-SI,Sinnār,Sennar,state,
SD,SD-DC,"Wasaţ Dārfūr","Central Darfur (local variant: Zalingei)",state,
SE,SE-K,"Blekinge län",Blekinge,county,
SE,SE-W,"Dalarnas län",Dalarna,county,
SE,SE-I,"Gotlands län",Gotland,county,
SE,SE-X,"Gävleborgs län",Gävleborg,county,
SE,SE-N,"Hallands län",Halland,county,
SE,SE-Z,"Jämtlands län",Jämtland,county,
SE,SE-F,"Jönköpings län",Jönköping,county,
SE,SE-H,"Kalmar län",Kalmar,county,
SE,SE-G,"Kronobergs län",Kronoberg,county,
SE,SE-BD,"Norrbottens län",Norrbotten,county,
SE,SE-M,"Skåne län",Scania,county,
SE,SE-AB,"Stockholms län",Stockholm,county,
SE,SE-D,"Södermanlands län",Södermanland,county,
SE,SE-C,"Uppsala län",Uppsala,county,
SE,SE-S,"Värmlands län",Värmland,county,
SE,SE-AC,"Västerbottens län",Västerbotten,county,
SE,SE-Y,"Västernorrlands län","Western Northland",county,
SE,SE-U,"Västmanlands län",Västmanland,county,
SE,SE-O,"Västra Götalands län","Västra Götaland",county,
SE,SE-T,"Örebro län",Örebro,county,
SE,SE-E,"Östergötlands län",Östergötland,county,
SG,SG-01,"Central Singapore",,district,
SG,SG-02,"North East",,district,
SG,SG-03,"North West",,district,
SG,SG-04,"South East",,district,
SG,SG-05,"South West",,district,
SH,SH-AC,Ascension,,"geographical region",
SH,SH-HL,"Saint Helena",,"geographical region",
SH,SH-TA,"Tristan da Cunha",,"geographical region",
SI,SI-001,Ajdovščina,,municipality,
SI,SI-213,Ankaran,,municipality,
SI,SI-195,Apače,,municipality,
SI,SI-002,Beltinci,,municipality,
SI,SI-148,Benedikt,,municipality,
SI,SI-149,"Bistrica ob Sotli",,municipality,
SI,SI-003,Bled,,municipality,
SI,SI-150,Bloke,,municipality,
SI,SI-004,Bohinj,,municipality,
SI,SI-005,Borovnica,,municipality,
SI,SI-006,Bovec,,municipality,
SI,SI-151,Braslovče,,municipality,
SI,SI-007,Brda,,municipality,
SI,SI-008,Brezovica,,municipality,
SI,SI-009,Brežice,,municipality,
SI,SI-152,Cankova,,municipality,
SI,SI-011,Celje,,"urban municipality",
SI,SI-012,"Cerklje na Gorenjskem",,municipality,
SI,SI-013,Cerknica,,municipality,
SI,SI-014,Cerkno,,municipality,
SI,SI-153,Cerkvenjak,,municipality,
SI,SI-196,Cirkulane,,municipality,
SI,SI-015,Črenšovci,,municipality,
SI,SI-016,"Črna na Koroškem",,municipality,
SI,SI-017,Črnomelj,,municipality,
SI,SI-018,Destrnik,,municipality,
SI,SI-019,Divača,,municipality,
SI,SI-154,Dobje,,municipality,
SI,SI-020,Dobrepolje,,municipality,
SI,SI-155,Dobrna,,municipality,
SI,SI-021,"Dobrova-Polhov Gradec",,municipality,
SI,SI-156,Dobrovnik,,municipality,
SI,SI-022,"Dol pri Ljubljani",,municipality,
SI,SI-157,"Dolenjske Toplice",,municipality,
SI,SI-023,Domžale,,municipality,
SI,SI-024,Dornava,,municipality,
SI,SI-025,Dravograd,,municipality,
SI,SI-026,Duplek,,municipality,
SI,SI-027,"Gorenja vas-Poljane",,municipality,
SI,SI-028,Gorišnica,,municipality,
SI,SI-207,Gorje,,municipality,
SI,SI-029,"Gornja Radgona",,municipality,
SI,SI-030,"Gornji Grad",,municipality,
SI,SI-031,"Gornji Petrovci",,municipality,
SI,SI-158,Grad,,municipality,
SI,SI-032,Grosuplje,,municipality,
SI,SI-159,Hajdina,,municipality,
SI,SI-160,Hoče-Slivnica,,municipality,
SI,SI-161,Hodoš,,municipality,
SI,SI-162,Horjul,,municipality,
SI,SI-034,Hrastnik,,municipality,
SI,SI-035,Hrpelje-Kozina,,municipality,
SI,SI-036,Idrija,,municipality,
SI,SI-037,Ig,,municipality,
SI,SI-038,"Ilirska Bistrica",,municipality,
SI,SI-039,"Ivančna Gorica",,municipality,
SI,SI-040,Izola,,municipality,
SI,SI-041,Jesenice,,municipality,
SI,SI-163,Jezersko,,municipality,
SI,SI-042,Juršinci,,municipality,
SI,SI-043,Kamnik,,municipality,
SI,SI-044,"Kanal ob Soči",,municipality,
SI,SI-045,Kidričevo,,municipality,
SI,SI-046,Kobarid,,municipality,
SI,SI-047,Kobilje,,municipality,
SI,SI-048,Kočevje,,municipality,
SI,SI-049,Komen,,municipality,
SI,SI-164,Komenda,,municipality,
SI,SI-050,Koper,,"urban municipality",
SI,SI-197,"Kostanjevica na Krki",,municipality,
SI,SI-165,Kostel,,municipality,
SI,SI-051,Kozje,,municipality,
SI,SI-052,Kranj,,"urban municipality",
SI,SI-053,"Kranjska Gora",,municipality,
SI,SI-166,Križevci,,municipality,
SI,SI-054,Krško,,"urban municipality",
SI,SI-055,Kungota,,municipality,
SI,SI-056,Kuzma,,municipality,
SI,SI-057,Laško,,municipality,
SI,SI-058,Lenart,,municipality,
SI,SI-059,Lendava,,municipality,
SI,SI-060,Litija,,municipality,
SI,SI-061,Ljubljana,,"urban municipality",
SI,SI-062,Ljubno,,municipality,
SI,SI-063,Ljutomer,,municipality,
SI,SI-208,Log-Dragomer,,municipality,
SI,SI-064,Logatec,,municipality,
SI,SI-065,"Loška dolina",,municipality,
SI,SI-066,"Loški Potok",,municipality,
SI,SI-167,"Lovrenc na Pohorju",,municipality,
SI,SI-067,Luče,,municipality,
SI,SI-068,Lukovica,,municipality,
SI,SI-069,Majšperk,,municipality,
SI,SI-198,Makole,,municipality,
SI,SI-070,Maribor,,"urban municipality",
SI,SI-168,Markovci,,municipality,
SI,SI-071,Medvode,,municipality,
SI,SI-072,Mengeš,,municipality,
SI,SI-073,Metlika,,municipality,
SI,SI-074,Mežica,,municipality,
SI,SI-169,"Miklavž na Dravskem polju",,municipality,
SI,SI-075,Miren-Kostanjevica,,municipality,
SI,SI-212,Mirna,,municipality,
SI,SI-170,"Mirna Peč",,municipality,
SI,SI-076,Mislinja,,municipality,
SI,SI-199,Mokronog-Trebelno,,municipality,
SI,SI-077,Moravče,,municipality,
SI,SI-078,"Moravske Toplice",,municipality,
SI,SI-079,Mozirje,,municipality,
SI,SI-080,"Murska Sobota",,"urban municipality",
SI,SI-081,Muta,,municipality,
SI,SI-082,Naklo,,municipality,
SI,SI-083,Nazarje,,municipality,
SI,SI-084,"Nova Gorica",,"urban municipality",
SI,SI-085,"Novo Mesto",,"urban municipality",
SI,SI-086,Odranci,,municipality,
SI,SI-171,Oplotnica,,municipality,
SI,SI-087,Ormož,,municipality,
SI,SI-088,Osilnica,,municipality,
SI,SI-089,Pesnica,,municipality,
SI,SI-090,Piran,,municipality,
SI,SI-091,Pivka,,municipality,
SI,SI-092,Podčetrtek,,municipality,
SI,SI-172,Podlehnik,,municipality,
SI,SI-093,Podvelka,,municipality,
SI,SI-200,Poljčane,,municipality,
SI,SI-173,Polzela,,municipality,
SI,SI-094,Postojna,,municipality,
SI,SI-174,Prebold,,municipality,
SI,SI-095,Preddvor,,municipality,
SI,SI-175,Prevalje,,municipality,
SI,SI-096,Ptuj,,"urban municipality",
SI,SI-097,Puconci,,municipality,
SI,SI-098,Rače-Fram,,municipality,
SI,SI-099,Radeče,,municipality,
SI,SI-100,Radenci,,municipality,
SI,SI-101,"Radlje ob Dravi",,municipality,
SI,SI-102,Radovljica,,municipality,
SI,SI-103,"Ravne na Koroškem",,municipality,
SI,SI-176,Razkrižje,,municipality,
SI,SI-209,"Rečica ob Savinji",,municipality,
SI,SI-201,Renče-Vogrsko,,municipality,
SI,SI-104,Ribnica,,municipality,
SI,SI-177,"Ribnica na Pohorju",,municipality,
SI,SI-106,"Rogaška Slatina",,municipality,
SI,SI-105,Rogašovci,,municipality,
SI,SI-107,Rogatec,,municipality,
SI,SI-108,Ruše,,municipality,
SI,SI-178,"Selnica ob Dravi",,municipality,
SI,SI-109,Semič,,municipality,
SI,SI-110,Sevnica,,municipality,
SI,SI-111,Sežana,,municipality,
SI,SI-112,"Slovenj Gradec",,"urban municipality",
SI,SI-113,"Slovenska Bistrica",,municipality,
SI,SI-114,"Slovenske Konjice",,municipality,
SI,SI-179,Sodražica,,municipality,
SI,SI-180,Solčava,,municipality,
SI,SI-202,"Središče ob Dravi",,municipality,
SI,SI-115,Starše,,municipality,
SI,SI-203,Straža,,municipality,
SI,SI-181,"Sveta Ana",,municipality,
SI,SI-204,"Sveta Trojica v Slovenskih goricah",,municipality,
SI,SI-182,"Sveti Andraž v Slovenskih goricah",,municipality,
SI,SI-116,"Sveti Jurij ob Ščavnici",,municipality,
SI,SI-210,"Sveti Jurij v Slovenskih goricah",,municipality,
SI,SI-205,"Sveti Tomaž",,municipality,
SI,SI-033,Šalovci,,municipality,
SI,SI-183,Šempeter-Vrtojba,,municipality,
SI,SI-117,Šenčur,,municipality,
SI,SI-118,Šentilj,,municipality,
SI,SI-119,Šentjernej,,municipality,
SI,SI-120,Šentjur,,municipality,
SI,SI-211,Šentrupert,,municipality,
SI,SI-121,Škocjan,,municipality,
SI,SI-122,"Škofja Loka",,municipality,
SI,SI-123,Škofljica,,municipality,
SI,SI-124,"Šmarje pri Jelšah",,municipality,
SI,SI-206,"Šmarješke Toplice",,municipality,
SI,SI-125,"Šmartno ob Paki",,municipality,
SI,SI-194,"Šmartno pri Litiji",,municipality,
SI,SI-126,Šoštanj,,municipality,
SI,SI-127,Štore,,municipality,
SI,SI-184,Tabor,,municipality,
SI,SI-010,Tišina,,municipality,
SI,SI-128,Tolmin,,municipality,
SI,SI-129,Trbovlje,,municipality,
SI,SI-130,Trebnje,,municipality,
SI,SI-185,"Trnovska Vas",,municipality,
SI,SI-186,Trzin,,municipality,
SI,SI-131,Tržič,,municipality,
SI,SI-132,Turnišče,,municipality,
SI,SI-133,Velenje,,"urban municipality",
SI,SI-187,"Velika Polana",,municipality,
SI,SI-134,"Velike Lašče",,municipality,
SI,SI-188,Veržej,,municipality,
SI,SI-135,Videm,,municipality,
SI,SI-136,Vipava,,municipality,
SI,SI-137,Vitanje,,municipality,
SI,SI-138,Vodice,,municipality,
SI,SI-139,Vojnik,,municipality,
SI,SI-189,Vransko,,municipality,
SI,SI-140,Vrhnika,,municipality,
SI,SI-141,Vuzenica,,municipality,
SI,SI-142,"Zagorje ob Savi",,municipality,
SI,SI-143,Zavrč,,municipality,
SI,SI-144,Zreče,,municipality,
SI,SI-190,Žalec,,municipality,
SI,SI-146,Železniki,,municipality,
SI,SI-191,Žetale,,municipality,
SI,SI-147,Žiri,,municipality,
SI,SI-192,Žirovnica,,municipality,
SI,SI-193,Žužemberk,,municipality,
SK,SK-BC,"Banskobystrický kraj","Banská Bystrica",region,
SK,SK-BL,"Bratislavský kraj",Bratislava,region,
SK,SK-KI,"Košický kraj",Košice,region,
SK,SK-NI,"Nitriansky kraj",Nitra,region,
SK,SK-PV,"Prešovský kraj",Prešov,region,
SK,SK-TC,"Trenčiansky kraj",Trenčín,region,
SK,SK-TA,"Trnavský kraj",Trnava,region,
SK,SK-ZI,"Žilinský kraj",Žilina,region,
SL,SL-E,Eastern,,province,
SL,SL-NW,"North Western",,province,
SL,SL-N,Northern,,province,
SL,SL-S,Southern,,province,
SL,SL-W,"Western Area",,area,
SM,SM-01,Acquaviva,,municipality,
SM,SM-06,"Borgo Maggiore",,municipality,
SM,SM-02,Chiesanuova,,municipality,
SM,SM-07,"Città di San Marino",,municipality,
SM,SM-03,Domagnano,,municipality,
SM,SM-04,Faetano,,municipality,
SM,SM-05,Fiorentino,,municipality,
SM,SM-08,Montegiardino,,municipality,
SM,SM-09,Serravalle,,municipality,
SN,SN-DK,Dakar,,region,
SN,SN-DB,Diourbel,,region,
SN,SN-FK,Fatick,,region,
SN,SN-KA,Kaffrine,,region,
SN,SN-KL,Kaolack,,region,
SN,SN-KE,Kédougou,,region,
SN,SN-KD,Kolda,,region,
SN,SN-LG,Louga,,region,
SN,SN-MT,Matam,,region,
SN,SN-SL,Saint-Louis,,region,
SN,SN-SE,Sédhiou,,region,
SN,SN-TC,Tambacounda,,region,
SN,SN-TH,Thiès,,region,
SN,SN-ZG,Ziguinchor,,region,
SO,SO-AW,Awdal,Awdal,region,
SO,SO-BK,Bakool,Bakool,region,
SO,SO-BN,Banaadir,Banaadir,region,
SO,SO-BR,Bari,Bari,region,
SO,SO-BY,Bay,Bay,region,
SO,SO-GA,Galguduud,Galguduud,region,
SO,SO-GE,Gedo,Gedo,region,
SO,SO-HI,Hiiraan,Hiiraan,region,
SO,SO-JD,"Jubbada Dhexe","Middle Juba",region,
SO,SO-JH,"Jubbada Hoose","Lower Juba",region,
SO,SO-MU,Mudug,Mudug,region,
SO,SO-NU,Nugaal,Nugaal,region,
SO,SO-SA,Sanaag,Sanaag,region,
SO,SO-SD,"Shabeellaha Dhexe","Middle Shabelle",region,
SO,SO-SH,"Shabeellaha Hoose","Lower Shabelle",region,
SO,SO-SO,Sool,Sool,region,
SO,SO-TO,Togdheer,Togdheer,region,
SO,SO-WO,"Woqooyi Galbeed",Northwest,region,
SR,SR-BR,Brokopondo,,district,
SR,SR-CM,Commewijne,,district,
SR,SR-CR,Coronie,,district,
SR,SR-MA,Marowijne,,district,
SR,SR-NI,Nickerie,,district,
SR,SR-PR,Para,,district,
SR,SR-PM,Paramaribo,,district,
SR,SR-SA,Saramacca,,district,
SR,SR-SI,Sipaliwini,,district,
SR,SR-WA,Wanica,,district,
SS,SS-EC,"Central Equatoria",,state,
SS,SS-EE,"Eastern Equatoria",,state,
SS,SS-JG,Jonglei,,state,
SS,SS-LK,Lakes,,state,
SS,SS-BN,"Northern Bahr el Ghazal",,state,
SS,SS-UY,Unity,,state,
SS,SS-NU,"Upper Nile",,state,
SS,SS-WR,Warrap,,state,
SS,SS-BW,"Western Bahr el Ghazal",,state,
SS,SS-EW,"Western Equatoria",,state,
ST,ST-01,"Água Grande",,district,
ST,ST-02,Cantagalo,,district,
ST,ST-03,Caué,,district,
ST,ST-04,Lembá,,district,
ST,ST-05,Lobata,,district,
ST,ST-06,Mé-Zóchi,,district,
ST,ST-P,Príncipe,,"autonomous region",
SV,SV-AH,Ahuachapán,,department,
SV,SV-CA,Cabañas,,department,
SV,SV-CH,Chalatenango,,department,
SV,SV-CU,Cuscatlán,,department,
SV,SV-LI,"La Libertad",,department,
SV,SV-PA,"La Paz",,department,
SV,SV-UN,"La Unión",,department,
SV,SV-MO,Morazán,,department,
SV,SV-SM,"San Miguel",,department,
SV,SV-SS,"San Salvador",,department,
SV,SV-SV,"San Vicente",,department,
SV,SV-SA,"Santa Ana",,department,
SV,SV-SO,Sonsonate,,department,
SV,SV-US,Usulután,,department,
SY,SY-HA,"Al Ḩasakah",Hasaka,province,
SY,SY-LA,"Al Lādhiqīyah",Latakia,province,
SY,SY-QU,"Al Qunayţirah",Quneitra,province,
SY,SY-RA,"Ar Raqqah",Raqqa,province,
SY,SY-SU,"As Suwaydā'",Suwayda,province,
SY,SY-DR,Dar'ā,Daraa,province,
SY,SY-DY,"Dayr az Zawr","Deir Ezzor",province,
SY,SY-DI,Dimashq,Damascus,province,
SY,SY-HL,Ḩalab,Aleppo,province,
SY,SY-HM,Ḩamāh,Hama,province,
SY,SY-HI,Ḩimş,Homs,province,
SY,SY-ID,Idlib,Idlib,province,
SY,SY-RD,"Rīf Dimashq","Damascus Countryside",province,
SY,SY-TA,Ţarţūs,Tartus,province,
SZ,SZ-HH,Hhohho,,region,
SZ,SZ-LU,Lubombo,,region,
SZ,SZ-MA,Manzini,,region,
SZ,SZ-SH,Shiselweni,,region,
TD,TD-BG,"Bahr el Ghazal (local variant: Barh-el-Ghazal)","Bahr El Gazal",province,
TD,TD-BA,Batha,Batha,province,
TD,TD-BO,Borkou,Borkou,province,
TD,TD-CB,Chari-Baguirmi,Chari-Baguirmi,province,
TD,TD-EE,Ennedi-Est,"East Ennedi",province,
TD,TD-EO,Ennedi-Ouest,"West Ennedi",province,
TD,TD-GR,Guéra,Guera,province,
TD,TD-HL,"Hadjer Lamis","Hadjer Lamis",province,
TD,TD-KA,Kanem,Kanem,province,
TD,TD-LC,Lac,Lake,province,
TD,TD-LO,Logone-Occidental,"Western Logone",province,
TD,TD-LR,Logone-Oriental,"Eastern Logone",province,
TD,TD-MA,Mandoul,Mandoul,province,
TD,TD-ME,Mayo-Kebbi-Est,"East Mayo-Kebbi",province,
TD,TD-MO,Mayo-Kebbi-Ouest,"West Mayo-Kebbi",province,
TD,TD-MC,Moyen-Chari,"Middle Chari",province,
TD,TD-OD,Ouaddaï,Wadai,province,
TD,TD-SA,Salamat,Salamat,province,
TD,TD-SI,Sila,Sila,province,
TD,TD-TA,Tandjilé,Tandjile,province,
TD,TD-TI,Tibesti,Tibesti,province,
TD,TD-ND,"Ville de Ndjamena","N'Djamena City",province,
TD,TD-WF,"Wadi Fira","Wadi Fira",province,
TG,TG-C,Centrale,Central,region,
TG,TG-K,Kara,Kara,region,
TG,TG-M,Maritime,Maritime,region,
TG,TG-P,Plateaux,Plateaus,region,
TG,TG-S,Savanes,Savannahs,region,
TH,TH-37,"Amnat Charoen",,province,
TH,TH-15,"Ang Thong",,province,
TH,TH-38,"Bueng Kan",,province,
TH,TH-31,"Buri Ram",,province,
TH,TH-24,Chachoengsao,,province,
TH,TH-18,"Chai Nat",,province,
TH,TH-36,Chaiyaphum,,province,
TH,TH-22,Chanthaburi,,province,
TH,TH-50,"Chiang Mai",,province,
TH,TH-57,"Chiang Rai",,province,
TH,TH-20,"Chon Buri",,province,
TH,TH-86,Chumphon,,province,
TH,TH-46,Kalasin,,province,
TH,TH-62,"Kamphaeng Phet",,province,
TH,TH-71,Kanchanaburi,,province,
TH,TH-40,"Khon Kaen",,province,
TH,TH-81,Krabi,,province,
TH,TH-10,Bangkok,,"metropolitan administration",
TH,TH-52,Lampang,,province,
TH,TH-51,Lamphun,,province,
TH,TH-42,Loei,,province,
TH,TH-16,"Lop Buri",,province,
TH,TH-58,"Mae Hong Son",,province,
TH,TH-44,"Maha Sarakham",,province,
TH,TH-49,Mukdahan,,province,
TH,TH-26,"Nakhon Nayok",,province,
TH,TH-73,"Nakhon Pathom",,province,
TH,TH-48,"Nakhon Phanom",,province,
TH,TH-30,"Nakhon Ratchasima",,province,
TH,TH-60,"Nakhon Sawan",,province,
TH,TH-80,"Nakhon Si Thammarat",,province,
TH,TH-55,Nan,,province,
TH,TH-96,Narathiwat,,province,
TH,TH-39,"Nong Bua Lam Phu",,province,
TH,TH-43,"Nong Khai",,province,
TH,TH-12,Nonthaburi,,province,
TH,TH-13,"Pathum Thani",,province,
TH,TH-94,Pattani,,province,
TH,TH-82,Phangnga,,province,
TH,TH-93,Phatthalung,,province,
TH,TH-S,Phatthaya,,"special administrative city",
TH,TH-56,Phayao,,province,
TH,TH-67,Phetchabun,,province,
TH,TH-76,Phetchaburi,,province,
TH,TH-66,Phichit,,province,
TH,TH-65,Phitsanulok,,province,
TH,TH-14,"Phra Nakhon Si Ayutthaya",,province,
TH,TH-54,Phrae,,province,
TH,TH-83,Phuket,,province,
TH,TH-25,"Prachin Buri",,province,
TH,TH-77,"Prachuap Khiri Khan",,province,
TH,TH-85,Ranong,,province,
TH,TH-70,Ratchaburi,,province,
TH,TH-21,Rayong,,province,
TH,TH-45,"Roi Et",,province,
TH,TH-27,"Sa Kaeo",,province,
TH,TH-47,"Sakon Nakhon",,province,
TH,TH-11,"Samut Prakan",,province,
TH,TH-74,"Samut Sakhon",,province,
TH,TH-75,"Samut Songkhram",,province,
TH,TH-19,Saraburi,,province,
TH,TH-91,Satun,,province,
TH,TH-33,"Si Sa Ket",,province,
TH,TH-17,"Sing Buri",,province,
TH,TH-90,Songkhla,,province,
TH,TH-64,Sukhothai,,province,
TH,TH-72,"Suphan Buri",,province,
TH,TH-84,"Surat Thani",,province,
TH,TH-32,Surin,,province,
TH,TH-63,Tak,,province,
TH,TH-92,Trang,,province,
TH,TH-23,Trat,,province,
TH,TH-34,"Ubon Ratchathani",,province,
TH,TH-41,"Udon Thani",,province,
TH,TH-61,"Uthai Thani",,province,
TH,TH-53,Uttaradit,,province,
TH,TH-95,Yala,,province,
TH,TH-35,Yasothon,,province,
TJ,TJ-DU,Dushanbe,Dushanbe,"capital territory",
TJ,TJ-KT,Khatlon,Khatlon,region,
TJ,TJ-GB,"Kŭhistoni Badakhshon",Gorno-Badakhshan,"autonomous region",
TJ,TJ-RA,"nohiyahoi tobei jumhurí","districts under government jurisdiction","districts under republic administration",
TJ,TJ-SU,Sughd,Sughd,region,
TL,TL-AL,Aileu,,municipality,
TL,TL-AN,Ainaro,,municipality,
TL,TL-BA,Baucau,,municipality,
TL,TL-BO,Bobonaro,,municipality,
TL,TL-CO,"Cova Lima",,municipality,
TL,TL-DI,Díli,,municipality,
TL,TL-ER,Ermera,,municipality,
TL,TL-LA,Lautém,,municipality,
TL,TL-LI,Liquiça,,municipality,
TL,TL-MT,Manatuto,,municipality,
TL,TL-MF,Manufahi,,municipality,
TL,TL-OE,"Oé-Cusse Ambeno",,"special administrative region",
TL,TL-VI,Viqueque,,municipality,
TM,TM-A,Ahal,Ahal,region,
TM,TM-S,Aşgabat,Ashgabat,city,
TM,TM-B,Balkan,Balkan,region,
TM,TM-D,Daşoguz,Dashoguz,region,
TM,TM-L,Lebap,Lebap,region,
TM,TM-M,Mary,Mary,region,
TN,TN-31,Béja,,governorate,
TN,TN-13,"Ben Arous",,governorate,
TN,TN-23,Bizerte,,governorate,
TN,TN-81,Gabès,,governorate,
TN,TN-71,Gafsa,,governorate,
TN,TN-32,Jendouba,,governorate,
TN,TN-41,Kairouan,,governorate,
TN,TN-42,Kasserine,,governorate,
TN,TN-73,Kébili,,governorate,
TN,TN-12,L'Ariana,,governorate,
TN,TN-14,"La Manouba",,governorate,
TN,TN-33,"Le Kef",,governorate,
TN,TN-53,Mahdia,,governorate,
TN,TN-82,Médenine,,governorate,
TN,TN-52,Monastir,,governorate,
TN,TN-21,Nabeul,,governorate,
TN,TN-61,Sfax,,governorate,
TN,TN-43,"Sidi Bouzid",,governorate,
TN,TN-34,Siliana,,governorate,
TN,TN-51,Sousse,,governorate,
TN,TN-83,Tataouine,,governorate,
TN,TN-72,Tozeur,,governorate,
TN,TN-11,Tunis,,governorate,
TN,TN-22,Zaghouan,,governorate,
TO,TO-01,'Eua,,division,
TO,TO-02,Ha'apai,,division,
TO,TO-03,Niuas,,division,
TO,TO-04,Tongatapu,,division,
TO,TO-05,Vava'u,,division,
TR,TR-01,Adana,,province,
TR,TR-02,Adıyaman,,province,
TR,TR-03,Afyonkarahisar,,province,
TR,TR-04,Ağrı,,province,
TR,TR-68,Aksaray,,province,
TR,TR-05,Amasya,,province,
TR,TR-06,Ankara,,province,
TR,TR-07,Antalya,,province,
TR,TR-75,Ardahan,,province,
TR,TR-08,Artvin,,province,
TR,TR-09,Aydın,,province,
TR,TR-10,Balıkesir,,province,
TR,TR-74,Bartın,,province,
TR,TR-72,Batman,,province,
TR,TR-69,Bayburt,,province,
TR,TR-11,Bilecik,,province,
TR,TR-12,Bingöl,,province,
TR,TR-13,Bitlis,,province,
TR,TR-14,Bolu,,province,
TR,TR-15,Burdur,,province,
TR,TR-16,Bursa,,province,
TR,TR-17,Çanakkale,,province,
TR,TR-18,Çankırı,,province,
TR,TR-19,Çorum,,province,
TR,TR-20,Denizli,,province,
TR,TR-21,Diyarbakır,,province,
TR,TR-81,Düzce,,province,
TR,TR-22,Edirne,,province,
TR,TR-23,Elazığ,,province,
TR,TR-24,Erzincan,,province,
TR,TR-25,Erzurum,,province,
TR,TR-26,Eskişehir,,province,
TR,TR-27,Gaziantep,,province,
TR,TR-28,Giresun,,province,
TR,TR-29,Gümüşhane,,province,
TR,TR-30,Hakkâri,,province,
TR,TR-31,Hatay,,province,
TR,TR-76,Iğdır,,province,
TR,TR-32,Isparta,,province,
TR,TR-34,İstanbul,,province,
TR,TR-35,İzmir,,province,
TR,TR-46,Kahramanmaraş,,province,
TR,TR-78,Karabük,,province,
TR,TR-70,Karaman,,province,
TR,TR-36,Kars,,province,
TR,TR-37,Kastamonu,,province,
TR,TR-38,Kayseri,,province,
TR,TR-71,Kırıkkale,,province,
TR,TR-39,Kırklareli,,province,
TR,TR-40,Kırşehir,,province,
TR,TR-79,Kilis,,province,
TR,TR-41,Kocaeli,,province,
TR,TR-42,Konya,,province,
TR,TR-43,Kütahya,,province,
TR,TR-44,Malatya,,province,
TR,TR-45,Manisa,,province,
TR,TR-47,Mardin,,province,
TR,TR-33,Mersin,,province,
TR,TR-48,Muğla,,province,
TR,TR-49,Muş,,province,
TR,TR-50,Nevşehir,,province,
TR,TR-51,Niğde,,province,
TR,TR-52,Ordu,,province,
TR,TR-80,Osmaniye,,province,
TR,TR-53,Rize,,province,
TR,TR-54,Sakarya,,province,
TR,TR-55,Samsun,,province,
TR,TR-56,Siirt,,province,
TR,TR-57,Sinop,,province,
TR,TR-58,Sivas,,province,
TR,TR-63,Şanlıurfa,,province,
TR,TR-73,Şırnak,,province,
TR,TR-59,Tekirdağ,,province,
TR,TR-60,Tokat,,province,
TR,TR-61,Trabzon,,province,
TR,TR-62,Tunceli,,province,
TR,TR-64,Uşak,,province,
TR,TR-65,Van,,province,
TR,TR-77,Yalova,,province,
TR,TR-66,Yozgat,,province,
TR,TR-67,Zonguldak,,province,
TT,TT-ARI,Arima,,borough,
TT,TT-CHA,Chaguanas,,borough,
TT,TT-CTT,Couva-Tabaquite-Talparo,,region,
TT,TT-DMN,"Diego Martin",,region,
TT,TT-MRC,"Mayaro-Rio Claro",,region,
TT,TT-PED,Penal-Debe,,region,
TT,TT-POS,"Port of Spain",,city,
TT,TT-PRT,"Princes Town",,region,
TT,TT-PTF,"Point Fortin",,borough,
TT,TT-SFO,"San Fernando",,city,
TT,TT-SGE,"Sangre Grande",,region,
TT,TT-SIP,Siparia,,region,
TT,TT-SJL,"San Juan-Laventille",,region,
TT,TT-TOB,Tobago,,ward,
TT,TT-TUP,Tunapuna-Piarco,,region,
TV,TV-FUN,Funafuti,,"town council",
TV,TV-NMG,Nanumaga,,"island council",
TV,TV-NMA,Nanumea,,"island council",
TV,TV-NIT,Niutao,,"island council",
TV,TV-NUI,Nui,,"island council",
TV,TV-NKF,Nukufetau,,"island council",
TV,TV-NKL,Nukulaelae,,"island council",
TV,TV-VAI,Vaitupu,,"island council",
TW,TW-CHA,Changhua,,county,
TW,TW-CYI,Chiayi,,city,
TW,TW-CYQ,Chiayi,,county,
TW,TW-HSZ,Hsinchu,,city,
TW,TW-HSQ,Hsinchu,,county,
TW,TW-HUA,Hualien,,county,
TW,TW-KHH,Kaohsiung,,"special municipality",
TW,TW-KEE,Keelung,,city,
TW,TW-KIN,Kinmen,,county,
TW,TW-LIE,Lienchiang,,county,
TW,TW-MIA,Miaoli,,county,
TW,TW-NAN,Nantou,,county,
TW,TW-NWT,"New Taipei",,"special municipality",
TW,TW-PEN,Penghu,,county,
TW,TW-PIF,Pingtung,,county,
TW,TW-TXG,Taichung,,"special municipality",
TW,TW-TNN,Tainan,,"special municipality",
TW,TW-TPE,Taipei,,"special municipality",
TW,TW-TTT,Taitung,,county,
TW,TW-TAO,Taoyuan,,"special municipality",
TW,TW-ILA,Yilan,,county,
TW,TW-YUN,Yunlin,,county,
TZ,TZ-01,Arusha,,region,
TZ,TZ-02,"Dar es Salaam",,region,
TZ,TZ-03,Dodoma,,region,
TZ,TZ-27,Geita,,region,
TZ,TZ-04,Iringa,,region,
TZ,TZ-05,Kagera,,region,
TZ,TZ-06,"Kaskazini Pemba","Pemba North",region,
TZ,TZ-07,"Kaskazini Unguja","Zanzibar North",region,
TZ,TZ-28,Katavi,,region,
TZ,TZ-08,Kigoma,,region,
TZ,TZ-09,Kilimanjaro,,region,
TZ,TZ-10,"Kusini Pemba","Pemba South",region,
TZ,TZ-11,"Kusini Unguja","Zanzibar South",region,
TZ,TZ-12,Lindi,,region,
TZ,TZ-26,Manyara,,region,
TZ,TZ-13,Mara,,region,
TZ,TZ-14,Mbeya,,region,
TZ,TZ-15,"Mjini Magharibi","Zanzibar West",region,
TZ,TZ-16,Morogoro,,region,
TZ,TZ-17,Mtwara,,region,
TZ,TZ-18,Mwanza,,region,
TZ,TZ-29,Njombe,,region,
TZ,TZ-19,Pwani,Coast,region,
TZ,TZ-20,Rukwa,,region,
TZ,TZ-21,Ruvuma,,region,
TZ,TZ-22,Shinyanga,,region,
TZ,TZ-30,Simiyu,,region,
TZ,TZ-23,Singida,,region,
TZ,TZ-31,Songwe,Songwe,region,
TZ,TZ-24,Tabora,,region,
TZ,TZ-25,Tanga,,region,
UA,UA-43,"Avtonomna Respublika Krym",Crimea,republic,
UA,UA-71,"Cherkaska oblast",Cherkasy,region,
UA,UA-74,"Chernihivska oblast",Chernihiv,region,
UA,UA-77,"Chernivetska oblast",Chernivtsi,region,
UA,UA-12,"Dnipropetrovska oblast",Dnipropetrovsk,region,
UA,UA-14,"Donetska oblast",Donetsk,region,
UA,UA-26,"Ivano-Frankivska oblast",Ivano-Frankivsk,region,
UA,UA-63,"Kharkivska oblast",Kharkiv,region,
UA,UA-65,"Khersonska oblast",Kherson,region,
UA,UA-68,"Khmelnytska oblast",Khmelnytskyi,region,
UA,UA-35,"Kirovohradska oblast",Kirovohrad,region,
UA,UA-30,Kyiv,"Kyiv City",city,
UA,UA-32,"Kyivska oblast",Kyiv,region,
UA,UA-09,"Luhanska oblast",Luhansk,region,
UA,UA-46,"Lvivska oblast",Lviv,region,
UA,UA-48,"Mykolaivska oblast",Mykolaiv,region,
UA,UA-51,"Odeska oblast",Odesa,region,
UA,UA-53,"Poltavska oblast",Poltava,region,
UA,UA-56,"Rivnenska oblast",Rivne,region,
UA,UA-40,Sevastopol,Sevastopol,city,
UA,UA-59,"Sumska oblast",Sumy,region,
UA,UA-61,"Ternopilska oblast",Ternopil,region,
UA,UA-05,"Vinnytska oblast",Vinnytsia,region,
UA,UA-07,"Volynska oblast",Volyn,region,
UA,UA-21,"Zakarpatska oblast",Transcarpathia,region,
UA,UA-23,"Zaporizka oblast",Zaporizhzhia,region,
UA,UA-18,"Zhytomyrska oblast",Zhytomyr,region,
UG,UG-C,Central,,"geographical region",
UG,UG-E,Eastern,,"geographical region",
UG,UG-N,Northern,,"geographical region",
UG,UG-W,Western,,"geographical region",
UG,UG-314,Abim,,district,UG-N
UG,UG-301,Adjumani,,district,UG-N
UG,UG-322,Agago,,district,UG-N
UG,UG-323,Alebtong,,district,UG-N
UG,UG-315,Amolatar,,district,UG-N
UG,UG-324,Amudat,,district,UG-N
UG,UG-216,Amuria,,district,UG-E
UG,UG-316,Amuru,,district,UG-N
UG,UG-302,Apac,,district,UG-N
UG,UG-303,Arua,,district,UG-N
UG,UG-217,Budaka,,district,UG-E
UG,UG-218,Bududa,,district,UG-E
UG,UG-201,Bugiri,,district,UG-E
UG,UG-235,Bugweri,,district,UG-E
UG,UG-420,Buhweju,,district,UG-W
UG,UG-117,Buikwe,,district,UG-C
UG,UG-219,Bukedea,,district,UG-E
UG,UG-118,Bukomansibi,,district,UG-C
UG,UG-220,Bukwo,,district,UG-E
UG,UG-225,Bulambuli,,district,UG-E
UG,UG-416,Buliisa,,district,UG-W
UG,UG-401,Bundibugyo,,district,UG-W
UG,UG-430,Bunyangabu,,district,UG-W
UG,UG-402,Bushenyi,,district,UG-W
UG,UG-202,Busia,,district,UG-E
UG,UG-221,Butaleja,,district,UG-E
UG,UG-119,Butambala,,district,UG-C
UG,UG-233,Butebo,,district,UG-E
UG,UG-120,Buvuma,,district,UG-C
UG,UG-226,Buyende,,district,UG-E
UG,UG-317,Dokolo,,district,UG-N
UG,UG-121,Gomba,,district,UG-C
UG,UG-304,Gulu,,district,UG-N
UG,UG-403,Hoima,,district,UG-W
UG,UG-417,Ibanda,,district,UG-W
UG,UG-203,Iganga,,district,UG-E
UG,UG-418,Isingiro,,district,UG-W
UG,UG-204,Jinja,,district,UG-E
UG,UG-318,Kaabong,,district,UG-N
UG,UG-404,Kabale,,district,UG-W
UG,UG-405,Kabarole,,district,UG-W
UG,UG-213,Kaberamaido,,district,UG-E
UG,UG-427,Kagadi,,district,UG-W
UG,UG-428,Kakumiro,,district,UG-W
UG,UG-237,Kalaki,,district,UG-E
UG,UG-101,Kalangala,,district,UG-C
UG,UG-222,Kaliro,,district,UG-E
UG,UG-122,Kalungu,,district,UG-C
UG,UG-102,Kampala,,city,UG-C
UG,UG-205,Kamuli,,district,UG-E
UG,UG-413,Kamwenge,,district,UG-W
UG,UG-414,Kanungu,,district,UG-W
UG,UG-206,Kapchorwa,,district,UG-E
UG,UG-236,Kapelebyong,,district,UG-E
UG,UG-335,Karenga,,district,UG-N
UG,UG-126,Kasanda,,district,UG-C
UG,UG-406,Kasese,,district,UG-W
UG,UG-207,Katakwi,,district,UG-E
UG,UG-112,Kayunga,,district,UG-C
UG,UG-433,Kazo,,district,UG-W
UG,UG-407,Kibaale,,district,UG-W
UG,UG-103,Kiboga,,district,UG-C
UG,UG-227,Kibuku,,district,UG-E
UG,UG-432,Kikuube,,district,UG-W
UG,UG-419,Kiruhura,,district,UG-W
UG,UG-421,Kiryandongo,,district,UG-W
UG,UG-408,Kisoro,,district,UG-W
UG,UG-434,Kitagwenda,,district,UG-W
UG,UG-305,Kitgum,,district,UG-N
UG,UG-319,Koboko,,district,UG-N
UG,UG-325,Kole,,district,UG-N
UG,UG-306,Kotido,,district,UG-N
UG,UG-208,Kumi,,district,UG-E
UG,UG-333,Kwania,,district,UG-N
UG,UG-228,Kween,,district,UG-E
UG,UG-123,Kyankwanzi,,district,UG-C
UG,UG-422,Kyegegwa,,district,UG-W
UG,UG-415,Kyenjojo,,district,UG-W
UG,UG-125,Kyotera,,district,UG-C
UG,UG-326,Lamwo,,district,UG-N
UG,UG-307,Lira,,district,UG-N
UG,UG-229,Luuka,,district,UG-E
UG,UG-104,Luwero,,district,UG-C
UG,UG-124,Lwengo,,district,UG-C
UG,UG-114,Lyantonde,,district,UG-C
UG,UG-336,Madi-Okollo,,district,UG-N
UG,UG-223,Manafwa,,district,UG-E
UG,UG-320,Maracha,,district,UG-N
UG,UG-105,Masaka,,district,UG-C
UG,UG-409,Masindi,,district,UG-W
UG,UG-214,Mayuge,,district,UG-E
UG,UG-209,Mbale,,district,UG-E
UG,UG-410,Mbarara,,district,UG-W
UG,UG-423,Mitooma,,district,UG-W
UG,UG-115,Mityana,,district,UG-C
UG,UG-308,Moroto,,district,UG-N
UG,UG-309,Moyo,,district,UG-N
UG,UG-106,Mpigi,,district,UG-C
UG,UG-107,Mubende,,district,UG-C
UG,UG-108,Mukono,,district,UG-C
UG,UG-334,Nabilatuk,,district,UG-N
UG,UG-311,Nakapiripirit,,district,UG-N
UG,UG-116,Nakaseke,,district,UG-C
UG,UG-109,Nakasongola,,district,UG-C
UG,UG-230,Namayingo,,district,UG-E
UG,UG-234,Namisindwa,,district,UG-E
UG,UG-224,Namutumba,,district,UG-E
UG,UG-327,Napak,,district,UG-N
UG,UG-310,Nebbi,,district,UG-N
UG,UG-231,Ngora,,district,UG-E
UG,UG-424,Ntoroko,,district,UG-W
UG,UG-411,Ntungamo,,district,UG-W
UG,UG-328,Nwoya,,district,UG-N
UG,UG-337,Obongi,,district,UG-N
UG,UG-331,Omoro,,district,UG-N
UG,UG-329,Otuke,,district,UG-N
UG,UG-321,Oyam,,district,UG-N
UG,UG-312,Pader,,district,UG-N
UG,UG-332,Pakwach,,district,UG-N
UG,UG-210,Pallisa,,district,UG-E
UG,UG-110,Rakai,,district,UG-C
UG,UG-429,Rubanda,,district,UG-W
UG,UG-425,Rubirizi,,district,UG-W
UG,UG-431,Rukiga,,district,UG-W
UG,UG-412,Rukungiri,,district,UG-W
UG,UG-435,Rwampara,,district,UG-W
UG,UG-111,Sembabule,,district,UG-C
UG,UG-232,Serere,,district,UG-E
UG,UG-426,Sheema,,district,UG-W
UG,UG-215,Sironko,,district,UG-E
UG,UG-211,Soroti,,district,UG-E
UG,UG-212,Tororo,,district,UG-E
UG,UG-113,Wakiso,,district,UG-C
UG,UG-313,Yumbe,,district,UG-N
UG,UG-330,Zombo,,district,UG-N
UM,UM-81,"Baker Island",,"geographical unit",
UM,UM-84,"Howland Island",,"geographical unit",
UM,UM-86,"Jarvis Island",,"geographical unit",
UM,UM-67,"Johnston Atoll",,"geographical unit",
UM,UM-89,"Kingman Reef",,"geographical unit",
UM,UM-71,"Midway Islands",,"geographical unit",
UM,UM-76,"Navassa Island",,"geographical unit",
UM,UM-95,"Palmyra Atoll",,"geographical unit",
UM,UM-79,"Wake Island",,"geographical unit",
US,US-AL,Alabama,,state,
US,US-AK,Alaska,,state,
US,US-AZ,Arizona,,state,
US,US-AR,Arkansas,,state,
US,US-CA,California,,state,
US,US-CO,Colorado,,state,
US,US-CT,Connecticut,,state,
US,US-DE,Delaware,,state,
US,US-FL,Florida,,state,
US,US-GA,Georgia,,state,
US,US-HI,Hawaii,,state,
US,US-ID,Idaho,,state,
US,US-IL,Illinois,,state,
US,US-IN,Indiana,,state,
US,US-IA,Iowa,,state,
US,US-KS,Kansas,,state,
US,US-KY,Kentucky,,state,
US,US-LA,Louisiana,,state,
US,US-ME,Maine,,state,
US,US-MD,Maryland,,state,
US,US-MA,Massachusetts,,state,
US,US-MI,Michigan,,state,
US,US-MN,Minnesota,,state,
US,US-MS,Mississippi,,state,
US,US-MO,Missouri,,state,
US,US-MT,Montana,,state,
US,US-NE,Nebraska,,state,
US,US-NV,Nevada,,state,
US,US-NH,"New Hampshire",,state,
US,US-NJ,"New Jersey",,state,
US,US-NM,"New Mexico",,state,
US,US-NY,"New York",,state,
US,US-NC,"North Carolina",,state,
US,US-ND,"North Dakota",,state,
US,US-OH,Ohio,,state,
US,US-OK,Oklahoma,,state,
US,US-OR,Oregon,,state,
US,US-PA,Pennsylvania,,state,
US,US-RI,"Rhode Island",,state,
US,US-SC,"South Carolina",,state,
US,US-SD,"South Dakota",,state,
US,US-TN,Tennessee,,state,
US,US-TX,Texas,,state,
US,US-UT,Utah,,state,
US,US-VT,Vermont,,state,
US,US-VA,Virginia,,state,
US,US-WA,Washington,,state,
US,US-WV,"West Virginia",,state,
US,US-WI,Wisconsin,,state,
US,US-WY,Wyoming,,state,
US,US-DC,"District of Columbia",,district,
US,US-AS,"American Samoa",,"outlying area",
US,US-GU,Guam,,"outlying area",
US,US-MP,"Northern Mariana Islands",,"outlying area",
US,US-PR,"Puerto Rico",,"outlying area",
US,US-UM,"United States Minor Outlying Islands",,"outlying area",
US,US-VI,"Virgin Islands, U.S.",,"outlying area",
UY,UY-AR,Artigas,,department,
UY,UY-CA,Canelones,,department,
UY,UY-CL,"Cerro Largo",,department,
UY,UY-CO,Colonia,,department,
UY,UY-DU,Durazno,,department,
UY,UY-FS,Flores,,department,
UY,UY-FD,Florida,,department,
UY,UY-LA,Lavalleja,,department,
UY,UY-MA,Maldonado,,department,
UY,UY-MO,Montevideo,,department,
UY,UY-PA,Paysandú,,department,
UY,UY-RN,"Río Negro",,department,
UY,UY-RV,Rivera,,department,
UY,UY-RO,Rocha,,department,
UY,UY-SA,Salto,,department,
UY,UY-SJ,"San José",,department,
UY,UY-SO,Soriano,,department,
UY,UY-TA,Tacuarembó,,department,
UY,UY-TT,"Treinta y Tres",,department,
UZ,UZ-AN,Andijon,Andijan,region,
UZ,UZ-BU,Buxoro,Bukhara,region,
UZ,UZ-FA,Farg‘ona,Fergana,region,
UZ,UZ-JI,Jizzax,Jizzakh,region,
UZ,UZ-NG,Namangan,Namangan,region,
UZ,UZ-NW,Navoiy,Navoiy,region,
UZ,UZ-QA,Qashqadaryo,Qashqadaryo,region,
UZ,UZ-QR,"Qoraqalpog‘iston Respublikasi",Karakalpakstan,republic,
UZ,UZ-SA,Samarqand,Samarqand,region,
UZ,UZ-SI,Sirdaryo,Sirdaryo,region,
UZ,UZ-SU,Surxondaryo,Surkhondaryo,region,
UZ,UZ-TK,Toshkent,"Tashkent City",city,
UZ,UZ-TO,Toshkent,Tashkent,region,
UZ,UZ-XO,Xorazm,Khorezm,region,
VC,VC-01,Charlotte,,parish,
VC,VC-06,Grenadines,,parish,
VC,VC-02,"Saint Andrew",,parish,
VC,VC-03,"Saint David",,parish,
VC,VC-04,"Saint George",,parish,
VC,VC-05,"Saint Patrick",,parish,
VE,VE-Z,Amazonas,Amazonia,state,
VE,VE-B,Anzoátegui,Anzoategui,state,
VE,VE-C,Apure,Apure,state,
VE,VE-D,Aragua,Aragua,state,
VE,VE-E,Barinas,Barinas,state,
VE,VE-F,Bolívar,Bolivar,state,
VE,VE-G,Carabobo,Carabobo,state,
VE,VE-H,Cojedes,Cojedes,state,
VE,VE-Y,"Delta Amacuro","Amacuro Delta",state,
VE,VE-W,"Dependencias Federales","Federal Dependencies","federal dependency",
VE,VE-A,"Distrito Capital",Caracas,"capital district",
VE,VE-I,Falcón,Falcon,state,
VE,VE-J,Guárico,Guarico,state,
VE,VE-X,"La Guaira","La Guaira",state,
VE,VE-K,Lara,Lara,state,
VE,VE-L,Mérida,Merida,state,
VE,VE-M,Miranda,Miranda,state,
VE,VE-N,Monagas,Monagas,state,
VE,VE-O,"Nueva Esparta","New Sparta",state,
VE,VE-P,Portuguesa,Portuguesa,state,
VE,VE-R,Sucre,Sucre,state,
VE,VE-S,Táchira,Tachira,state,
VE,VE-T,Trujillo,Trujillo,state,
VE,VE-U,Yaracuy,Yaracuy,state,
VE,VE-V,Zulia,Zulia,state,
VN,VN-44,"An Giang",,province,
VN,VN-43,"Bà Rịa - Vũng Tàu",,province,
VN,VN-54,"Bắc Giang",,province,
VN,VN-53,"Bắc Kạn",,province,
VN,VN-55,"Bạc Liêu",,province,
VN,VN-56,"Bắc Ninh",,province,
VN,VN-50,"Bến Tre",,province,
VN,VN-31,"Bình Định",,province,
VN,VN-57,"Bình Dương",,province,
VN,VN-58,"Bình Phước",,province,
VN,VN-40,"Bình Thuận",,province,
VN,VN-59,"Cà Mau",,province,
VN,VN-CT,"Cần Thơ",,municipality,
VN,VN-04,"Cao Bằng",,province,
VN,VN-DN,"Đà Nẵng",,municipality,
VN,VN-33,"Đắk Lắk",,province,
VN,VN-72,"Đắk Nông",,province,
VN,VN-71,"Điện Biên",,province,
VN,VN-39,"Đồng Nai",,province,
VN,VN-45,"Đồng Tháp",,province,
VN,VN-30,"Gia Lai",,province,
VN,VN-03,"Hà Giang",,province,
VN,VN-63,"Hà Nam",,province,
VN,VN-HN,"Hà Nội",,municipality,
VN,VN-23,"Hà Tĩnh",,province,
VN,VN-61,"Hải Dương",,province,
VN,VN-HP,"Hải Phòng",,municipality,
VN,VN-73,"Hậu Giang",,province,
VN,VN-SG,"Hồ Chí Minh",,municipality,
VN,VN-14,"Hòa Bình",,province,
VN,VN-66,"Hưng Yên",,province,
VN,VN-34,"Khánh Hòa",,province,
VN,VN-47,"Kiến Giang",,province,
VN,VN-28,"Kon Tum",,province,
VN,VN-01,"Lai Châu",,province,
VN,VN-35,"Lâm Đồng",,province,
VN,VN-09,"Lạng Sơn",,province,
VN,VN-02,"Lào Cai",,province,
VN,VN-41,"Long An",,province,
VN,VN-67,"Nam Định",,province,
VN,VN-22,"Nghệ An",,province,
VN,VN-18,"Ninh Bình",,province,
VN,VN-36,"Ninh Thuận",,province,
VN,VN-68,"Phú Thọ",,province,
VN,VN-32,"Phú Yên",,province,
VN,VN-24,"Quảng Bình",,province,
VN,VN-27,"Quảng Nam",,province,
VN,VN-29,"Quảng Ngãi",,province,
VN,VN-13,"Quảng Ninh",,province,
VN,VN-25,"Quảng Trị",,province,
VN,VN-52,"Sóc Trăng",,province,
VN,VN-05,"Sơn La",,province,
VN,VN-37,"Tây Ninh",,province,
VN,VN-20,"Thái Bình",,province,
VN,VN-69,"Thái Nguyên",,province,
VN,VN-21,"Thanh Hóa",,province,
VN,VN-26,"Thừa Thiên-Huế",,province,
VN,VN-46,"Tiền Giang",,province,
VN,VN-51,"Trà Vinh",,province,
VN,VN-07,"Tuyên Quang",,province,
VN,VN-49,"Vĩnh Long",,province,
VN,VN-70,"Vĩnh Phúc",,province,
VN,VN-06,"Yên Bái",,province,
VU,VU-MAP,Malampa,,province,
VU,VU-PAM,Pénama,,province,
VU,VU-SAM,Sanma,,province,
VU,VU-SEE,Shéfa,,province,
VU,VU-TAE,Taféa,,province,
VU,VU-TOB,Torba,,province,
WF,WF-AL,Alo,,precinct,
WF,WF-SG,Sigave,,precinct,
WF,WF-UV,Uvea,,precinct,
WS,WS-AA,A'ana,,district,
WS,WS-AL,Aiga-i-le-Tai,,district,
WS,WS-AT,Atua,,district,
WS,WS-FA,Fa'asaleleaga,,district,
WS,WS-GE,Gaga'emauga,,district,
WS,WS-GI,Gagaifomauga,,district,
WS,WS-PA,Palauli,,district,
WS,WS-SA,Satupa'itea,,district,
WS,WS-TU,Tuamasaga,,district,
WS,WS-VF,Va'a-o-Fonoti,,district,
WS,WS-VS,Vaisigano,,district,
YE,YE-AD,‘Adan,Aden,governorate,
YE,YE-AM,‘Amrān,Amran,governorate,
YE,YE-AB,Abyan,Abyan,governorate,
YE,YE-DA,"Aḑ Ḑāli‘",Dhale,governorate,
YE,YE-BA,"Al Bayḑā’",Beida,governorate,
YE,YE-HU,"Al Ḩudaydah","Western Coast",governorate,
YE,YE-JA,"Al Jawf",Jouf,governorate,
YE,YE-MR,"Al Mahrah",Mahra,governorate,
YE,YE-MW,"Al Maḩwīt",Mahwit,governorate,
YE,YE-SA,"Amānat al ‘Āşimah","Sanaa City",municipality,
YE,YE-SU,"Arkhabīl Suquţrá",Socotra,governorate,
YE,YE-DH,Dhamār,Dhamar,governorate,
YE,YE-HD,Ḩaḑramawt,Hadhramaut,governorate,
YE,YE-HJ,Ḩajjah,Hajjah,governorate,
YE,YE-IB,Ibb,Ibb,governorate,
YE,YE-LA,Laḩij,Lahij,governorate,
YE,YE-MA,Ma’rib,Marib,governorate,
YE,YE-RA,Raymah,Raymah,governorate,
YE,YE-SD,Şāʻdah,Saada,governorate,
YE,YE-SN,Şanʻā’,Sanaa,governorate,
YE,YE-SH,Shabwah,Shabwah,governorate,
YE,YE-TA,Tāʻizz,Taiz,governorate,
ZA,ZA-EC,"Eastern Cape",,province,
ZA,ZA-FS,"Free State",,province,
ZA,ZA-GP,Gauteng,,province,
ZA,ZA-KZN,Kwazulu-Natal,,province,
ZA,ZA-LP,Limpopo,,province,
ZA,ZA-MP,Mpumalanga,,province,
ZA,ZA-NW,North-West,,province,
ZA,ZA-NC,"Northern Cape",,province,
ZA,ZA-WC,"Western Cape",,province,
ZM,ZM-02,Central,,province,
ZM,ZM-08,Copperbelt,,province,
ZM,ZM-03,Eastern,,province,
ZM,ZM-04,Luapula,,province,
ZM,ZM-09,Lusaka,,province,
ZM,ZM-10,Muchinga,,province,
ZM,ZM-06,North-Western,,province,
ZM,ZM-05,Northern,,province,
ZM,ZM-07,Southern,,province,
ZM,ZM-01,Western,,province,
ZW,ZW-BU,Bulawayo,,province,
ZW,ZW-HA,Harare,,province,
ZW,ZW-MA,Manicaland,,province,
ZW,ZW-MC,"Mashonaland Central",,province,
ZW,ZW-ME,"Mashonaland East",,province,
ZW,ZW-MW,"Mashonaland West",,province,
ZW,ZW-MV,Masvingo,,province,
ZW,ZW-MN,"Matabeleland North",,province,
ZW,ZW-MS,"Matabeleland South",,province,
ZW,ZW-MI,Midlands,,province,
